{
"type": "FeatureCollection",
"name": "Service004009_0011__00_base_prg",
"xy_coordinate_resolution": 1e-08,
"features": [
{ "type": "Feature", "properties": { "FID": 31825, "GisLink": 0, "Acad_Text": "3 - 0", "Perimeter": 0 }, "geometry": { "type": "LineString", "coordinates": [ [ 7.29463675, 44.75978406 ], [ 7.29480996, 44.75970555 ] ] } },
{ "type": "Feature", "properties": { "FID": 32039, "GisLink": 0, "Acad_Text": "3 - 0", "Perimeter": 0 }, "geometry": { "type": "LineString", "coordinates": [ [ 7.29397341, 44.76032093 ], [ 7.29378433, 44.76049745 ], [ 7.29354059, 44.76072583 ] ] } },
{ "type": "Feature", "properties": { "FID": 32040, "GisLink": 0, "Acad_Text": "3 - 0", "Perimeter": 0 }, "geometry": { "type": "LineString", "coordinates": [ [ 7.29536035, 44.7603814 ], [ 7.2951739, 44.76075859 ] ] } },
{ "type": "Feature", "properties": { "FID": 32041, "GisLink": 0, "Acad_Text": "3 - 0", "Perimeter": 0 }, "geometry": { "type": "LineString", "coordinates": [ [ 7.2951739, 44.76075859 ], [ 7.29505903, 44.76099283 ], [ 7.29455183, 44.76095343 ], [ 7.29414337, 44.76092098 ], [ 7.29435266, 44.76060217 ] ] } },
{ "type": "Feature", "properties": { "FID": 32042, "GisLink": 0, "Acad_Text": "3 - 0", "Perimeter": 0 }, "geometry": { "type": "LineString", "coordinates": [ [ 7.29435266, 44.76060217 ], [ 7.29457016, 44.76026133 ] ] } },
{ "type": "Feature", "properties": { "FID": 32045, "GisLink": 0, "Acad_Text": "3 - 0", "Perimeter": 0 }, "geometry": { "type": "LineString", "coordinates": [ [ 7.29345682, 44.76075153 ], [ 7.29354059, 44.76072583 ] ] } },
{ "type": "Feature", "properties": { "FID": 32046, "GisLink": 0, "Acad_Text": "3 - 0", "Perimeter": 0 }, "geometry": { "type": "LineString", "coordinates": [ [ 7.29354059, 44.76072583 ], [ 7.29369343, 44.76067888 ], [ 7.29392319, 44.76070102 ], [ 7.29413172, 44.76056806 ], [ 7.29435266, 44.76060217 ] ] } },
{ "type": "Feature", "properties": { "FID": 32047, "GisLink": 0, "Acad_Text": "3 - 0", "Perimeter": 0 }, "geometry": { "type": "LineString", "coordinates": [ [ 7.29435266, 44.76060217 ], [ 7.29460231, 44.76064087 ], [ 7.29501139, 44.76070903 ], [ 7.2951739, 44.76075859 ] ] } },
{ "type": "Feature", "properties": { "FID": 32048, "GisLink": 0, "Acad_Text": "3 - 0", "Perimeter": 0 }, "geometry": { "type": "LineString", "coordinates": [ [ 7.2951739, 44.76075859 ], [ 7.29521394, 44.76077083 ], [ 7.29511188, 44.76094926 ], [ 7.29514917, 44.76114185 ] ] } },
{ "type": "Feature", "properties": { "FID": 32073, "GisLink": 0, "Acad_Text": "3 - 0", "Perimeter": 0 }, "geometry": { "type": "LineString", "coordinates": [ [ 7.29296764, 44.76074545 ], [ 7.29326754, 44.76050082 ], [ 7.29348033, 44.76032828 ] ] } },
{ "type": "Feature", "properties": { "FID": 32075, "GisLink": 0, "Acad_Text": "3 - 0", "Perimeter": 0 }, "geometry": { "type": "LineString", "coordinates": [ [ 7.29348672, 44.76018715 ], [ 7.29324851, 44.76027559 ] ] } },
{ "type": "Feature", "properties": { "FID": 32076, "GisLink": 0, "Acad_Text": "3 - 0", "Perimeter": 0 }, "geometry": { "type": "LineString", "coordinates": [ [ 7.29324851, 44.76027559 ], [ 7.29315397, 44.76033005 ], [ 7.29285361, 44.76051217 ], [ 7.29266311, 44.76063647 ] ] } },
{ "type": "Feature", "properties": { "FID": 32078, "GisLink": 0, "Acad_Text": "3 - 0", "Perimeter": 0 }, "geometry": { "type": "LineString", "coordinates": [ [ 7.29346558, 44.76032644 ], [ 7.29360135, 44.76022834 ], [ 7.29370288, 44.76019019 ], [ 7.29408604, 44.759965 ], [ 7.29416717, 44.7599209 ], [ 7.29429524, 44.75988406 ] ] } },
{ "type": "Feature", "properties": { "FID": 32079, "GisLink": 0, "Acad_Text": "3 - 0", "Perimeter": 0 }, "geometry": { "type": "LineString", "coordinates": [ [ 7.29480996, 44.75970555 ], [ 7.29493317, 44.75975962 ], [ 7.29528284, 44.75992226 ], [ 7.29559077, 44.76006226 ], [ 7.29590238, 44.76020724 ] ] } },
{ "type": "Feature", "properties": { "FID": 32080, "GisLink": 0, "Acad_Text": "3 - 0", "Perimeter": 0 }, "geometry": { "type": "LineString", "coordinates": [ [ 7.29573671, 44.76032161 ], [ 7.29543195, 44.76026586 ], [ 7.29508638, 44.76005607 ], [ 7.29463675, 44.75978406 ] ] } },
{ "type": "Feature", "properties": { "FID": 32087, "GisLink": 0, "Acad_Text": "3 - 0", "Perimeter": 0 }, "geometry": { "type": "LineString", "coordinates": [ [ 7.29541952, 44.76044872 ], [ 7.29602071, 44.76062324 ], [ 7.29608901, 44.76054437 ] ] } },
{ "type": "Feature", "properties": { "FID": 32088, "GisLink": 0, "Acad_Text": "3 - 0", "Perimeter": 0 }, "geometry": { "type": "LineString", "coordinates": [ [ 7.29542241, 44.76039203 ], [ 7.29541952, 44.76044872 ] ] } },
{ "type": "Feature", "properties": { "FID": 32089, "GisLink": 0, "Acad_Text": "3 - 0", "Perimeter": 0 }, "geometry": { "type": "LineString", "coordinates": [ [ 7.29541952, 44.76044872 ], [ 7.29539125, 44.76097447 ], [ 7.29541884, 44.7611277 ] ] } },
{ "type": "Feature", "properties": { "FID": 32093, "GisLink": 0, "Acad_Text": "3 - 0", "Perimeter": 0 }, "geometry": { "type": "LineString", "coordinates": [ [ 7.29573671, 44.76032161 ], [ 7.29571208, 44.76042935 ], [ 7.29542241, 44.76039203 ] ] } },
{ "type": "Feature", "properties": { "FID": 32094, "GisLink": 0, "Acad_Text": "3 - 0", "Perimeter": 0 }, "geometry": { "type": "LineString", "coordinates": [ [ 7.29542241, 44.76039203 ], [ 7.29536035, 44.7603814 ] ] } },
{ "type": "Feature", "properties": { "FID": 32095, "GisLink": 0, "Acad_Text": "3 - 0", "Perimeter": 0 }, "geometry": { "type": "LineString", "coordinates": [ [ 7.29536035, 44.7603814 ], [ 7.29496167, 44.76031983 ], [ 7.29457016, 44.76026133 ] ] } },
{ "type": "Feature", "properties": { "FID": 32096, "GisLink": 0, "Acad_Text": "3 - 0", "Perimeter": 0 }, "geometry": { "type": "LineString", "coordinates": [ [ 7.29457016, 44.76026133 ], [ 7.29407893, 44.7603108 ], [ 7.29397341, 44.76032093 ] ] } },
{ "type": "Feature", "properties": { "FID": 32097, "GisLink": 0, "Acad_Text": "3 - 0", "Perimeter": 0 }, "geometry": { "type": "LineString", "coordinates": [ [ 7.29397341, 44.76032093 ], [ 7.29365597, 44.76035024 ], [ 7.29348033, 44.76032828 ] ] } },
{ "type": "Feature", "properties": { "FID": 32098, "GisLink": 0, "Acad_Text": "3 - 0", "Perimeter": 0 }, "geometry": { "type": "LineString", "coordinates": [ [ 7.29346558, 44.76032644 ], [ 7.29324851, 44.76027559 ] ] } },
{ "type": "Feature", "properties": { "FID": 32099, "GisLink": 0, "Acad_Text": "3 - 0", "Perimeter": 0 }, "geometry": { "type": "LineString", "coordinates": [ [ 7.29324851, 44.76027559 ], [ 7.29317071, 44.76024457 ], [ 7.29288828, 44.76012524 ] ] } },
{ "type": "Feature", "properties": { "FID": 33357, "GisLink": 0, "Acad_Text": "3 - 0", "Perimeter": 0 }, "geometry": { "type": "LineString", "coordinates": [ [ 7.29436224, 44.76011935 ], [ 7.29438794, 44.76008615 ], [ 7.29451059, 44.76013099 ], [ 7.29448501, 44.76016212 ] ] } },
{ "type": "Feature", "properties": { "FID": 33578, "GisLink": 0, "Acad_Text": "3 - 0", "Perimeter": 0 }, "geometry": { "type": "LineString", "coordinates": [ [ 7.29448501, 44.76016212 ], [ 7.29443901, 44.76021376 ], [ 7.29436032, 44.76018406 ], [ 7.29437606, 44.7601616 ], [ 7.29434101, 44.7601477 ], [ 7.29436224, 44.76011935 ] ] } },
{ "type": "Feature", "properties": { "FID": 33720, "GisLink": 0, "Acad_Text": "3 - 0", "Perimeter": 0 }, "geometry": { "type": "LineString", "coordinates": [ [ 7.29348033, 44.76032828 ], [ 7.29346558, 44.76032644 ] ] } },
{ "type": "Feature", "properties": { "FID": 33959, "GisLink": 0, "Acad_Text": "3 - 0", "Perimeter": 0 }, "geometry": { "type": "LineString", "coordinates": [ [ 7.29429524, 44.75988406 ], [ 7.2943223, 44.75988702 ], [ 7.29440304, 44.75986871 ], [ 7.29451174, 44.75983794 ], [ 7.29463675, 44.75978406 ] ] } },
{ "type": "Feature", "properties": { "FID": 33960, "GisLink": 0, "Acad_Text": "3 - 0", "Perimeter": 0 }, "geometry": { "type": "LineString", "coordinates": [ [ 7.29348672, 44.76018715 ], [ 7.29352349, 44.76017579 ], [ 7.29357328, 44.76015493 ], [ 7.29370753, 44.76007623 ], [ 7.29372707, 44.76005621 ], [ 7.29386289, 44.75987223 ], [ 7.29390395, 44.75977629 ], [ 7.29393187, 44.75969717 ], [ 7.29394992, 44.75964696 ], [ 7.29416583, 44.75947948 ], [ 7.29418801, 44.75949185 ], [ 7.29421285, 44.75962225 ], [ 7.2942021, 44.75972982 ], [ 7.29429524, 44.75988406 ] ] } },
{ "type": "Feature", "properties": { "FID": 33961, "GisLink": 0, "Acad_Text": "3 - 0", "Perimeter": 0 }, "geometry": { "type": "LineString", "coordinates": [ [ 7.29288828, 44.76012524 ], [ 7.2929615, 44.76002853 ], [ 7.29301143, 44.75999272 ], [ 7.29321215, 44.75996883 ], [ 7.29336572, 44.76008866 ], [ 7.29348672, 44.76018715 ] ] } },
{ "type": "Feature", "properties": { "FID": 34238, "GisLink": 0, "Acad_Text": "2 - 0", "Perimeter": 0 }, "geometry": { "type": "LineString", "coordinates": [ [ 7.29436224, 44.76011935 ], [ 7.29448501, 44.76016212 ] ] } },
{ "type": "Feature", "properties": { "FID": 34239, "GisLink": 0, "Acad_Text": "2 - 0", "Perimeter": 0 }, "geometry": { "type": "LineString", "coordinates": [ [ 7.29448501, 44.76016212 ], [ 7.29443901, 44.76021376 ], [ 7.29436032, 44.76018406 ], [ 7.29437606, 44.7601616 ], [ 7.29434101, 44.7601477 ], [ 7.29436224, 44.76011935 ] ] } },
{ "type": "Feature", "properties": { "FID": 55821, "GisLink": 0, "Acad_Text": "3 - 0", "Perimeter": 0 }, "geometry": { "type": "LineString", "coordinates": [ [ 7.29449711, 44.75953163 ], [ 7.29440304, 44.75986871 ] ] } },
{ "type": "Feature", "properties": { "FID": 55822, "GisLink": 0, "Acad_Text": "3 - 0", "Perimeter": 0 }, "geometry": { "type": "LineString", "coordinates": [ [ 7.29347886, 44.7593236 ], [ 7.29370292, 44.75947846 ], [ 7.29393926, 44.75964239 ], [ 7.29394992, 44.75964696 ] ] } },
{ "type": "Feature", "properties": { "FID": 55824, "GisLink": 0, "Acad_Text": "3 - 0", "Perimeter": 0 }, "geometry": { "type": "LineString", "coordinates": [ [ 7.29416583, 44.75947948 ], [ 7.29400564, 44.75939696 ], [ 7.29376672, 44.75923769 ], [ 7.2935938, 44.75911888 ] ] } },
{ "type": "Feature", "properties": { "FID": 55826, "GisLink": 0, "Acad_Text": "3 - 0", "Perimeter": 0 }, "geometry": { "type": "LineString", "coordinates": [ [ 7.29449711, 44.75953163 ], [ 7.29481756, 44.75955631 ] ] } },
{ "type": "Feature", "properties": { "FID": 56233, "GisLink": 0, "Acad_Text": "3 - 0", "Perimeter": 0 }, "geometry": { "type": "LineString", "coordinates": [ [ 7.29393187, 44.75969717 ], [ 7.29330971, 44.75959488 ] ] } },
{ "type": "Feature", "properties": { "FID": 56234, "GisLink": 0, "Acad_Text": "3 - 0", "Perimeter": 0 }, "geometry": { "type": "LineString", "coordinates": [ [ 7.29332472, 44.75957053 ], [ 7.29361758, 44.75963269 ], [ 7.29393187, 44.75969717 ] ] } },
{ "type": "Feature", "properties": { "FID": 56277, "GisLink": 0, "Acad_Text": "3 - 0", "Perimeter": 0 }, "geometry": { "type": "LineString", "coordinates": [ [ 7.29317596, 44.75977253 ], [ 7.29341233, 44.75986244 ], [ 7.29376871, 44.75999973 ] ] } },
{ "type": "Feature", "properties": { "FID": 56283, "GisLink": 0, "Acad_Text": "3 - 0", "Perimeter": 0 }, "geometry": { "type": "LineString", "coordinates": [ [ 7.29372707, 44.76005621 ], [ 7.29335835, 44.7599287 ], [ 7.2931345, 44.75983014 ] ] } },
{ "type": "Feature", "properties": { "FID": 56646, "GisLink": 0, "Acad_Text": "3 - 0", "Perimeter": 0 }, "geometry": { "type": "LineString", "coordinates": [ [ 7.29301143, 44.75999272 ], [ 7.29321215, 44.75996883 ], [ 7.29336572, 44.76008866 ], [ 7.29348672, 44.76018715 ], [ 7.29352349, 44.76017579 ], [ 7.29357328, 44.76015493 ], [ 7.29370753, 44.76007623 ], [ 7.29372707, 44.76005621 ] ] } },
{ "type": "Feature", "properties": { "FID": 56647, "GisLink": 0, "Acad_Text": "3 - 0", "Perimeter": 0 }, "geometry": { "type": "LineString", "coordinates": [ [ 7.29372707, 44.76005621 ], [ 7.29376871, 44.75999973 ] ] } },
{ "type": "Feature", "properties": { "FID": 56648, "GisLink": 0, "Acad_Text": "3 - 0", "Perimeter": 0 }, "geometry": { "type": "LineString", "coordinates": [ [ 7.29376871, 44.75999973 ], [ 7.29386289, 44.75987223 ], [ 7.29390395, 44.75977629 ], [ 7.29393187, 44.75969717 ] ] } },
{ "type": "Feature", "properties": { "FID": 56649, "GisLink": 0, "Acad_Text": "3 - 0", "Perimeter": 0 }, "geometry": { "type": "LineString", "coordinates": [ [ 7.29393187, 44.75969717 ], [ 7.29394992, 44.75964696 ] ] } },
{ "type": "Feature", "properties": { "FID": 56650, "GisLink": 0, "Acad_Text": "3 - 0", "Perimeter": 0 }, "geometry": { "type": "LineString", "coordinates": [ [ 7.29394992, 44.75964696 ], [ 7.29416583, 44.75947948 ] ] } },
{ "type": "Feature", "properties": { "FID": 56651, "GisLink": 0, "Acad_Text": "3 - 0", "Perimeter": 0 }, "geometry": { "type": "LineString", "coordinates": [ [ 7.29416583, 44.75947948 ], [ 7.29418801, 44.75949185 ], [ 7.29421285, 44.75962225 ], [ 7.2942021, 44.75972982 ], [ 7.29429524, 44.75988406 ], [ 7.2943223, 44.75988702 ], [ 7.29440304, 44.75986871 ] ] } },
{ "type": "Feature", "properties": { "FID": 56652, "GisLink": 0, "Acad_Text": "3 - 0", "Perimeter": 0 }, "geometry": { "type": "LineString", "coordinates": [ [ 7.29440304, 44.75986871 ], [ 7.29451174, 44.75983794 ], [ 7.29480996, 44.75970555 ], [ 7.29481756, 44.75955631 ] ] } },
{ "type": "Feature", "properties": { "FID": 124610, "GisLink": 0, "Acad_Text": "3 - 0", "Perimeter": 0 }, "geometry": { "type": "LineString", "coordinates": [ [ 7.2948496, 44.75900821 ], [ 7.29481719, 44.75907412 ], [ 7.29483185, 44.7591114 ], [ 7.29482208, 44.75939053 ], [ 7.29481756, 44.75955631 ] ] } },
{ "type": "Feature", "properties": { "FID": 125077, "GisLink": 0, "Acad_Text": "3 - 0", "Perimeter": 0 }, "geometry": { "type": "LineString", "coordinates": [ [ 7.29445286, 44.75900998 ], [ 7.29441942, 44.75906944 ], [ 7.29427858, 44.75931514 ], [ 7.29420443, 44.75945132 ], [ 7.29416583, 44.75947948 ] ] } },
{ "type": "Feature", "properties": { "FID": 125079, "GisLink": 0, "Acad_Text": "3 - 0", "Perimeter": 0 }, "geometry": { "type": "LineString", "coordinates": [ [ 7.29464305, 44.75899636 ], [ 7.29456949, 44.75925298 ], [ 7.29449711, 44.75953163 ] ] } },
{ "type": "Feature", "properties": { "FID": 133588, "GisLink": 0, "Acad_Text": "3 - 0", "Perimeter": 0 }, "geometry": { "type": "LineString", "coordinates": [ [ 7.2948496, 44.75900821 ], [ 7.29481719, 44.75907412 ], [ 7.29483185, 44.7591114 ], [ 7.29482208, 44.75939053 ], [ 7.29481756, 44.75955631 ], [ 7.29480996, 44.75970555 ] ] } },
{ "type": "Feature", "properties": { "FID": 134463, "GisLink": 0, "Acad_Text": "3 - 0", "Perimeter": 0 }, "geometry": { "type": "LineString", "coordinates": [ [ 7.29591997, 44.75997641 ], [ 7.29574442, 44.75983983 ], [ 7.29531395, 44.75970379 ], [ 7.29537129, 44.75923744 ], [ 7.29537299, 44.75922158 ] ] } }
]
}
