{
"type": "FeatureCollection",
"name": "Service004009_0015__27_morfologie_insediative",
"xy_coordinate_resolution": 1e-08,
"features": [
{ "type": "Feature", "properties": { "FID": 15, "Gislink": 16, "Area": 482344, "Perimeter": 6671, "Acad_angle": 0, "Foglio": 0, "Sigla": "m.i. 10", "Acad_Text": "m.i. 10" }, "geometry": { "type": "MultiPolygon", "coordinates": [ [ [ [ 7.29693352, 44.75981723 ], [ 7.29729042, 44.75982341 ], [ 7.29728177, 44.76011785 ], [ 7.29719197, 44.76011598 ], [ 7.29696364, 44.7601122 ], [ 7.29695969, 44.76011192 ], [ 7.29669234, 44.76007997 ], [ 7.29668784, 44.76007912 ], [ 7.29668385, 44.76007779 ], [ 7.29668028, 44.760076 ], [ 7.29667723, 44.76007379 ], [ 7.29667679, 44.76007339 ], [ 7.2965251, 44.75993344 ], [ 7.29652311, 44.75993128 ], [ 7.29652137, 44.75992846 ], [ 7.29652037, 44.75992545 ], [ 7.29652015, 44.75992236 ], [ 7.29652071, 44.75991927 ], [ 7.29652204, 44.75991628 ], [ 7.29652398, 44.75991347 ], [ 7.29652659, 44.75991094 ], [ 7.29652978, 44.75990876 ], [ 7.29653346, 44.75990699 ], [ 7.29653753, 44.7599057 ], [ 7.29653832, 44.75990551 ], [ 7.296914, 44.75982184 ], [ 7.29691603, 44.75982124 ], [ 7.29692144, 44.75981927 ], [ 7.29692529, 44.75981814 ], [ 7.29692935, 44.75981745 ], [ 7.29693352, 44.75981723 ] ] ], [ [ [ 7.29712229, 44.76047313 ], [ 7.29727205, 44.76044872 ], [ 7.29722342, 44.76210387 ], [ 7.29694546, 44.76209972 ], [ 7.29663988, 44.76170554 ], [ 7.29663897, 44.76170457 ], [ 7.29641773, 44.76154109 ], [ 7.29641705, 44.7615406 ], [ 7.29641608, 44.76154068 ], [ 7.29617151, 44.76156454 ], [ 7.29617052, 44.76156465 ], [ 7.29616955, 44.76156479 ], [ 7.29614478, 44.76156867 ], [ 7.29614382, 44.76156883 ], [ 7.29614315, 44.76156935 ], [ 7.29581807, 44.7618309 ], [ 7.29581506, 44.76183293 ], [ 7.2958114, 44.76183468 ], [ 7.29580737, 44.76183595 ], [ 7.29580311, 44.76183671 ], [ 7.29579873, 44.76183693 ], [ 7.29579437, 44.7618366 ], [ 7.2957934, 44.76183645 ], [ 7.29569764, 44.76182027 ], [ 7.29569315, 44.76181951 ], [ 7.29532259, 44.76175177 ], [ 7.29532256, 44.76175176 ], [ 7.29531974, 44.7617511 ], [ 7.29531581, 44.76174969 ], [ 7.29513866, 44.76167194 ], [ 7.29509521, 44.7616536 ], [ 7.2950947, 44.76165338 ], [ 7.29509416, 44.76165318 ], [ 7.29473376, 44.76151858 ], [ 7.29473289, 44.76151827 ], [ 7.29473273, 44.76151826 ], [ 7.29473195, 44.76151816 ], [ 7.29473099, 44.76151811 ], [ 7.29441279, 44.76151436 ], [ 7.29441208, 44.76151447 ], [ 7.29441199, 44.76151447 ], [ 7.29441191, 44.7615145 ], [ 7.29441121, 44.76151465 ], [ 7.29418045, 44.76161019 ], [ 7.29417896, 44.76161092 ], [ 7.29390246, 44.76176646 ], [ 7.29389951, 44.76176788 ], [ 7.29365143, 44.76187103 ], [ 7.29353368, 44.76192454 ], [ 7.29353146, 44.76192544 ], [ 7.29323413, 44.76202859 ], [ 7.29318753, 44.76204361 ], [ 7.29309084, 44.76204216 ], [ 7.29284283, 44.76201511 ], [ 7.29284193, 44.762015 ], [ 7.29243144, 44.761973 ], [ 7.29243013, 44.76197284 ], [ 7.29242681, 44.76197218 ], [ 7.29217912, 44.76191291 ], [ 7.29217823, 44.76191269 ], [ 7.29217436, 44.76191139 ], [ 7.2921709, 44.76190962 ], [ 7.29216795, 44.76190743 ], [ 7.29216561, 44.76190489 ], [ 7.29216395, 44.76190208 ], [ 7.29216302, 44.76189908 ], [ 7.29216284, 44.76189599 ], [ 7.29216339, 44.76189303 ], [ 7.29221129, 44.76171954 ], [ 7.29221252, 44.76171646 ], [ 7.29221447, 44.76171358 ], [ 7.29221709, 44.76171099 ], [ 7.29222028, 44.76170876 ], [ 7.29243389, 44.76158529 ], [ 7.29249279, 44.76155034 ], [ 7.29249354, 44.76154988 ], [ 7.29249425, 44.7615494 ], [ 7.29259549, 44.7614783 ], [ 7.29281804, 44.76132652 ], [ 7.2928185, 44.76132621 ], [ 7.29281855, 44.76132618 ], [ 7.29281913, 44.76132567 ], [ 7.29305897, 44.76110396 ], [ 7.29305959, 44.76110313 ], [ 7.29307024, 44.76108548 ], [ 7.29325287, 44.76078272 ], [ 7.29325469, 44.76078026 ], [ 7.2935344, 44.76045867 ], [ 7.29353672, 44.76045637 ], [ 7.2935382, 44.76045524 ], [ 7.29390131, 44.76020181 ], [ 7.29390247, 44.76020104 ], [ 7.29430268, 44.75995201 ], [ 7.29430564, 44.75995047 ], [ 7.29430887, 44.75994926 ], [ 7.29454161, 44.75987796 ], [ 7.29454259, 44.75987768 ], [ 7.29454313, 44.75987709 ], [ 7.29473352, 44.75965275 ], [ 7.2947345, 44.75965139 ], [ 7.29492165, 44.75931153 ], [ 7.29492368, 44.7593087 ], [ 7.29492635, 44.75930618 ], [ 7.29492961, 44.75930401 ], [ 7.29493336, 44.75930227 ], [ 7.29493747, 44.75930101 ], [ 7.29494183, 44.75930026 ], [ 7.2949463, 44.75930005 ], [ 7.29495075, 44.75930038 ], [ 7.29495516, 44.75930128 ], [ 7.29529547, 44.7593969 ], [ 7.29529904, 44.75939815 ], [ 7.29530228, 44.75939978 ], [ 7.29530512, 44.75940174 ], [ 7.2953075, 44.75940399 ], [ 7.29566015, 44.75979425 ], [ 7.29566214, 44.75979697 ], [ 7.29583664, 44.76009445 ], [ 7.29583702, 44.76009507 ], [ 7.29583778, 44.76009543 ], [ 7.29583782, 44.76009545 ], [ 7.29596383, 44.76015282 ], [ 7.29665744, 44.76046731 ], [ 7.29665815, 44.76046749 ], [ 7.29665823, 44.7604675 ], [ 7.29665902, 44.76046764 ], [ 7.29712044, 44.76047323 ], [ 7.29712153, 44.76047321 ], [ 7.29712229, 44.76047313 ] ] ] ] } },
{ "type": "Feature", "properties": { "FID": 16, "Gislink": 17, "Area": 490319, "Perimeter": 8042, "Acad_angle": 0, "Foglio": 0, "Sigla": "m.i. 10", "Acad_Text": "m.i. 10" }, "geometry": { "type": "MultiPolygon", "coordinates": [ [ [ [ 7.29306341, 44.75860994 ], [ 7.29301329, 44.75857925 ], [ 7.29445959, 44.75860086 ], [ 7.29446986, 44.75862829 ], [ 7.29452522, 44.7587884 ], [ 7.2945258, 44.75879085 ], [ 7.29452591, 44.75879334 ], [ 7.29452555, 44.75879583 ], [ 7.29441622, 44.75924871 ], [ 7.29441544, 44.75925109 ], [ 7.29441419, 44.75925337 ], [ 7.29441252, 44.75925551 ], [ 7.29440737, 44.75926112 ], [ 7.29435579, 44.75931678 ], [ 7.29435376, 44.75931868 ], [ 7.29435063, 44.75932082 ], [ 7.29434702, 44.75932255 ], [ 7.29434304, 44.7593238 ], [ 7.29433881, 44.75932455 ], [ 7.29433446, 44.75932478 ], [ 7.29433013, 44.75932446 ], [ 7.29432594, 44.75932361 ], [ 7.29432202, 44.75932225 ], [ 7.29431849, 44.75932044 ], [ 7.29431546, 44.75931823 ], [ 7.29431302, 44.75931569 ], [ 7.29431195, 44.75931419 ], [ 7.29419409, 44.75912185 ], [ 7.29419367, 44.75912116 ], [ 7.29419271, 44.75912092 ], [ 7.29392726, 44.75905303 ], [ 7.29392446, 44.75905214 ], [ 7.29392183, 44.75905102 ], [ 7.2939194, 44.75904967 ], [ 7.29370092, 44.75891318 ], [ 7.29369984, 44.75891261 ], [ 7.29333794, 44.75874251 ], [ 7.29306548, 44.75861105 ], [ 7.29306341, 44.75860994 ] ] ], [ [ [ 7.29587453, 44.75871831 ], [ 7.29581174, 44.75862105 ], [ 7.29732508, 44.75864363 ], [ 7.29731223, 44.7590812 ], [ 7.2972939, 44.75908539 ], [ 7.29729348, 44.75908548 ], [ 7.29729303, 44.75908557 ], [ 7.29711675, 44.75912381 ], [ 7.29711474, 44.7591244 ], [ 7.2970314, 44.75915477 ], [ 7.29703104, 44.7591549 ], [ 7.29703065, 44.75915504 ], [ 7.29684369, 44.75921924 ], [ 7.29684119, 44.75921998 ], [ 7.29683713, 44.75922072 ], [ 7.29657896, 44.75925062 ], [ 7.29657453, 44.75925083 ], [ 7.29657018, 44.75925048 ], [ 7.29656599, 44.7592496 ], [ 7.29656208, 44.7592482 ], [ 7.29655856, 44.75924634 ], [ 7.2965556, 44.75924411 ], [ 7.29629252, 44.75901713 ], [ 7.29629172, 44.75901652 ], [ 7.29587959, 44.75872346 ], [ 7.29587676, 44.75872104 ], [ 7.29587453, 44.75871831 ] ] ] ] } }
]
}
