{
"type": "FeatureCollection",
"name": "Service004009_0010__00_simboli_catastali",
"xy_coordinate_resolution": 1e-08,
"features": [
{ "type": "Feature", "properties": { "FID": 13367, "ID": 0, "GISLINK": 0, "ACAD_TEXT": "²", "Foglio": 0, "Acad_angle": 204 }, "geometry": { "type": "Point", "coordinates": [ 7.29433593, 44.760151 ] } },
{ "type": "Feature", "properties": { "FID": 13452, "ID": 0, "GISLINK": 0, "ACAD_TEXT": "«", "Foglio": 0, "Acad_angle": 241 }, "geometry": { "type": "Point", "coordinates": [ 7.29369343, 44.76067888 ] } },
{ "type": "Feature", "properties": { "FID": 13453, "ID": 0, "GISLINK": 0, "ACAD_TEXT": "«", "Foglio": 0, "Acad_angle": 59 }, "geometry": { "type": "Point", "coordinates": [ 7.29392319, 44.76070102 ] } },
{ "type": "Feature", "properties": { "FID": 13454, "ID": 0, "GISLINK": 0, "ACAD_TEXT": "«", "Foglio": 0, "Acad_angle": 262 }, "geometry": { "type": "Point", "coordinates": [ 7.29413172, 44.76056806 ] } },
{ "type": "Feature", "properties": { "FID": 13455, "ID": 0, "GISLINK": 0, "ACAD_TEXT": "«", "Foglio": 0, "Acad_angle": 288 }, "geometry": { "type": "Point", "coordinates": [ 7.29501139, 44.76070903 ] } },
{ "type": "Feature", "properties": { "FID": 13456, "ID": 0, "GISLINK": 0, "ACAD_TEXT": "«", "Foglio": 0, "Acad_angle": 341 }, "geometry": { "type": "Point", "coordinates": [ 7.29521394, 44.76077083 ] } },
{ "type": "Feature", "properties": { "FID": 13475, "ID": 0, "GISLINK": 0, "ACAD_TEXT": "«", "Foglio": 0, "Acad_angle": 308 }, "geometry": { "type": "Point", "coordinates": [ 7.29348033, 44.76032828 ] } },
{ "type": "Feature", "properties": { "FID": 13478, "ID": 0, "GISLINK": 0, "ACAD_TEXT": "«", "Foglio": 0, "Acad_angle": 144 }, "geometry": { "type": "Point", "coordinates": [ 7.29428893, 44.75987333 ] } },
{ "type": "Feature", "properties": { "FID": 13479, "ID": 0, "GISLINK": 0, "ACAD_TEXT": "«", "Foglio": 0, "Acad_angle": 128 }, "geometry": { "type": "Point", "coordinates": [ 7.29465151, 44.75979298 ] } },
{ "type": "Feature", "properties": { "FID": 13480, "ID": 0, "GISLINK": 0, "ACAD_TEXT": "«", "Foglio": 0, "Acad_angle": 120 }, "geometry": { "type": "Point", "coordinates": [ 7.29543195, 44.76026586 ] } },
{ "type": "Feature", "properties": { "FID": 13482, "ID": 0, "GISLINK": 0, "ACAD_TEXT": "«", "Foglio": 0, "Acad_angle": 141 }, "geometry": { "type": "Point", "coordinates": [ 7.29531395, 44.75970379 ] } },
{ "type": "Feature", "properties": { "FID": 13498, "ID": 0, "GISLINK": 0, "ACAD_TEXT": "«", "Foglio": 0, "Acad_angle": 290 }, "geometry": { "type": "Point", "coordinates": [ 7.29536035, 44.7603814 ] } },
{ "type": "Feature", "properties": { "FID": 13501, "ID": 0, "GISLINK": 0, "ACAD_TEXT": "«", "Foglio": 0, "Acad_angle": 277 }, "geometry": { "type": "Point", "coordinates": [ 7.29542241, 44.76039203 ] } },
{ "type": "Feature", "properties": { "FID": 13502, "ID": 0, "GISLINK": 0, "ACAD_TEXT": "«", "Foglio": 0, "Acad_angle": 298 }, "geometry": { "type": "Point", "coordinates": [ 7.29457016, 44.76026133 ] } },
{ "type": "Feature", "properties": { "FID": 13503, "ID": 0, "GISLINK": 0, "ACAD_TEXT": "«", "Foglio": 0, "Acad_angle": 67 }, "geometry": { "type": "Point", "coordinates": [ 7.29407893, 44.7603108 ] } },
{ "type": "Feature", "properties": { "FID": 13504, "ID": 0, "GISLINK": 0, "ACAD_TEXT": "«", "Foglio": 0, "Acad_angle": 68 }, "geometry": { "type": "Point", "coordinates": [ 7.29365597, 44.76035024 ] } },
{ "type": "Feature", "properties": { "FID": 13505, "ID": 0, "GISLINK": 0, "ACAD_TEXT": "«", "Foglio": 0, "Acad_angle": 82 }, "geometry": { "type": "Point", "coordinates": [ 7.29324851, 44.76027559 ] } },
{ "type": "Feature", "properties": { "FID": 14613, "ID": 0, "GISLINK": 0, "ACAD_TEXT": "«", "Foglio": 0, "Acad_angle": 349 }, "geometry": { "type": "Point", "coordinates": [ 7.2942021, 44.75972982 ] } },
{ "type": "Feature", "properties": { "FID": 14614, "ID": 0, "GISLINK": 0, "ACAD_TEXT": "«", "Foglio": 0, "Acad_angle": 3 }, "geometry": { "type": "Point", "coordinates": [ 7.29421285, 44.75962225 ] } },
{ "type": "Feature", "properties": { "FID": 14615, "ID": 0, "GISLINK": 0, "ACAD_TEXT": "«", "Foglio": 0, "Acad_angle": 348 }, "geometry": { "type": "Point", "coordinates": [ 7.2941903, 44.75950385 ] } },
{ "type": "Feature", "properties": { "FID": 14616, "ID": 0, "GISLINK": 0, "ACAD_TEXT": "«", "Foglio": 0, "Acad_angle": 224 }, "geometry": { "type": "Point", "coordinates": [ 7.29416583, 44.75947948 ] } },
{ "type": "Feature", "properties": { "FID": 14617, "ID": 0, "GISLINK": 0, "ACAD_TEXT": "«", "Foglio": 0, "Acad_angle": 12 }, "geometry": { "type": "Point", "coordinates": [ 7.29393187, 44.75969717 ] } },
{ "type": "Feature", "properties": { "FID": 14618, "ID": 0, "GISLINK": 0, "ACAD_TEXT": "«", "Foglio": 0, "Acad_angle": 32 }, "geometry": { "type": "Point", "coordinates": [ 7.29394992, 44.75964696 ] } },
{ "type": "Feature", "properties": { "FID": 14619, "ID": 0, "GISLINK": 0, "ACAD_TEXT": "«", "Foglio": 0, "Acad_angle": 17 }, "geometry": { "type": "Point", "coordinates": [ 7.29386289, 44.75987223 ] } },
{ "type": "Feature", "properties": { "FID": 14620, "ID": 0, "GISLINK": 0, "ACAD_TEXT": "«", "Foglio": 0, "Acad_angle": 31 }, "geometry": { "type": "Point", "coordinates": [ 7.29375825, 44.76001391 ] } },
{ "type": "Feature", "properties": { "FID": 14621, "ID": 0, "GISLINK": 0, "ACAD_TEXT": "«", "Foglio": 0, "Acad_angle": 21 }, "geometry": { "type": "Point", "coordinates": [ 7.29370753, 44.76007623 ] } },
{ "type": "Feature", "properties": { "FID": 14622, "ID": 0, "GISLINK": 0, "ACAD_TEXT": "«", "Foglio": 0, "Acad_angle": 55 }, "geometry": { "type": "Point", "coordinates": [ 7.29357328, 44.76015493 ] } },
{ "type": "Feature", "properties": { "FID": 14623, "ID": 0, "GISLINK": 0, "ACAD_TEXT": "«", "Foglio": 0, "Acad_angle": 53 }, "geometry": { "type": "Point", "coordinates": [ 7.29348672, 44.76018715 ] } },
{ "type": "Feature", "properties": { "FID": 14624, "ID": 0, "GISLINK": 0, "ACAD_TEXT": "«", "Foglio": 0, "Acad_angle": 278 }, "geometry": { "type": "Point", "coordinates": [ 7.29321215, 44.75996883 ] } },
{ "type": "Feature", "properties": { "FID": 25058, "ID": 0, "GISLINK": 0, "ACAD_TEXT": "«", "Foglio": 0, "Acad_angle": 102 }, "geometry": { "type": "Point", "coordinates": [ 7.29335835, 44.7599287 ] } },
{ "type": "Feature", "properties": { "FID": 25059, "ID": 0, "GISLINK": 0, "ACAD_TEXT": "«", "Foglio": 0, "Acad_angle": 130 }, "geometry": { "type": "Point", "coordinates": [ 7.29348023, 44.75988875 ] } },
{ "type": "Feature", "properties": { "FID": 25060, "ID": 0, "GISLINK": 0, "ACAD_TEXT": "«", "Foglio": 0, "Acad_angle": 121 }, "geometry": { "type": "Point", "coordinates": [ 7.29341233, 44.75986244 ] } },
{ "type": "Feature", "properties": { "FID": 25496, "ID": 0, "GISLINK": 0, "ACAD_TEXT": "«", "Foglio": 0, "Acad_angle": 39 }, "geometry": { "type": "Point", "coordinates": [ 7.29420443, 44.75945132 ] } },
{ "type": "Feature", "properties": { "FID": 25501, "ID": 0, "GISLINK": 0, "ACAD_TEXT": "«", "Foglio": 0, "Acad_angle": 207 }, "geometry": { "type": "Point", "coordinates": [ 7.29440992, 44.75984499 ] } },
{ "type": "Feature", "properties": { "FID": 25562, "ID": 0, "GISLINK": 0, "ACAD_TEXT": "«", "Foglio": 0, "Acad_angle": 116 }, "geometry": { "type": "Point", "coordinates": [ 7.29429524, 44.75988406 ] } },
{ "type": "Feature", "properties": { "FID": 25563, "ID": 0, "GISLINK": 0, "ACAD_TEXT": "«", "Foglio": 0, "Acad_angle": 166 }, "geometry": { "type": "Point", "coordinates": [ 7.2942021, 44.75972982 ] } },
{ "type": "Feature", "properties": { "FID": 25564, "ID": 0, "GISLINK": 0, "ACAD_TEXT": "«", "Foglio": 0, "Acad_angle": 5 }, "geometry": { "type": "Point", "coordinates": [ 7.29421285, 44.75962225 ] } },
{ "type": "Feature", "properties": { "FID": 25565, "ID": 0, "GISLINK": 0, "ACAD_TEXT": "«", "Foglio": 0, "Acad_angle": 358 }, "geometry": { "type": "Point", "coordinates": [ 7.2941903, 44.75950385 ] } },
{ "type": "Feature", "properties": { "FID": 25566, "ID": 0, "GISLINK": 0, "ACAD_TEXT": "«", "Foglio": 0, "Acad_angle": 100 }, "geometry": { "type": "Point", "coordinates": [ 7.29416583, 44.75947948 ] } },
{ "type": "Feature", "properties": { "FID": 25567, "ID": 0, "GISLINK": 0, "ACAD_TEXT": "«", "Foglio": 0, "Acad_angle": 36 }, "geometry": { "type": "Point", "coordinates": [ 7.29394992, 44.75964696 ] } },
{ "type": "Feature", "properties": { "FID": 25568, "ID": 0, "GISLINK": 0, "ACAD_TEXT": "«", "Foglio": 0, "Acad_angle": 18 }, "geometry": { "type": "Point", "coordinates": [ 7.29393187, 44.75969717 ] } },
{ "type": "Feature", "properties": { "FID": 25569, "ID": 0, "GISLINK": 0, "ACAD_TEXT": "«", "Foglio": 0, "Acad_angle": 26 }, "geometry": { "type": "Point", "coordinates": [ 7.29386289, 44.75987223 ] } },
{ "type": "Feature", "properties": { "FID": 25570, "ID": 0, "GISLINK": 0, "ACAD_TEXT": "«", "Foglio": 0, "Acad_angle": 26 }, "geometry": { "type": "Point", "coordinates": [ 7.29375825, 44.76001391 ] } },
{ "type": "Feature", "properties": { "FID": 25571, "ID": 0, "GISLINK": 0, "ACAD_TEXT": "«", "Foglio": 0, "Acad_angle": 29 }, "geometry": { "type": "Point", "coordinates": [ 7.29372707, 44.76005621 ] } },
{ "type": "Feature", "properties": { "FID": 25572, "ID": 0, "GISLINK": 0, "ACAD_TEXT": "«", "Foglio": 0, "Acad_angle": 41 }, "geometry": { "type": "Point", "coordinates": [ 7.29370753, 44.76007623 ] } },
{ "type": "Feature", "properties": { "FID": 25573, "ID": 0, "GISLINK": 0, "ACAD_TEXT": "«", "Foglio": 0, "Acad_angle": 50 }, "geometry": { "type": "Point", "coordinates": [ 7.29357328, 44.76015493 ] } },
{ "type": "Feature", "properties": { "FID": 25574, "ID": 0, "GISLINK": 0, "ACAD_TEXT": "«", "Foglio": 0, "Acad_angle": 121 }, "geometry": { "type": "Point", "coordinates": [ 7.29348672, 44.76018715 ] } },
{ "type": "Feature", "properties": { "FID": 25575, "ID": 0, "GISLINK": 0, "ACAD_TEXT": "«", "Foglio": 0, "Acad_angle": 297 }, "geometry": { "type": "Point", "coordinates": [ 7.29321215, 44.75996883 ] } }
]
}
