{
"type": "FeatureCollection",
"name": "Service004009_0013__05_lettera_g_i_territori_coperti_da_foreste_e_boschi",
"xy_coordinate_resolution": 1e-08,
"features": [
{ "type": "Feature", "properties": { "FID": 5, "Gislink": 6, "Area": 122755, "Perimeter": 4170, "Acad_angle": 0, "Foglio": 0, "Sigla": "Acero-tiglio-frassin", "Acad_Text": "lett.g|Acero-tiglio-frassineti" }, "geometry": { "type": "Polygon", "coordinates": [ [ [ 7.29454177, 44.75988216 ], [ 7.29433285, 44.75934393 ], [ 7.29440962, 44.75926555 ], [ 7.29440982, 44.75925673 ], [ 7.2945294, 44.75879662 ], [ 7.29447287, 44.75863283 ], [ 7.29445715, 44.75860082 ], [ 7.29580885, 44.75862101 ], [ 7.29587683, 44.7587257 ], [ 7.29629292, 44.75901682 ], [ 7.29656585, 44.75925226 ], [ 7.29684171, 44.75922033 ], [ 7.29702937, 44.75915941 ], [ 7.29711766, 44.75912406 ], [ 7.29729339, 44.75908995 ], [ 7.29731211, 44.75908537 ], [ 7.29729029, 44.75982789 ], [ 7.29692864, 44.75982167 ], [ 7.29691585, 44.75982161 ], [ 7.29650465, 44.75991777 ], [ 7.29668874, 44.76007889 ], [ 7.29696765, 44.76011674 ], [ 7.29719403, 44.76012048 ], [ 7.29728164, 44.7601223 ], [ 7.29727193, 44.76045285 ], [ 7.29711937, 44.76047768 ], [ 7.29666396, 44.76047206 ], [ 7.29584204, 44.76009968 ], [ 7.29566154, 44.75980003 ], [ 7.29530733, 44.75940365 ], [ 7.2949266, 44.75929902 ], [ 7.29473767, 44.75965215 ], [ 7.29454177, 44.75988216 ] ] ] } },
{ "type": "Feature", "properties": { "FID": 41, "Gislink": 42, "Area": 9681402, "Perimeter": 90715, "Acad_angle": 0, "Foglio": 0, "Sigla": "Castagneti", "Acad_Text": "lett.g|Castagneti" }, "geometry": { "type": "MultiPolygon", "coordinates": [ [ [ [ 7.29663345, 44.7617093 ], [ 7.2969496, 44.76209978 ], [ 7.29319691, 44.76204375 ], [ 7.29323681, 44.76203313 ], [ 7.29353721, 44.76192959 ], [ 7.29365096, 44.76187557 ], [ 7.29390486, 44.76177183 ], [ 7.29417362, 44.76161496 ], [ 7.29441696, 44.76151901 ], [ 7.29473275, 44.76152275 ], [ 7.29509431, 44.76165338 ], [ 7.29514376, 44.761672 ], [ 7.29531604, 44.76175553 ], [ 7.29569023, 44.76182397 ], [ 7.29580271, 44.76184333 ], [ 7.29614967, 44.76156889 ], [ 7.29617466, 44.76156918 ], [ 7.296413, 44.76154502 ], [ 7.29663345, 44.7617093 ] ] ], [ [ [ 7.29283927, 44.76201949 ], [ 7.29308109, 44.76204202 ], [ 7.29104991, 44.76201163 ], [ 7.29109096, 44.76061948 ], [ 7.29119122, 44.760615 ], [ 7.29140769, 44.76060871 ], [ 7.29201111, 44.7604017 ], [ 7.29233421, 44.76011788 ], [ 7.29233592, 44.76007309 ], [ 7.2922952, 44.75981228 ], [ 7.29232686, 44.75950616 ], [ 7.29244591, 44.75879836 ], [ 7.29210375, 44.75856564 ], [ 7.29300952, 44.75857919 ], [ 7.29306867, 44.75861503 ], [ 7.2933324, 44.75874246 ], [ 7.29369434, 44.75891726 ], [ 7.29392762, 44.75905201 ], [ 7.29418859, 44.75912112 ], [ 7.29433285, 44.75934393 ], [ 7.29454177, 44.75988216 ], [ 7.29430012, 44.75995021 ], [ 7.29390098, 44.76020593 ], [ 7.29353557, 44.76046127 ], [ 7.29325047, 44.76078139 ], [ 7.29306281, 44.76110376 ], [ 7.29282394, 44.7613307 ], [ 7.29259383, 44.76148279 ], [ 7.29249149, 44.76155437 ], [ 7.29244016, 44.76158987 ], [ 7.29220826, 44.76171295 ], [ 7.29216161, 44.76191269 ], [ 7.29243475, 44.76197737 ], [ 7.29283927, 44.76201949 ] ] ], [ [ [ 7.29133955, 44.75871802 ], [ 7.29114091, 44.75892552 ], [ 7.29115194, 44.7585514 ], [ 7.29169671, 44.75855956 ], [ 7.29166062, 44.75858841 ], [ 7.2913656, 44.7587091 ], [ 7.29133955, 44.75871802 ] ] ] ] } }
]
}
