{
"type": "FeatureCollection",
"name": "Service004009_0010__16_confini_catastali",
"xy_coordinate_resolution": 1e-08,
"features": [
{ "type": "Feature", "properties": { "FID": 19, "Id": 0, "Acad_text": "00902000", "Acad_angle": 0, "Gislink": 0, "Area": 1056319, "Perimeter": 5708, "Foglio": 0, "Sezione": " " }, "geometry": { "type": "Polygon", "coordinates": [ [ [ 7.29534771, 44.75899938 ], [ 7.29539236, 44.75904042 ], [ 7.2954344, 44.75907906 ], [ 7.29552515, 44.75913714 ], [ 7.29571244, 44.75931491 ], [ 7.29593113, 44.75944961 ], [ 7.29602271, 44.75971098 ], [ 7.29608575, 44.75989527 ], [ 7.29614814, 44.76004053 ], [ 7.29615802, 44.76006353 ], [ 7.29634805, 44.76025155 ], [ 7.2964363, 44.7603396 ], [ 7.29666536, 44.76042607 ], [ 7.29686677, 44.76047913 ], [ 7.29703421, 44.76041688 ], [ 7.29720004, 44.76026965 ], [ 7.29727798, 44.76024706 ], [ 7.29722342, 44.76210387 ], [ 7.29282079, 44.76203812 ], [ 7.29274862, 44.76202965 ], [ 7.29253505, 44.76200318 ], [ 7.29237317, 44.76198545 ], [ 7.29227197, 44.76197517 ], [ 7.29217686, 44.76199485 ], [ 7.29207478, 44.76202697 ], [ 7.2917705, 44.76202241 ], [ 7.29171055, 44.76193489 ], [ 7.29159263, 44.76177212 ], [ 7.291651, 44.76169281 ], [ 7.2917513, 44.76154607 ], [ 7.29188489, 44.76152238 ], [ 7.29192004, 44.76142694 ], [ 7.29171712, 44.76129977 ], [ 7.29147877, 44.7611534 ], [ 7.2914982, 44.76110148 ], [ 7.29144939, 44.76089755 ], [ 7.29140391, 44.76071878 ], [ 7.29163006, 44.76061483 ], [ 7.29188597, 44.76050628 ], [ 7.29208803, 44.76049444 ], [ 7.29230285, 44.7604788 ], [ 7.29239438, 44.76047518 ], [ 7.29265341, 44.76031893 ], [ 7.29284518, 44.7602439 ], [ 7.29288828, 44.76012524 ], [ 7.2929615, 44.76002853 ], [ 7.29301143, 44.75999272 ], [ 7.29321215, 44.75996883 ], [ 7.29336572, 44.76008866 ], [ 7.29348672, 44.76018715 ], [ 7.29352349, 44.76017579 ], [ 7.29357328, 44.76015493 ], [ 7.29370753, 44.76007623 ], [ 7.29372707, 44.76005621 ], [ 7.29386289, 44.75987223 ], [ 7.29390395, 44.75977629 ], [ 7.29393187, 44.75969717 ], [ 7.29394992, 44.75964696 ], [ 7.29416583, 44.75947948 ], [ 7.29418801, 44.75949185 ], [ 7.29421285, 44.75962225 ], [ 7.2942021, 44.75972982 ], [ 7.29429524, 44.75988406 ], [ 7.2943223, 44.75988702 ], [ 7.29440304, 44.75986871 ], [ 7.29451174, 44.75983794 ], [ 7.29463675, 44.75978406 ], [ 7.29480996, 44.75970555 ], [ 7.29481756, 44.75955631 ], [ 7.29482208, 44.75939053 ], [ 7.29483185, 44.7591114 ], [ 7.29481719, 44.75907412 ], [ 7.29486276, 44.75898147 ], [ 7.29482671, 44.75887331 ], [ 7.2948975, 44.75887297 ], [ 7.2951625, 44.75883641 ], [ 7.29527384, 44.75892402 ], [ 7.29534771, 44.75899938 ] ] ] } },
{ "type": "Feature", "properties": { "FID": 29, "Id": 0, "Acad_text": "00903000", "Acad_angle": 0, "Gislink": 0, "Area": -503063, "Perimeter": 3617, "Foglio": 0, "Sezione": " " }, "geometry": { "type": "MultiPolygon", "coordinates": [ [ [ [ 7.29453908, 44.75884512 ], [ 7.29468355, 44.75886421 ], [ 7.29477366, 44.75887674 ], [ 7.29482671, 44.75887331 ], [ 7.29486276, 44.75898147 ], [ 7.29481719, 44.75907412 ], [ 7.29483185, 44.7591114 ], [ 7.29482208, 44.75939053 ], [ 7.29481756, 44.75955631 ], [ 7.29480996, 44.75970555 ], [ 7.29451174, 44.75983794 ], [ 7.29440304, 44.75986871 ], [ 7.2943223, 44.75988702 ], [ 7.29429524, 44.75988406 ], [ 7.2942021, 44.75972982 ], [ 7.29421285, 44.75962225 ], [ 7.29418801, 44.75949185 ], [ 7.29416583, 44.75947948 ], [ 7.29394992, 44.75964696 ], [ 7.29393187, 44.75969717 ], [ 7.29390395, 44.75977629 ], [ 7.29386289, 44.75987223 ], [ 7.29376871, 44.75999973 ], [ 7.29372707, 44.76005621 ], [ 7.29370753, 44.76007623 ], [ 7.29357328, 44.76015493 ], [ 7.29352349, 44.76017579 ], [ 7.29348672, 44.76018715 ], [ 7.29336572, 44.76008866 ], [ 7.29321215, 44.75996883 ], [ 7.29301143, 44.75999272 ], [ 7.2929615, 44.76002853 ], [ 7.29288828, 44.76012524 ], [ 7.29284518, 44.7602439 ], [ 7.29265341, 44.76031893 ], [ 7.29239438, 44.76047518 ], [ 7.29230285, 44.7604788 ], [ 7.29208803, 44.76049444 ], [ 7.29188597, 44.76050628 ], [ 7.29163006, 44.76061483 ], [ 7.29140391, 44.76071878 ], [ 7.29144939, 44.76089755 ], [ 7.2914982, 44.76110148 ], [ 7.29147877, 44.7611534 ], [ 7.29171712, 44.76129977 ], [ 7.29190697, 44.76141875 ], [ 7.29192004, 44.76142694 ], [ 7.29188489, 44.76152238 ], [ 7.2917513, 44.76154607 ], [ 7.291651, 44.76169281 ], [ 7.29159263, 44.76177212 ], [ 7.29171055, 44.76193489 ], [ 7.2917705, 44.76202241 ], [ 7.29104991, 44.76201163 ], [ 7.29115194, 44.7585514 ], [ 7.29304286, 44.75857969 ], [ 7.29327067, 44.75862841 ], [ 7.29329468, 44.75867155 ], [ 7.29332608, 44.75872322 ], [ 7.29334488, 44.75875415 ], [ 7.29337845, 44.75878184 ], [ 7.29342162, 44.75879536 ], [ 7.29356681, 44.75884083 ], [ 7.29372246, 44.75892112 ], [ 7.29381184, 44.75893192 ], [ 7.29381665, 44.7589325 ], [ 7.29395297, 44.75892675 ], [ 7.29429074, 44.75891138 ], [ 7.29445094, 44.75886526 ], [ 7.29453299, 44.75884438 ], [ 7.29453908, 44.75884512 ] ] ], [ [ [ 7.29274862, 44.76202965 ], [ 7.29282079, 44.76203812 ], [ 7.29207478, 44.76202697 ], [ 7.29217686, 44.76199485 ], [ 7.29227197, 44.76197517 ], [ 7.29237317, 44.76198545 ], [ 7.29253505, 44.76200318 ], [ 7.29274862, 44.76202965 ] ] ] ] } }
]
}
