{
"type": "FeatureCollection",
"name": "parcel_stats",
"xy_coordinate_resolution": 1e-08,
"features": [
{ "type": "Feature", "properties": { "parcel_id": "F86-395", "is_target": true, "dist_to_point_m": 0.0, "Foglio": 86, "particella": "395", "area_m2": 5677.3, "area_cadastral_m2": 5514, "FID": 23717, "Id": 0, "Acad_angle": 0, "Gislink": 23718, "Perimeter": 437, "Irr": " ", "ConStr": " ", "DataIn": "20080124", "DataFi": " ", "Sezione": "-", "perimeter_m": 441.4, "dtm_cells_1m": 5678, "elev_min": 810.22, "elev_mean": 830.71, "elev_max": 853.14, "slope_min": 7.15, "slope_mean": 21.18, "slope_max": 30.08, "slope_mean_pct": 38.94, "aspect_mean_deg": 92.4, "south_facing_pct": 0.0, "southness": 0.04, "sun_winter_idx": 0.97, "sun_equinox_idx": 0.94, "aspect_dir": "E", "ov_arenor": "AAM - agricultural area, mountain (likely 'aree agricole montane') (100%)", "ov_pai2008": "PAI class III undifferentiated (area 1) - high hazard; new building generally not allowed (100%)", "ov_zona_montana": "present (100%)", "ov_vincolo_idrogeologico": "Hydrogeological restriction (100%)", "buildings_n": 0, "buildings_m2": 0.0, "buildings": null }, "geometry": { "type": "Polygon", "coordinates": [ [ [ 7.28008496, 44.71595365 ], [ 7.27988699, 44.71598262 ], [ 7.27934328, 44.71572877 ], [ 7.27960214, 44.71544513 ], [ 7.27972827, 44.71524484 ], [ 7.27976558, 44.71517652 ], [ 7.27990224, 44.71526618 ], [ 7.28000727, 44.71546316 ], [ 7.2800314, 44.71554701 ], [ 7.28062472, 44.71543344 ], [ 7.28063723, 44.71552942 ], [ 7.28080129, 44.7156607 ], [ 7.28093957, 44.71602039 ], [ 7.28092268, 44.71601334 ], [ 7.28081316, 44.71598685 ], [ 7.28053217, 44.71594732 ], [ 7.28041965, 44.71589208 ], [ 7.28035277, 44.71588927 ], [ 7.28028139, 44.71589597 ], [ 7.2801739, 44.71593732 ], [ 7.28008496, 44.71595365 ] ], [ [ 7.28042274, 44.71574125 ], [ 7.28046151, 44.71578861 ], [ 7.28057245, 44.71588121 ], [ 7.28065253, 44.71583422 ], [ 7.2806831, 44.71581593 ], [ 7.28057549, 44.71572334 ], [ 7.28051361, 44.71569365 ], [ 7.28049614, 44.71567862 ], [ 7.28046914, 44.71569274 ], [ 7.28048711, 44.71570782 ], [ 7.28042274, 44.71574125 ] ] ] } },
{ "type": "Feature", "properties": { "parcel_id": "F86-26", "is_target": false, "dist_to_point_m": 4.0, "Foglio": 86, "particella": "26", "area_m2": 1199.6, "area_cadastral_m2": 0, "FID": 31966, "Id": 0, "Acad_angle": 0, "Gislink": 31967, "Perimeter": 0, "Irr": " ", "ConStr": " ", "DataIn": "20111007", "DataFi": " ", "Sezione": "-", "perimeter_m": 172.7, "dtm_cells_1m": 1202, "elev_min": 808.19, "elev_mean": 813.85, "elev_max": 822.02, "slope_min": 6.1, "slope_mean": 13.83, "slope_max": 21.17, "slope_mean_pct": 24.75, "aspect_mean_deg": 52.43, "south_facing_pct": 0.0, "southness": -0.59, "sun_winter_idx": 0.6, "sun_equinox_idx": 0.82, "aspect_dir": "NE", "ov_arenor": "AAM - agricultural area, mountain (likely 'aree agricole montane') (100%)", "ov_pai2008": "PAI class III undifferentiated (area 1) - high hazard; new building generally not allowed (100%)", "ov_zona_montana": "present (100%)", "ov_vincolo_idrogeologico": "Hydrogeological restriction (100%)", "buildings_n": 1, "buildings_m2": 99.6, "buildings": "26-1" }, "geometry": { "type": "Polygon", "coordinates": [ [ [ 7.2805293, 44.71627397 ], [ 7.28048491, 44.71613992 ], [ 7.28039269, 44.71615582 ], [ 7.28034818, 44.71591132 ], [ 7.28043977, 44.71592539 ], [ 7.28051765, 44.71596812 ], [ 7.28087509, 44.71602969 ], [ 7.28094715, 44.71605684 ], [ 7.28111744, 44.71612537 ], [ 7.28100422, 44.71615376 ], [ 7.28093078, 44.71617228 ], [ 7.28094451, 44.71620149 ], [ 7.28090695, 44.71621109 ], [ 7.28089263, 44.71618191 ], [ 7.2805293, 44.71627397 ] ] ] } },
{ "type": "Feature", "properties": { "parcel_id": "F86-225", "is_target": false, "dist_to_point_m": 9.4, "Foglio": 86, "particella": "225", "area_m2": 3814.9, "area_cadastral_m2": 3839, "FID": 23719, "Id": 0, "Acad_angle": 0, "Gislink": 23720, "Perimeter": 269, "Irr": " ", "ConStr": " ", "DataIn": "20080124", "DataFi": " ", "Sezione": "-", "perimeter_m": 268.9, "dtm_cells_1m": 3816, "elev_min": 784.08, "elev_mean": 799.75, "elev_max": 812.7, "slope_min": 9.16, "slope_mean": 20.89, "slope_max": 26.18, "slope_mean_pct": 38.32, "aspect_mean_deg": 112.15, "south_facing_pct": 0.0, "southness": 0.37, "sun_winter_idx": 1.26, "sun_equinox_idx": 1.06, "aspect_dir": "E", "ov_arenor": "AAM - agricultural area, mountain (likely 'aree agricole montane') (100%)", "ov_pai2008": "PAI class III undifferentiated (area 1) - high hazard; new building generally not allowed (52%)", "ov_zona_montana": "present (100%)", "ov_vincolo_idrogeologico": "Hydrogeological restriction (100%)", "buildings_n": 0, "buildings_m2": 0.0, "buildings": null }, "geometry": { "type": "Polygon", "coordinates": [ [ [ 7.2815692, 44.71525783 ], [ 7.28152, 44.71541128 ], [ 7.28152419, 44.71546669 ], [ 7.28156097, 44.71549832 ], [ 7.28112122, 44.71609611 ], [ 7.28093957, 44.71602039 ], [ 7.28080129, 44.7156607 ], [ 7.28063723, 44.71552942 ], [ 7.28062472, 44.71543344 ], [ 7.28126707, 44.71531338 ], [ 7.2815692, 44.71525783 ] ] ] } },
{ "type": "Feature", "properties": { "parcel_id": "F86-396", "is_target": false, "dist_to_point_m": 20.0, "Foglio": 86, "particella": "396", "area_m2": 219.8, "area_cadastral_m2": 215, "FID": 23716, "Id": 0, "Acad_angle": 0, "Gislink": 23717, "Perimeter": 63, "Irr": " ", "ConStr": " ", "DataIn": "20080124", "DataFi": " ", "Sezione": "-", "perimeter_m": 63.6, "dtm_cells_1m": 220, "elev_min": 816.25, "elev_mean": 818.84, "elev_max": 820.4, "slope_min": 12.08, "slope_mean": 16.32, "slope_max": 22.62, "slope_mean_pct": 29.35, "aspect_mean_deg": 115.35, "south_facing_pct": 0.0, "southness": 0.42, "sun_winter_idx": 1.25, "sun_equinox_idx": 1.07, "aspect_dir": "SE", "ov_arenor": "AAM - agricultural area, mountain (likely 'aree agricole montane') (100%)", "ov_pai2008": "PAI class III undifferentiated (area 1) - high hazard; new building generally not allowed (100%)", "ov_zona_montana": "present (100%)", "ov_vincolo_idrogeologico": "Hydrogeological restriction (100%)", "buildings_n": 1, "buildings_m2": 111.7, "buildings": "396-1" }, "geometry": { "type": "Polygon", "coordinates": [ [ [ 7.28046151, 44.71578861 ], [ 7.28042274, 44.71574125 ], [ 7.28048711, 44.71570782 ], [ 7.28046914, 44.71569274 ], [ 7.28049614, 44.71567862 ], [ 7.28051361, 44.71569365 ], [ 7.28057549, 44.71572334 ], [ 7.2806831, 44.71581593 ], [ 7.28065253, 44.71583422 ], [ 7.28057245, 44.71588121 ], [ 7.28046151, 44.71578861 ] ] ] } },
{ "type": "Feature", "properties": { "parcel_id": "F86-549", "is_target": false, "dist_to_point_m": 23.6, "Foglio": 86, "particella": "549", "area_m2": 2071.4, "area_cadastral_m2": 2072, "FID": 23646, "Id": 0, "Acad_angle": 0, "Gislink": 23647, "Perimeter": 216, "Irr": " ", "ConStr": " ", "DataIn": "20080124", "DataFi": " ", "Sezione": "-", "perimeter_m": 214.6, "dtm_cells_1m": 2067, "elev_min": 800.46, "elev_mean": 806.31, "elev_max": 810.59, "slope_min": 5.65, "slope_mean": 11.73, "slope_max": 22.72, "slope_mean_pct": 20.83, "aspect_mean_deg": 37.88, "south_facing_pct": 0.0, "southness": -0.66, "sun_winter_idx": 0.63, "sun_equinox_idx": 0.84, "aspect_dir": "NE", "ov_arenor": "AAM - agricultural area, mountain (likely 'aree agricole montane') (100%)", "ov_pai2008": "PAI class III undifferentiated (area 1) - high hazard; new building generally not allowed (95%)", "ov_zona_montana": "present (100%)", "ov_vincolo_idrogeologico": "Hydrogeological restriction (100%)", "buildings_n": 0, "buildings_m2": 0.0, "buildings": null }, "geometry": { "type": "Polygon", "coordinates": [ [ [ 7.28161738, 44.71627662 ], [ 7.28155209, 44.71643777 ], [ 7.28052663, 44.716404 ], [ 7.28050029, 44.71630771 ], [ 7.2805293, 44.71627397 ], [ 7.28089263, 44.71618191 ], [ 7.28090695, 44.71621109 ], [ 7.28094451, 44.71620149 ], [ 7.28093078, 44.71617228 ], [ 7.28100422, 44.71615376 ], [ 7.28111744, 44.71612537 ], [ 7.28115454, 44.71614033 ], [ 7.28130532, 44.71618899 ], [ 7.28154791, 44.71625411 ], [ 7.28161738, 44.71627662 ] ] ] } },
{ "type": "Feature", "properties": { "parcel_id": "F86-553", "is_target": false, "dist_to_point_m": 28.5, "Foglio": 86, "particella": "553", "area_m2": 4521.3, "area_cadastral_m2": 4583, "FID": 23720, "Id": 0, "Acad_angle": 0, "Gislink": 23721, "Perimeter": 330, "Irr": " ", "ConStr": " ", "DataIn": "20080124", "DataFi": " ", "Sezione": "-", "perimeter_m": 327.2, "dtm_cells_1m": 4523, "elev_min": 784.85, "elev_mean": 794.71, "elev_max": 807.79, "slope_min": 5.72, "slope_mean": 15.41, "slope_max": 22.03, "slope_mean_pct": 27.7, "aspect_mean_deg": 125.18, "south_facing_pct": 40.24, "southness": 0.52, "sun_winter_idx": 1.34, "sun_equinox_idx": 1.11, "aspect_dir": "SE", "ov_arenor": "AAM - agricultural area, mountain (likely 'aree agricole montane') (100%)", "ov_pai2008": "Class II1 - moderate geological hazard; building allowed with technical measures (98%)", "ov_zona_montana": "present (100%)", "ov_vincolo_idrogeologico": "Hydrogeological restriction (100%)", "buildings_n": 0, "buildings_m2": 0.0, "buildings": null }, "geometry": { "type": "Polygon", "coordinates": [ [ [ 7.28237056, 44.71606679 ], [ 7.28250941, 44.71615427 ], [ 7.2821786, 44.71621303 ], [ 7.28196028, 44.7162707 ], [ 7.28174609, 44.71628482 ], [ 7.28152075, 44.71621424 ], [ 7.28128793, 44.71615409 ], [ 7.28117872, 44.71612013 ], [ 7.28112122, 44.71609611 ], [ 7.28156097, 44.71549832 ], [ 7.28162467, 44.71553374 ], [ 7.28167371, 44.7155822 ], [ 7.28170662, 44.71563836 ], [ 7.28180495, 44.71575303 ], [ 7.28186546, 44.71581524 ], [ 7.28193951, 44.7158367 ], [ 7.28223045, 44.71594508 ], [ 7.28237056, 44.71606679 ] ], [ [ 7.28140302, 44.71609499 ], [ 7.28143791, 44.71615523 ], [ 7.28151747, 44.71613127 ], [ 7.28148247, 44.71607094 ], [ 7.28140302, 44.71609499 ] ] ] } },
{ "type": "Feature", "properties": { "parcel_id": "F86-159", "is_target": false, "dist_to_point_m": 30.7, "Foglio": 86, "particella": "159", "area_m2": 4190.2, "area_cadastral_m2": 4186, "FID": 23643, "Id": 0, "Acad_angle": 0, "Gislink": 23644, "Perimeter": 318, "Irr": " ", "ConStr": " ", "DataIn": "20080124", "DataFi": " ", "Sezione": "-", "perimeter_m": 318.1, "dtm_cells_1m": 4187, "elev_min": 798.62, "elev_mean": 813.4, "elev_max": 827.13, "slope_min": 17.47, "slope_mean": 29.29, "slope_max": 37.37, "slope_mean_pct": 56.37, "aspect_mean_deg": 72.82, "south_facing_pct": 0.0, "southness": -0.29, "sun_winter_idx": 0.54, "sun_equinox_idx": 0.74, "aspect_dir": "E", "ov_arenor": "AAM - agricultural area, mountain (likely 'aree agricole montane') (100%)", "ov_pai2008": "PAI class III undifferentiated (area 1) - high hazard; new building generally not allowed (100%)", "ov_zona_montana": "present (100%)", "ov_vincolo_idrogeologico": "Hydrogeological restriction (100%)", "buildings_n": 0, "buildings_m2": 0.0, "buildings": null }, "geometry": { "type": "Polygon", "coordinates": [ [ [ 7.28050029, 44.71630771 ], [ 7.28033106, 44.7165046 ], [ 7.28031358, 44.71674411 ], [ 7.28025621, 44.71705736 ], [ 7.27998874, 44.71734824 ], [ 7.27983317, 44.71727553 ], [ 7.27986501, 44.71704906 ], [ 7.27982059, 44.71699935 ], [ 7.279781, 44.71690821 ], [ 7.27976804, 44.71668838 ], [ 7.27980612, 44.71658426 ], [ 7.27986181, 44.71652096 ], [ 7.2799729, 44.71645067 ], [ 7.28004164, 44.71642452 ], [ 7.28014358, 44.71631434 ], [ 7.28015466, 44.71624637 ], [ 7.28019794, 44.71619446 ], [ 7.28031882, 44.71616856 ], [ 7.28039269, 44.71615582 ], [ 7.28048491, 44.71613992 ], [ 7.2805293, 44.71627397 ], [ 7.28050029, 44.71630771 ] ] ] } },
{ "type": "Feature", "properties": { "parcel_id": "F86-688", "is_target": false, "dist_to_point_m": 34.6, "Foglio": 86, "particella": "688", "area_m2": 2151.0, "area_cadastral_m2": 2095, "FID": 23644, "Id": 0, "Acad_angle": 0, "Gislink": 23645, "Perimeter": 196, "Irr": " ", "ConStr": " ", "DataIn": "20080124", "DataFi": " ", "Sezione": "-", "perimeter_m": 198.4, "dtm_cells_1m": 2147, "elev_min": 817.29, "elev_mean": 829.23, "elev_max": 843.22, "slope_min": 12.06, "slope_mean": 26.32, "slope_max": 31.94, "slope_mean_pct": 49.68, "aspect_mean_deg": 68.53, "south_facing_pct": 0.0, "southness": -0.36, "sun_winter_idx": 0.49, "sun_equinox_idx": 0.73, "aspect_dir": "E", "ov_arenor": "AAM - agricultural area, mountain (likely 'aree agricole montane') (100%)", "ov_pai2008": "PAI class III undifferentiated (area 1) - high hazard; new building generally not allowed (100%)", "ov_zona_montana": "present (100%)", "ov_vincolo_idrogeologico": "Hydrogeological restriction (100%)", "buildings_n": 0, "buildings_m2": 0.0, "buildings": null }, "geometry": { "type": "Polygon", "coordinates": [ [ [ 7.28034818, 44.71591132 ], [ 7.28039269, 44.71615582 ], [ 7.28031882, 44.71616856 ], [ 7.28019794, 44.71619446 ], [ 7.28015466, 44.71624637 ], [ 7.28014358, 44.71631434 ], [ 7.28004164, 44.71642452 ], [ 7.2799729, 44.71645067 ], [ 7.2796941, 44.71634584 ], [ 7.27954498, 44.71630134 ], [ 7.27962201, 44.71615561 ], [ 7.27970551, 44.71612162 ], [ 7.27991245, 44.71600455 ], [ 7.28016983, 44.71596707 ], [ 7.28034818, 44.71591132 ] ] ] } },
{ "type": "Feature", "properties": { "parcel_id": "F86-28", "is_target": false, "dist_to_point_m": 43.5, "Foglio": 86, "particella": "28", "area_m2": 1800.6, "area_cadastral_m2": 1807, "FID": 23647, "Id": 0, "Acad_angle": 0, "Gislink": 23648, "Perimeter": 281, "Irr": " ", "ConStr": " ", "DataIn": "20080124", "DataFi": " ", "Sezione": "-", "perimeter_m": 278.9, "dtm_cells_1m": 1802, "elev_min": 796.04, "elev_mean": 801.8, "elev_max": 809.22, "slope_min": 11.25, "slope_mean": 17.86, "slope_max": 27.52, "slope_mean_pct": 32.33, "aspect_mean_deg": 18.32, "south_facing_pct": 0.0, "southness": -0.86, "sun_winter_idx": 0.29, "sun_equinox_idx": 0.69, "aspect_dir": "N", "ov_arenor": "AAM - agricultural area, mountain (likely 'aree agricole montane') (100%)", "ov_pai2008": "PAI class III undifferentiated (area 1) - high hazard; new building generally not allowed (96%)", "ov_zona_montana": "present (100%)", "ov_vincolo_idrogeologico": "Hydrogeological restriction (100%)", "buildings_n": 0, "buildings_m2": 0.0, "buildings": null }, "geometry": { "type": "Polygon", "coordinates": [ [ [ 7.28050029, 44.71630771 ], [ 7.28052663, 44.716404 ], [ 7.28155209, 44.71643777 ], [ 7.28161738, 44.71627662 ], [ 7.2817273, 44.71647792 ], [ 7.28156365, 44.71661447 ], [ 7.28033106, 44.7165046 ], [ 7.28050029, 44.71630771 ] ] ] } },
{ "type": "Feature", "properties": { "parcel_id": "F86-224", "is_target": false, "dist_to_point_m": 49.4, "Foglio": 86, "particella": "224", "area_m2": 49.6, "area_cadastral_m2": 50, "FID": 23721, "Id": 0, "Acad_angle": 0, "Gislink": 23722, "Perimeter": 28, "Irr": " ", "ConStr": " ", "DataIn": "20080124", "DataFi": " ", "Sezione": "-", "perimeter_m": 28.2, "dtm_cells_1m": 50, "elev_min": 801.64, "elev_mean": 802.65, "elev_max": 803.6, "slope_min": 13.35, "slope_mean": 15.54, "slope_max": 17.68, "slope_mean_pct": 27.83, "aspect_mean_deg": 124.8, "south_facing_pct": 2.0, "southness": 0.57, "sun_winter_idx": 1.35, "sun_equinox_idx": 1.12, "aspect_dir": "SE", "ov_arenor": "AAM - agricultural area, mountain (likely 'aree agricole montane') (100%)", "ov_pai2008": "Class II1 - moderate geological hazard; building allowed with technical measures (100%)", "ov_zona_montana": "present (100%)", "ov_vincolo_idrogeologico": "Hydrogeological restriction (100%)", "buildings_n": 1, "buildings_m2": 49.6, "buildings": "224" }, "geometry": { "type": "Polygon", "coordinates": [ [ [ 7.28143791, 44.71615523 ], [ 7.28140302, 44.71609499 ], [ 7.28148247, 44.71607094 ], [ 7.28151747, 44.71613127 ], [ 7.28143791, 44.71615523 ] ] ] } },
{ "type": "Feature", "properties": { "parcel_id": "F86-385", "is_target": false, "dist_to_point_m": 62.3, "Foglio": 86, "particella": "385", "area_m2": 2388.3, "area_cadastral_m2": 2350, "FID": 23718, "Id": 0, "Acad_angle": 0, "Gislink": 23719, "Perimeter": 201, "Irr": " ", "ConStr": " ", "DataIn": "20080124", "DataFi": " ", "Sezione": "-", "perimeter_m": 203.0, "dtm_cells_1m": 2385, "elev_min": 812.87, "elev_mean": 824.97, "elev_max": 838.77, "slope_min": 15.88, "slope_mean": 23.63, "slope_max": 30.23, "slope_mean_pct": 43.9, "aspect_mean_deg": 93.77, "south_facing_pct": 0.0, "southness": 0.06, "sun_winter_idx": 0.99, "sun_equinox_idx": 0.94, "aspect_dir": "E", "ov_arenor": "AAM - agricultural area, mountain (likely 'aree agricole montane') (100%)", "ov_pai2008": "PAI class III undifferentiated (area 1) - high hazard; new building generally not allowed (100%)", "ov_zona_montana": "present (100%)", "ov_vincolo_idrogeologico": "Hydrogeological restriction (100%)", "buildings_n": 0, "buildings_m2": 0.0, "buildings": null }, "geometry": { "type": "Polygon", "coordinates": [ [ [ 7.28062472, 44.71543344 ], [ 7.2800314, 44.71554701 ], [ 7.28000727, 44.71546316 ], [ 7.27990224, 44.71526618 ], [ 7.28026853, 44.71497472 ], [ 7.28027951, 44.7150162 ], [ 7.28029128, 44.71501454 ], [ 7.28030369, 44.71505005 ], [ 7.28033091, 44.71504548 ], [ 7.28033366, 44.71506027 ], [ 7.28047827, 44.71504129 ], [ 7.28054015, 44.71503574 ], [ 7.28056732, 44.71506922 ], [ 7.28059801, 44.71506691 ], [ 7.28058573, 44.71525735 ], [ 7.28061597, 44.71535292 ], [ 7.28062472, 44.71543344 ] ] ] } },
{ "type": "Feature", "properties": { "parcel_id": "F86-685", "is_target": false, "dist_to_point_m": 62.3, "Foglio": 86, "particella": "685", "area_m2": 2121.9, "area_cadastral_m2": 2131, "FID": 23722, "Id": 0, "Acad_angle": 0, "Gislink": 23723, "Perimeter": 234, "Irr": " ", "ConStr": " ", "DataIn": "20080124", "DataFi": " ", "Sezione": "-", "perimeter_m": 233.0, "dtm_cells_1m": 2130, "elev_min": 783.84, "elev_mean": 801.84, "elev_max": 814.64, "slope_min": 7.61, "slope_mean": 23.22, "slope_max": 27.78, "slope_mean_pct": 42.99, "aspect_mean_deg": 87.0, "south_facing_pct": 0.0, "southness": -0.05, "sun_winter_idx": 0.87, "sun_equinox_idx": 0.9, "aspect_dir": "E", "ov_arenor": "AAM - agricultural area, mountain (likely 'aree agricole montane') (100%)", "ov_pai2008": "PAI class III undifferentiated (area 1) - high hazard; new building generally not allowed (75%)", "ov_zona_montana": "present (100%)", "ov_vincolo_idrogeologico": "Hydrogeological restriction (100%)", "buildings_n": 0, "buildings_m2": 0.0, "buildings": null }, "geometry": { "type": "Polygon", "coordinates": [ [ [ 7.28162292, 44.7150071 ], [ 7.28162244, 44.71501584 ], [ 7.28133049, 44.71503578 ], [ 7.28126707, 44.71531338 ], [ 7.28062472, 44.71543344 ], [ 7.28061597, 44.71535292 ], [ 7.28058573, 44.71525735 ], [ 7.28059801, 44.71506691 ], [ 7.28162399, 44.71498783 ], [ 7.28162292, 44.7150071 ] ] ] } },
{ "type": "Feature", "properties": { "parcel_id": "F86-30", "is_target": false, "dist_to_point_m": 62.5, "Foglio": 86, "particella": "30", "area_m2": 8622.0, "area_cadastral_m2": 8715, "FID": 23648, "Id": 0, "Acad_angle": 0, "Gislink": 23649, "Perimeter": 415, "Irr": " ", "ConStr": " ", "DataIn": "20080124", "DataFi": " ", "Sezione": "-", "perimeter_m": 412.3, "dtm_cells_1m": 8620, "elev_min": 751.77, "elev_mean": 782.28, "elev_max": 806.15, "slope_min": 5.51, "slope_mean": 26.71, "slope_max": 37.62, "slope_mean_pct": 50.8, "aspect_mean_deg": 19.81, "south_facing_pct": 0.0, "southness": -0.86, "sun_winter_idx": 0.06, "sun_equinox_idx": 0.51, "aspect_dir": "N", "ov_arenor": "AAM - agricultural area, mountain (likely 'aree agricole montane') (100%)", "ov_pai2008": "PAI class III undifferentiated (area 1) - high hazard; new building generally not allowed (62%)", "ov_zona_montana": "present (100%)", "ov_vincolo_idrogeologico": "Hydrogeological restriction (100%)", "buildings_n": 0, "buildings_m2": 0.0, "buildings": null }, "geometry": { "type": "Polygon", "coordinates": [ [ [ 7.28033106, 44.7165046 ], [ 7.28156365, 44.71661447 ], [ 7.2817273, 44.71647792 ], [ 7.2818407, 44.7166669 ], [ 7.28192844, 44.71679759 ], [ 7.28200304, 44.7169087 ], [ 7.28217689, 44.7171855 ], [ 7.28206126, 44.71717457 ], [ 7.28196677, 44.71717223 ], [ 7.28188445, 44.71717895 ], [ 7.28179886, 44.71720669 ], [ 7.28171258, 44.71725693 ], [ 7.28161649, 44.71734327 ], [ 7.28153186, 44.7173746 ], [ 7.28149851, 44.71737931 ], [ 7.28144728, 44.71737627 ], [ 7.28118066, 44.71729057 ], [ 7.28090039, 44.71710895 ], [ 7.28031358, 44.71674411 ], [ 7.28033106, 44.7165046 ] ] ] } },
{ "type": "Feature", "properties": { "parcel_id": "F86-226", "is_target": false, "dist_to_point_m": 72.4, "Foglio": 86, "particella": "226", "area_m2": 3046.7, "area_cadastral_m2": 2904, "FID": 23645, "Id": 0, "Acad_angle": 0, "Gislink": 23646, "Perimeter": 252, "Irr": " ", "ConStr": " ", "DataIn": "20080124", "DataFi": " ", "Sezione": "-", "perimeter_m": 256.8, "dtm_cells_1m": 3046, "elev_min": 836.13, "elev_mean": 852.43, "elev_max": 863.07, "slope_min": 13.97, "slope_mean": 16.9, "slope_max": 30.13, "slope_mean_pct": 30.5, "aspect_mean_deg": 71.51, "south_facing_pct": 0.0, "southness": -0.32, "sun_winter_idx": 0.73, "sun_equinox_idx": 0.87, "aspect_dir": "E", "ov_arenor": "AAM - agricultural area, mountain (likely 'aree agricole montane') (100%)", "ov_pai2008": "PAI class III undifferentiated (area 1) - high hazard; new building generally not allowed (100%)", "ov_zona_montana": "present (100%)", "ov_vincolo_idrogeologico": "Hydrogeological restriction (100%)", "buildings_n": 0, "buildings_m2": 0.0, "buildings": null }, "geometry": { "type": "Polygon", "coordinates": [ [ [ 7.27869341, 44.71636533 ], [ 7.27876297, 44.71632118 ], [ 7.27885597, 44.71622413 ], [ 7.27883466, 44.71592674 ], [ 7.27891188, 44.71592709 ], [ 7.27934328, 44.71572877 ], [ 7.27988699, 44.71598262 ], [ 7.27966751, 44.71610645 ], [ 7.27956876, 44.71614437 ], [ 7.27924378, 44.71621783 ], [ 7.27896396, 44.71626838 ], [ 7.27873364, 44.71635581 ], [ 7.27869341, 44.71636533 ] ] ] } },
{ "type": "Feature", "properties": { "parcel_id": "F86-31", "is_target": false, "dist_to_point_m": 72.6, "Foglio": 86, "particella": "31", "area_m2": 1532.9, "area_cadastral_m2": 1556, "FID": 23651, "Id": 0, "Acad_angle": 0, "Gislink": 23652, "Perimeter": 171, "Irr": " ", "ConStr": " ", "DataIn": "20080124", "DataFi": " ", "Sezione": "-", "perimeter_m": 169.5, "dtm_cells_1m": 1536, "elev_min": 777.09, "elev_mean": 788.74, "elev_max": 800.37, "slope_min": 12.45, "slope_mean": 23.57, "slope_max": 29.48, "slope_mean_pct": 43.95, "aspect_mean_deg": 56.67, "south_facing_pct": 0.0, "southness": -0.54, "sun_winter_idx": 0.36, "sun_equinox_idx": 0.69, "aspect_dir": "NE", "ov_arenor": "AAM - agricultural area, mountain (likely 'aree agricole montane') (100%)", "ov_pai2008": "PAI class III undifferentiated (area 1) - high hazard; new building generally not allowed (78%)", "ov_zona_montana": "present (100%)", "ov_vincolo_idrogeologico": "Hydrogeological restriction (100%)", "buildings_n": 0, "buildings_m2": 0.0, "buildings": null }, "geometry": { "type": "Polygon", "coordinates": [ [ [ 7.28200836, 44.7162882 ], [ 7.28218897, 44.71650165 ], [ 7.28226534, 44.71659506 ], [ 7.28192844, 44.71679759 ], [ 7.2818407, 44.7166669 ], [ 7.2817273, 44.71647792 ], [ 7.28161738, 44.71627662 ], [ 7.28166397, 44.71629171 ], [ 7.28174808, 44.71630963 ], [ 7.28194428, 44.71630523 ], [ 7.28200836, 44.7162882 ] ] ] } },
{ "type": "Feature", "properties": { "parcel_id": "F86-833", "is_target": false, "dist_to_point_m": 80.6, "Foglio": 86, "particella": "833", "area_m2": 3072.5, "area_cadastral_m2": 0, "FID": 36146, "Id": 0, "Acad_angle": 0, "Gislink": 36147, "Perimeter": 0, "Irr": " ", "ConStr": " ", "DataIn": "20220410", "DataFi": " ", "Sezione": "-", "perimeter_m": 254.0, "dtm_cells_1m": 3074, "elev_min": 772.26, "elev_mean": 779.45, "elev_max": 788.15, "slope_min": 6.97, "slope_mean": 14.94, "slope_max": 23.53, "slope_mean_pct": 26.76, "aspect_mean_deg": 104.23, "south_facing_pct": 33.8, "southness": 0.19, "sun_winter_idx": 1.1, "sun_equinox_idx": 1.02, "aspect_dir": "E", "ov_arenor": "AAM - agricultural area, mountain (likely 'aree agricole montane') (100%)", "ov_pai2008": "Class II1 - moderate geological hazard; building allowed with technical measures (100%)", "ov_zona_montana": "present (100%)", "ov_vincolo_idrogeologico": "Hydrogeological restriction (100%)", "buildings_n": 0, "buildings_m2": 0.0, "buildings": null }, "geometry": { "type": "Polygon", "coordinates": [ [ [ 7.2823261, 44.71509483 ], [ 7.28193951, 44.7158367 ], [ 7.28186546, 44.71581524 ], [ 7.28180495, 44.71575303 ], [ 7.28170662, 44.71563836 ], [ 7.28167371, 44.7155822 ], [ 7.28162467, 44.71553374 ], [ 7.28156097, 44.71549832 ], [ 7.28152419, 44.71546669 ], [ 7.28152, 44.71541128 ], [ 7.2815692, 44.71525783 ], [ 7.28158326, 44.71525525 ], [ 7.28157788, 44.7152715 ], [ 7.28171666, 44.71528735 ], [ 7.28173587, 44.7152322 ], [ 7.28181613, 44.71508639 ], [ 7.28182352, 44.71508771 ], [ 7.28184076, 44.71504814 ], [ 7.28193724, 44.71504275 ], [ 7.28197554, 44.71503961 ], [ 7.28205827, 44.71510387 ], [ 7.28206575, 44.71510105 ], [ 7.28222393, 44.71504153 ], [ 7.2823261, 44.71509483 ] ] ] } },
{ "type": "Feature", "properties": { "parcel_id": "F86-686", "is_target": false, "dist_to_point_m": 82.8, "Foglio": 86, "particella": "686", "area_m2": 672.2, "area_cadastral_m2": 677, "FID": 23723, "Id": 0, "Acad_angle": 0, "Gislink": 23724, "Perimeter": 107, "Irr": " ", "ConStr": " ", "DataIn": "20080124", "DataFi": " ", "Sezione": "-", "perimeter_m": 106.5, "dtm_cells_1m": 671, "elev_min": 783.31, "elev_mean": 786.6, "elev_max": 791.23, "slope_min": 7.63, "slope_mean": 16.94, "slope_max": 24.44, "slope_mean_pct": 30.66, "aspect_mean_deg": 82.16, "south_facing_pct": 0.0, "southness": -0.14, "sun_winter_idx": 0.85, "sun_equinox_idx": 0.91, "aspect_dir": "E", "ov_arenor": "AAM - agricultural area, mountain (likely 'aree agricole montane') (100%)", "ov_pai2008": "Class II1 - moderate geological hazard; building allowed with technical measures (100%)", "ov_zona_montana": "present (100%)", "ov_vincolo_idrogeologico": "Hydrogeological restriction (100%)", "buildings_n": 0, "buildings_m2": 0.0, "buildings": null }, "geometry": { "type": "Polygon", "coordinates": [ [ [ 7.2815692, 44.71525783 ], [ 7.28126707, 44.71531338 ], [ 7.28133049, 44.71503578 ], [ 7.28162244, 44.71501584 ], [ 7.28161047, 44.71512293 ], [ 7.2815692, 44.71525783 ] ] ] } },
{ "type": "Feature", "properties": { "parcel_id": "F86-24", "is_target": false, "dist_to_point_m": 83.9, "Foglio": 86, "particella": "24", "area_m2": 2134.0, "area_cadastral_m2": 2062, "FID": 23641, "Id": 0, "Acad_angle": 0, "Gislink": 23642, "Perimeter": 199, "Irr": " ", "ConStr": " ", "DataIn": "20080124", "DataFi": " ", "Sezione": "-", "perimeter_m": 200.4, "dtm_cells_1m": 2147, "elev_min": 823.19, "elev_mean": 835.25, "elev_max": 843.12, "slope_min": 18.73, "slope_mean": 25.04, "slope_max": 32.96, "slope_mean_pct": 46.88, "aspect_mean_deg": 68.34, "south_facing_pct": 0.0, "southness": -0.36, "sun_winter_idx": 0.53, "sun_equinox_idx": 0.76, "aspect_dir": "E", "ov_arenor": "AAM - agricultural area, mountain (likely 'aree agricole montane') (100%)", "ov_pai2008": "PAI class III undifferentiated (area 1) - high hazard; new building generally not allowed (100%)", "ov_zona_montana": "present (100%)", "ov_vincolo_idrogeologico": "Hydrogeological restriction (100%)", "buildings_n": 0, "buildings_m2": 0.0, "buildings": null }, "geometry": { "type": "Polygon", "coordinates": [ [ [ 7.27923855, 44.71683852 ], [ 7.27954498, 44.71630134 ], [ 7.2796941, 44.71634584 ], [ 7.2799729, 44.71645067 ], [ 7.27986181, 44.71652096 ], [ 7.27980612, 44.71658426 ], [ 7.27976804, 44.71668838 ], [ 7.27965658, 44.71683881 ], [ 7.2794338, 44.71699033 ], [ 7.27923855, 44.71683852 ] ] ] } },
{ "type": "Feature", "properties": { "parcel_id": "F86-725", "is_target": false, "dist_to_point_m": 91.6, "Foglio": 86, "particella": "725", "area_m2": 2444.5, "area_cadastral_m2": 2494, "FID": 23605, "Id": 0, "Acad_angle": 0, "Gislink": 23606, "Perimeter": 216, "Irr": " ", "ConStr": " ", "DataIn": "20080124", "DataFi": " ", "Sezione": "-", "perimeter_m": 214.6, "dtm_cells_1m": 2441, "elev_min": 774.89, "elev_mean": 784.63, "elev_max": 789.76, "slope_min": 4.03, "slope_mean": 13.0, "slope_max": 20.14, "slope_mean_pct": 23.22, "aspect_mean_deg": 160.77, "south_facing_pct": 82.38, "southness": 0.79, "sun_winter_idx": 1.46, "sun_equinox_idx": 1.17, "aspect_dir": "S", "ov_arenor": "AAM - agricultural area, mountain (likely 'aree agricole montane') (100%)", "ov_pai2008": "Class II1 - moderate geological hazard; building allowed with technical measures (100%)", "ov_zona_montana": "present (100%)", "ov_vincolo_idrogeologico": "Hydrogeological restriction (100%)", "buildings_n": 0, "buildings_m2": 0.0, "buildings": null }, "geometry": { "type": "Polygon", "coordinates": [ [ [ 7.2827357, 44.71607981 ], [ 7.28250941, 44.71615427 ], [ 7.28237056, 44.71606679 ], [ 7.28223045, 44.71594508 ], [ 7.28193951, 44.7158367 ], [ 7.28266979, 44.71548761 ], [ 7.28269003, 44.71549276 ], [ 7.2827357, 44.71607981 ] ] ] } },
{ "type": "Feature", "properties": { "parcel_id": "F86-727", "is_target": false, "dist_to_point_m": 91.6, "Foglio": 86, "particella": "727", "area_m2": 2129.2, "area_cadastral_m2": 2172, "FID": 23606, "Id": 0, "Acad_angle": 0, "Gislink": 23607, "Perimeter": 221, "Irr": " ", "ConStr": " ", "DataIn": "20080124", "DataFi": " ", "Sezione": "-", "perimeter_m": 219.8, "dtm_cells_1m": 2130, "elev_min": 763.52, "elev_mean": 774.28, "elev_max": 787.51, "slope_min": 7.18, "slope_mean": 17.07, "slope_max": 27.25, "slope_mean_pct": 30.97, "aspect_mean_deg": 152.03, "south_facing_pct": 77.89, "southness": 0.77, "sun_winter_idx": 1.5, "sun_equinox_idx": 1.17, "aspect_dir": "SE", "ov_arenor": "AAM - agricultural area, mountain (likely 'aree agricole montane') (100%)", "ov_pai2008": "Class II1 - moderate geological hazard; building allowed with technical measures (92%)", "ov_zona_montana": "present (100%)", "ov_vincolo_idrogeologico": "Hydrogeological restriction (100%)", "buildings_n": 0, "buildings_m2": 0.0, "buildings": null }, "geometry": { "type": "Polygon", "coordinates": [ [ [ 7.28269003, 44.71549276 ], [ 7.28266979, 44.71548761 ], [ 7.28193951, 44.7158367 ], [ 7.2823261, 44.71509483 ], [ 7.28259019, 44.71523059 ], [ 7.28261833, 44.71525352 ], [ 7.28262973, 44.71528593 ], [ 7.28267358, 44.71527667 ], [ 7.28269003, 44.71549276 ] ] ] } },
{ "type": "Feature", "properties": { "parcel_id": "F86-21", "is_target": false, "dist_to_point_m": 93.3, "Foglio": 86, "particella": "21", "area_m2": 3662.7, "area_cadastral_m2": 3707, "FID": 23649, "Id": 0, "Acad_angle": 0, "Gislink": 23650, "Perimeter": 274, "Irr": " ", "ConStr": " ", "DataIn": "20080124", "DataFi": " ", "Sezione": "-", "perimeter_m": 271.8, "dtm_cells_1m": 3662, "elev_min": 763.75, "elev_mean": 789.05, "elev_max": 811.13, "slope_min": 7.29, "slope_mean": 28.2, "slope_max": 34.61, "slope_mean_pct": 53.9, "aspect_mean_deg": 86.48, "south_facing_pct": 0.0, "southness": -0.06, "sun_winter_idx": 0.82, "sun_equinox_idx": 0.86, "aspect_dir": "E", "ov_arenor": "AAM - agricultural area, mountain (likely 'aree agricole montane') (100%)", "ov_pai2008": "PAI class III undifferentiated (area 1) - high hazard; new building generally not allowed (75%)", "ov_zona_montana": "present (100%)", "ov_vincolo_idrogeologico": "Hydrogeological restriction (100%)", "buildings_n": 0, "buildings_m2": 0.0, "buildings": null }, "geometry": { "type": "Polygon", "coordinates": [ [ [ 7.27998874, 44.71734824 ], [ 7.28025621, 44.71705736 ], [ 7.28031358, 44.71674411 ], [ 7.28090039, 44.71710895 ], [ 7.28118066, 44.71729057 ], [ 7.28065122, 44.71739775 ], [ 7.28035549, 44.71746129 ], [ 7.28020994, 44.71751158 ], [ 7.28005588, 44.71741969 ], [ 7.27998874, 44.71734824 ] ] ] } },
{ "type": "Feature", "properties": { "parcel_id": "F86-124", "is_target": false, "dist_to_point_m": 95.4, "Foglio": 86, "particella": "124", "area_m2": 1363.6, "area_cadastral_m2": 1328, "FID": 23639, "Id": 0, "Acad_angle": 0, "Gislink": 23640, "Perimeter": 211, "Irr": " ", "ConStr": " ", "DataIn": "20080124", "DataFi": " ", "Sezione": "-", "perimeter_m": 214.9, "dtm_cells_1m": 1363, "elev_min": 843.2, "elev_mean": 853.27, "elev_max": 861.89, "slope_min": 13.71, "slope_mean": 15.81, "slope_max": 22.5, "slope_mean_pct": 28.34, "aspect_mean_deg": 66.94, "south_facing_pct": 0.0, "southness": -0.39, "sun_winter_idx": 0.7, "sun_equinox_idx": 0.86, "aspect_dir": "NE", "ov_arenor": "AAM - agricultural area, mountain (likely 'aree agricole montane') (100%)", "ov_pai2008": "PAI class III undifferentiated (area 1) - high hazard; new building generally not allowed (100%)", "ov_zona_montana": "present (100%)", "ov_vincolo_idrogeologico": "Hydrogeological restriction (100%)", "buildings_n": 0, "buildings_m2": 0.0, "buildings": null }, "geometry": { "type": "Polygon", "coordinates": [ [ [ 7.27954498, 44.71630134 ], [ 7.27921756, 44.7163165 ], [ 7.2788749, 44.71664502 ], [ 7.27872399, 44.71655329 ], [ 7.27866657, 44.71652343 ], [ 7.27854655, 44.71645854 ], [ 7.27863507, 44.71640236 ], [ 7.27870755, 44.71639286 ], [ 7.27897402, 44.71629172 ], [ 7.27924447, 44.71625105 ], [ 7.27960383, 44.71616301 ], [ 7.27962201, 44.71615561 ], [ 7.27954498, 44.71630134 ] ] ] } },
{ "type": "Feature", "properties": { "parcel_id": "F86-444", "is_target": false, "dist_to_point_m": 99.9, "Foglio": 86, "particella": "444", "area_m2": 403.5, "area_cadastral_m2": 410, "FID": 23730, "Id": 0, "Acad_angle": 0, "Gislink": 23731, "Perimeter": 89, "Irr": " ", "ConStr": " ", "DataIn": "20080124", "DataFi": " ", "Sezione": "-", "perimeter_m": 89.2, "dtm_cells_1m": 404, "elev_min": 781.51, "elev_mean": 782.78, "elev_max": 783.92, "slope_min": 5.35, "slope_mean": 8.26, "slope_max": 13.39, "slope_mean_pct": 14.53, "aspect_mean_deg": 75.08, "south_facing_pct": 0.0, "southness": -0.25, "sun_winter_idx": 0.9, "sun_equinox_idx": 0.95, "aspect_dir": "E", "ov_arenor": "AAM - agricultural area, mountain (likely 'aree agricole montane') (100%)", "ov_pai2008": "Class II1 - moderate geological hazard; building allowed with technical measures (100%)", "ov_zona_montana": "present (100%)", "ov_vincolo_idrogeologico": "Hydrogeological restriction (100%)", "buildings_n": 1, "buildings_m2": 70.4, "buildings": "444-2" }, "geometry": { "type": "Polygon", "coordinates": [ [ [ 7.28184076, 44.71504814 ], [ 7.28182352, 44.71508771 ], [ 7.28181613, 44.71508639 ], [ 7.28173587, 44.7152322 ], [ 7.28171666, 44.71528735 ], [ 7.28157788, 44.7152715 ], [ 7.28158326, 44.71525525 ], [ 7.2815692, 44.71525783 ], [ 7.28161047, 44.71512293 ], [ 7.28162244, 44.71501584 ], [ 7.28162292, 44.7150071 ], [ 7.28164716, 44.71501159 ], [ 7.28173409, 44.71502814 ], [ 7.28184076, 44.71504814 ] ] ] } }
]
}
