{
"type": "FeatureCollection",
"name": "parcel_stats",
"xy_coordinate_resolution": 1e-08,
"features": [
{ "type": "Feature", "properties": { "parcel_id": "F20-311", "is_target": true, "dist_to_point_m": 0.0, "Foglio": 20, "particella": "311", "area_m2": 844.9, "area_cadastral_m2": 829, "FID": 9767, "Id": 0, "Acad_angle": 0, "Gislink": 9768, "Perimeter": 120, "Irr": " ", "ConStr": " ", "DataIn": "20100107", "DataFi": " ", "Sezione": "-", "perimeter_m": 121.2, "dtm_cells_1m": 844, "elev_min": 409.33, "elev_mean": 411.84, "elev_max": 416.33, "slope_min": 4.55, "slope_mean": 9.93, "slope_max": 20.12, "slope_mean_pct": 17.58, "aspect_mean_deg": 159.63, "south_facing_pct": 72.39, "southness": 0.83, "sun_winter_idx": 1.35, "sun_equinox_idx": 1.13, "aspect_dir": "S", "ov_destinazioni_urbanistiche": "E - agricultural zone (100%)", "ov_vincolo_idrogeologico": null, "ov_lettera_g_i_territori_coperti_da_foreste_e_boschi": null, "ov_ambiti_di_paesaggio": "Plain landscape area (Ambito Piana) (100%)", "ov_unita_di_paesaggio": "Rural (55%)", "ov_coperturaboscata": null, "ov_morfologie_insediative": "m.i. 10 - rural areas of plain or hill (PPR settlement class 10) (100%)", "buildings_n": 1, "buildings_m2": 114.2, "buildings": "311-1" }, "geometry": { "type": "Polygon", "coordinates": [ [ [ 7.29412273, 44.76030619 ], [ 7.2942953, 44.76000171 ], [ 7.29465309, 44.7601082 ], [ 7.29457016, 44.76026133 ], [ 7.29412273, 44.76030619 ] ] ] } },
{ "type": "Feature", "properties": { "parcel_id": "F20-312", "is_target": false, "dist_to_point_m": 9.2, "Foglio": 20, "particella": "312", "area_m2": 4628.7, "area_cadastral_m2": 4647, "FID": 9768, "Id": 0, "Acad_angle": 0, "Gislink": 9769, "Perimeter": 462, "Irr": " ", "ConStr": " ", "DataIn": "20100107", "DataFi": " ", "Sezione": "-", "perimeter_m": 462.4, "dtm_cells_1m": 4635, "elev_min": 403.21, "elev_mean": 408.62, "elev_max": 416.78, "slope_min": 1.78, "slope_mean": 13.75, "slope_max": 27.69, "slope_mean_pct": 24.71, "aspect_mean_deg": 163.66, "south_facing_pct": 83.67, "southness": 0.85, "sun_winter_idx": 1.48, "sun_equinox_idx": 1.17, "aspect_dir": "S", "ov_destinazioni_urbanistiche": "E - agricultural zone (100%)", "ov_vincolo_idrogeologico": null, "ov_lettera_g_i_territori_coperti_da_foreste_e_boschi": "Chestnut woods (21%)", "ov_ambiti_di_paesaggio": "Plain landscape area (Ambito Piana) (100%)", "ov_unita_di_paesaggio": "Rural, significant and intact (61%)", "ov_coperturaboscata": "Forest cover (21%)", "ov_morfologie_insediative": "m.i. 10 - rural areas of plain or hill (PPR settlement class 10) (79%)", "buildings_n": 0, "buildings_m2": 0.0, "buildings": null }, "geometry": { "type": "Polygon", "coordinates": [ [ [ 7.29573671, 44.76032161 ], [ 7.29571208, 44.76042935 ], [ 7.29542241, 44.76039203 ], [ 7.29536035, 44.7603814 ], [ 7.29496167, 44.76031983 ], [ 7.29457016, 44.76026133 ], [ 7.29465309, 44.7601082 ], [ 7.2942953, 44.76000171 ], [ 7.29412273, 44.76030619 ], [ 7.29407893, 44.7603108 ], [ 7.29397341, 44.76032093 ], [ 7.29365597, 44.76035024 ], [ 7.29348033, 44.76032828 ], [ 7.29346558, 44.76032644 ], [ 7.29360135, 44.76022834 ], [ 7.29370288, 44.76019019 ], [ 7.29408604, 44.759965 ], [ 7.29416717, 44.7599209 ], [ 7.29429524, 44.75988406 ], [ 7.2943223, 44.75988702 ], [ 7.29440304, 44.75986871 ], [ 7.29451174, 44.75983794 ], [ 7.29463675, 44.75978406 ], [ 7.29508638, 44.76005607 ], [ 7.29543195, 44.76026586 ], [ 7.29573671, 44.76032161 ] ] ] } },
{ "type": "Feature", "properties": { "parcel_id": "F20-476", "is_target": false, "dist_to_point_m": 16.6, "Foglio": 20, "particella": "476", "area_m2": 1944.8, "area_cadastral_m2": 1963, "FID": 9903, "Id": 0, "Acad_angle": 0, "Gislink": 9904, "Perimeter": 219, "Irr": " ", "ConStr": " ", "DataIn": "20100107", "DataFi": " ", "Sezione": "-", "perimeter_m": 217.4, "dtm_cells_1m": 1945, "elev_min": 411.87, "elev_mean": 420.11, "elev_max": 426.86, "slope_min": 8.09, "slope_mean": 13.18, "slope_max": 23.73, "slope_mean_pct": 23.47, "aspect_mean_deg": 160.29, "south_facing_pct": 88.48, "southness": 0.88, "sun_winter_idx": 1.48, "sun_equinox_idx": 1.18, "aspect_dir": "S", "ov_destinazioni_urbanistiche": "E - agricultural zone (100%)", "ov_vincolo_idrogeologico": null, "ov_lettera_g_i_territori_coperti_da_foreste_e_boschi": null, "ov_ambiti_di_paesaggio": "Plain landscape area (Ambito Piana) (100%)", "ov_unita_di_paesaggio": "Rural (91%)", "ov_coperturaboscata": null, "ov_morfologie_insediative": "m.i. 10 - rural areas of plain or hill (PPR settlement class 10) (100%)", "buildings_n": 0, "buildings_m2": 0.0, "buildings": null }, "geometry": { "type": "Polygon", "coordinates": [ [ [ 7.29457016, 44.76026133 ], [ 7.29435266, 44.76060217 ], [ 7.29413172, 44.76056806 ], [ 7.29392319, 44.76070102 ], [ 7.29369343, 44.76067888 ], [ 7.29354059, 44.76072583 ], [ 7.29378433, 44.76049745 ], [ 7.29397341, 44.76032093 ], [ 7.29407893, 44.7603108 ], [ 7.29412273, 44.76030619 ], [ 7.29457016, 44.76026133 ] ] ] } },
{ "type": "Feature", "properties": { "parcel_id": "F20-473", "is_target": false, "dist_to_point_m": 19.6, "Foglio": 20, "particella": "473", "area_m2": 2720.8, "area_cadastral_m2": 2711, "FID": 9900, "Id": 0, "Acad_angle": 0, "Gislink": 9901, "Perimeter": 217, "Irr": " ", "ConStr": " ", "DataIn": "20100107", "DataFi": " ", "Sezione": "-", "perimeter_m": 217.5, "dtm_cells_1m": 2722, "elev_min": 409.68, "elev_mean": 417.68, "elev_max": 424.96, "slope_min": 11.43, "slope_mean": 17.13, "slope_max": 22.52, "slope_mean_pct": 30.85, "aspect_mean_deg": 167.06, "south_facing_pct": 100.0, "southness": 0.95, "sun_winter_idx": 1.65, "sun_equinox_idx": 1.23, "aspect_dir": "S", "ov_destinazioni_urbanistiche": "E - agricultural zone (100%)", "ov_vincolo_idrogeologico": null, "ov_lettera_g_i_territori_coperti_da_foreste_e_boschi": null, "ov_ambiti_di_paesaggio": "Plain landscape area (Ambito Piana) (100%)", "ov_unita_di_paesaggio": "Rural, significant and intact (99%)", "ov_coperturaboscata": null, "ov_morfologie_insediative": "m.i. 10 - rural areas of plain or hill (PPR settlement class 10) (100%)", "buildings_n": 0, "buildings_m2": 0.0, "buildings": null }, "geometry": { "type": "Polygon", "coordinates": [ [ [ 7.29536035, 44.7603814 ], [ 7.2951739, 44.76075859 ], [ 7.29501139, 44.76070903 ], [ 7.29460231, 44.76064087 ], [ 7.29435266, 44.76060217 ], [ 7.29457016, 44.76026133 ], [ 7.29496167, 44.76031983 ], [ 7.29536035, 44.7603814 ] ] ] } },
{ "type": "Feature", "properties": { "parcel_id": "F30-225", "is_target": false, "dist_to_point_m": 27.5, "Foglio": 30, "particella": "225", "area_m2": 2110.8, "area_cadastral_m2": 2154, "FID": 15848, "Id": 0, "Acad_angle": 0, "Gislink": 15849, "Perimeter": 260, "Irr": " ", "ConStr": " ", "DataIn": "20100107", "DataFi": " ", "Sezione": "-", "perimeter_m": 258.6, "dtm_cells_1m": 2107, "elev_min": 397.55, "elev_mean": 402.06, "elev_max": 407.33, "slope_min": 1.47, "slope_mean": 6.74, "slope_max": 14.32, "slope_mean_pct": 11.86, "aspect_mean_deg": 131.25, "south_facing_pct": 42.67, "southness": 0.6, "sun_winter_idx": 1.17, "sun_equinox_idx": 1.06, "aspect_dir": "SE", "ov_destinazioni_urbanistiche": "E - agricultural zone (100%)", "ov_vincolo_idrogeologico": "Hydrogeological restriction (100%)", "ov_lettera_g_i_territori_coperti_da_foreste_e_boschi": "Maple-lime-ash woods (48%)", "ov_ambiti_di_paesaggio": "Plain landscape area (Ambito Piana) (100%)", "ov_unita_di_paesaggio": "Rural (100%)", "ov_coperturaboscata": "Forest cover (91%)", "ov_morfologie_insediative": "m.i. 10 - rural areas of plain or hill (PPR settlement class 10) (9%)", "buildings_n": 0, "buildings_m2": 0.0, "buildings": null }, "geometry": { "type": "Polygon", "coordinates": [ [ [ 7.29416583, 44.75947948 ], [ 7.29420443, 44.75945132 ], [ 7.29427858, 44.75931514 ], [ 7.29441942, 44.75906944 ], [ 7.29453171, 44.75886975 ], [ 7.29453908, 44.75884512 ], [ 7.29468355, 44.75886421 ], [ 7.2946585, 44.75894437 ], [ 7.29456949, 44.75925298 ], [ 7.29449711, 44.75953163 ], [ 7.29440304, 44.75986871 ], [ 7.2943223, 44.75988702 ], [ 7.29429524, 44.75988406 ], [ 7.2942021, 44.75972982 ], [ 7.29421285, 44.75962225 ], [ 7.29418801, 44.75949185 ], [ 7.29416583, 44.75947948 ] ] ] } },
{ "type": "Feature", "properties": { "parcel_id": "F20-764", "is_target": false, "dist_to_point_m": 28.4, "Foglio": 20, "particella": "764", "area_m2": 1817.1, "area_cadastral_m2": 1850, "FID": 10118, "Id": 0, "Acad_angle": 0, "Gislink": 10119, "Perimeter": 270, "Irr": " ", "ConStr": " ", "DataIn": "20100107", "DataFi": " ", "Sezione": "-", "perimeter_m": 268.1, "dtm_cells_1m": 1814, "elev_min": 405.7, "elev_mean": 409.56, "elev_max": 416.41, "slope_min": 2.5, "slope_mean": 17.25, "slope_max": 33.36, "slope_mean_pct": 31.81, "aspect_mean_deg": 84.33, "south_facing_pct": 12.95, "southness": -0.08, "sun_winter_idx": 0.78, "sun_equinox_idx": 0.88, "aspect_dir": "E", "ov_destinazioni_urbanistiche": "E - agricultural zone (100%)", "ov_vincolo_idrogeologico": null, "ov_lettera_g_i_territori_coperti_da_foreste_e_boschi": "Chestnut woods (100%)", "ov_ambiti_di_paesaggio": "Plain landscape area (Ambito Piana) (100%)", "ov_unita_di_paesaggio": "Rural (100%)", "ov_coperturaboscata": "Forest cover (100%)", "ov_morfologie_insediative": null, "buildings_n": 0, "buildings_m2": 0.0, "buildings": null }, "geometry": { "type": "Polygon", "coordinates": [ [ [ 7.29429524, 44.75988406 ], [ 7.29416717, 44.7599209 ], [ 7.29408604, 44.759965 ], [ 7.29370288, 44.76019019 ], [ 7.29360135, 44.76022834 ], [ 7.29346558, 44.76032644 ], [ 7.29324851, 44.76027559 ], [ 7.29348672, 44.76018715 ], [ 7.29352349, 44.76017579 ], [ 7.29357328, 44.76015493 ], [ 7.29370753, 44.76007623 ], [ 7.29372707, 44.76005621 ], [ 7.29376871, 44.75999973 ], [ 7.29386289, 44.75987223 ], [ 7.29390395, 44.75977629 ], [ 7.29393187, 44.75969717 ], [ 7.29394992, 44.75964696 ], [ 7.29416583, 44.75947948 ], [ 7.29418801, 44.75949185 ], [ 7.29421285, 44.75962225 ], [ 7.2942021, 44.75972982 ], [ 7.29429524, 44.75988406 ] ] ] } },
{ "type": "Feature", "properties": { "parcel_id": "F30-226", "is_target": false, "dist_to_point_m": 28.6, "Foglio": 30, "particella": "226", "area_m2": 771.9, "area_cadastral_m2": 780, "FID": 15847, "Id": 0, "Acad_angle": 0, "Gislink": 15848, "Perimeter": 118, "Irr": " ", "ConStr": " ", "DataIn": "20100107", "DataFi": " ", "Sezione": "-", "perimeter_m": 117.4, "dtm_cells_1m": 764, "elev_min": 401.48, "elev_mean": 403.61, "elev_max": 406.6, "slope_min": 3.04, "slope_mean": 6.86, "slope_max": 10.52, "slope_mean_pct": 12.04, "aspect_mean_deg": 155.06, "south_facing_pct": 85.86, "southness": 0.87, "sun_winter_idx": 1.25, "sun_equinox_idx": 1.1, "aspect_dir": "SE", "ov_destinazioni_urbanistiche": "E - agricultural zone (100%)", "ov_vincolo_idrogeologico": "Hydrogeological restriction (100%)", "ov_lettera_g_i_territori_coperti_da_foreste_e_boschi": "Maple-lime-ash woods (70%)", "ov_ambiti_di_paesaggio": "Plain landscape area (Ambito Piana) (100%)", "ov_unita_di_paesaggio": "Rural (75%)", "ov_coperturaboscata": "Forest cover (82%)", "ov_morfologie_insediative": "m.i. 10 - rural areas of plain or hill (PPR settlement class 10) (18%)", "buildings_n": 0, "buildings_m2": 0.0, "buildings": null }, "geometry": { "type": "Polygon", "coordinates": [ [ [ 7.29463675, 44.75978406 ], [ 7.29451174, 44.75983794 ], [ 7.29440304, 44.75986871 ], [ 7.29449711, 44.75953163 ], [ 7.29481756, 44.75955631 ], [ 7.29480996, 44.75970555 ], [ 7.29463675, 44.75978406 ] ] ] } },
{ "type": "Feature", "properties": { "parcel_id": "F20-763", "is_target": false, "dist_to_point_m": 40.5, "Foglio": 20, "particella": "763", "area_m2": 2165.2, "area_cadastral_m2": 2177, "FID": 10117, "Id": 0, "Acad_angle": 0, "Gislink": 10118, "Perimeter": 245, "Irr": " ", "ConStr": " ", "DataIn": "20100107", "DataFi": " ", "Sezione": "-", "perimeter_m": 244.9, "dtm_cells_1m": 2168, "elev_min": 397.33, "elev_mean": 402.1, "elev_max": 404.71, "slope_min": 5.25, "slope_mean": 10.78, "slope_max": 19.25, "slope_mean_pct": 19.09, "aspect_mean_deg": 136.59, "south_facing_pct": 55.63, "southness": 0.71, "sun_winter_idx": 1.32, "sun_equinox_idx": 1.12, "aspect_dir": "SE", "ov_destinazioni_urbanistiche": "E - agricultural zone (100%)", "ov_vincolo_idrogeologico": null, "ov_lettera_g_i_territori_coperti_da_foreste_e_boschi": null, "ov_ambiti_di_paesaggio": "Plain landscape area (Ambito Piana) (100%)", "ov_unita_di_paesaggio": "Rural, significant and intact (100%)", "ov_coperturaboscata": null, "ov_morfologie_insediative": "m.i. 10 - rural areas of plain or hill (PPR settlement class 10) (100%)", "buildings_n": 0, "buildings_m2": 0.0, "buildings": null }, "geometry": { "type": "Polygon", "coordinates": [ [ [ 7.29590238, 44.76020724 ], [ 7.29573671, 44.76032161 ], [ 7.29543195, 44.76026586 ], [ 7.29508638, 44.76005607 ], [ 7.29463675, 44.75978406 ], [ 7.29480996, 44.75970555 ], [ 7.29493317, 44.75975962 ], [ 7.29528284, 44.75992226 ], [ 7.29559077, 44.76006226 ], [ 7.29590238, 44.76020724 ] ] ] } },
{ "type": "Feature", "properties": { "parcel_id": "F20-458", "is_target": false, "dist_to_point_m": 40.9, "Foglio": 20, "particella": "458", "area_m2": 2080.3, "area_cadastral_m2": 2084, "FID": 9885, "Id": 0, "Acad_angle": 0, "Gislink": 9886, "Perimeter": 210, "Irr": " ", "ConStr": " ", "DataIn": "20100107", "DataFi": " ", "Sezione": "-", "perimeter_m": 209.2, "dtm_cells_1m": 2079, "elev_min": 412.94, "elev_mean": 419.45, "elev_max": 426.5, "slope_min": 3.59, "slope_mean": 20.12, "slope_max": 29.88, "slope_mean_pct": 36.96, "aspect_mean_deg": 215.98, "south_facing_pct": 74.27, "southness": 0.78, "sun_winter_idx": 1.6, "sun_equinox_idx": 1.2, "aspect_dir": "SW", "ov_destinazioni_urbanistiche": "E - agricultural zone (100%)", "ov_vincolo_idrogeologico": null, "ov_lettera_g_i_territori_coperti_da_foreste_e_boschi": "Chestnut woods (51%)", "ov_ambiti_di_paesaggio": "Plain landscape area (Ambito Piana) (100%)", "ov_unita_di_paesaggio": "Rural (100%)", "ov_coperturaboscata": "Forest cover (51%)", "ov_morfologie_insediative": "m.i. 10 - rural areas of plain or hill (PPR settlement class 10) (49%)", "buildings_n": 0, "buildings_m2": 0.0, "buildings": null }, "geometry": { "type": "Polygon", "coordinates": [ [ [ 7.29397341, 44.76032093 ], [ 7.29378433, 44.76049745 ], [ 7.29354059, 44.76072583 ], [ 7.29345682, 44.76075153 ], [ 7.29336311, 44.7607801 ], [ 7.29315862, 44.76084325 ], [ 7.29309005, 44.76080765 ], [ 7.29296764, 44.76074545 ], [ 7.29326754, 44.76050082 ], [ 7.29348033, 44.76032828 ], [ 7.29365597, 44.76035024 ], [ 7.29397341, 44.76032093 ] ] ] } },
{ "type": "Feature", "properties": { "parcel_id": "F30-413", "is_target": false, "dist_to_point_m": 51.6, "Foglio": 30, "particella": "413", "area_m2": 1534.3, "area_cadastral_m2": 1535, "FID": 15681, "Id": 0, "Acad_angle": 0, "Gislink": 15682, "Perimeter": 163, "Irr": " ", "ConStr": " ", "DataIn": "20100107", "DataFi": " ", "Sezione": "-", "perimeter_m": 162.4, "dtm_cells_1m": 1533, "elev_min": 412.59, "elev_mean": 424.16, "elev_max": 433.77, "slope_min": 17.94, "slope_mean": 25.31, "slope_max": 38.11, "slope_mean_pct": 47.58, "aspect_mean_deg": 116.5, "south_facing_pct": 43.31, "southness": 0.38, "sun_winter_idx": 1.24, "sun_equinox_idx": 1.04, "aspect_dir": "SE", "ov_destinazioni_urbanistiche": "E - agricultural zone (100%)", "ov_vincolo_idrogeologico": "Hydrogeological restriction (100%)", "ov_lettera_g_i_territori_coperti_da_foreste_e_boschi": "Chestnut woods (100%)", "ov_ambiti_di_paesaggio": "Plain landscape area (Ambito Piana) (100%)", "ov_unita_di_paesaggio": "Rural (100%)", "ov_coperturaboscata": "Forest cover (100%)", "ov_morfologie_insediative": null, "buildings_n": 0, "buildings_m2": 0.0, "buildings": null }, "geometry": { "type": "Polygon", "coordinates": [ [ [ 7.29393187, 44.75969717 ], [ 7.29390395, 44.75977629 ], [ 7.29386289, 44.75987223 ], [ 7.29376871, 44.75999973 ], [ 7.29341233, 44.75986244 ], [ 7.29317596, 44.75977253 ], [ 7.29322892, 44.7596991 ], [ 7.29330971, 44.75959488 ], [ 7.29393187, 44.75969717 ] ] ] } },
{ "type": "Feature", "properties": { "parcel_id": "F20-1069", "is_target": false, "dist_to_point_m": 52.7, "Foglio": 20, "particella": "1069", "area_m2": 9716.8, "area_cadastral_m2": 0, "FID": 26965, "Id": 0, "Acad_angle": 0, "Gislink": 26966, "Perimeter": 0, "Irr": " ", "ConStr": " ", "DataIn": "20130628", "DataFi": " ", "Sezione": "-", "perimeter_m": 642.7, "dtm_cells_1m": 9727, "elev_min": 421.89, "elev_mean": 440.95, "elev_max": 451.77, "slope_min": 3.88, "slope_mean": 15.64, "slope_max": 32.87, "slope_mean_pct": 28.33, "aspect_mean_deg": 168.36, "south_facing_pct": 75.61, "southness": 0.68, "sun_winter_idx": 1.43, "sun_equinox_idx": 1.14, "aspect_dir": "S", "ov_destinazioni_urbanistiche": "E - agricultural zone (100%)", "ov_vincolo_idrogeologico": null, "ov_lettera_g_i_territori_coperti_da_foreste_e_boschi": "Chestnut woods (17%)", "ov_ambiti_di_paesaggio": "Plain landscape area (Ambito Piana) (100%)", "ov_unita_di_paesaggio": "Rural (52%)", "ov_coperturaboscata": "Forest cover (17%)", "ov_morfologie_insediative": "m.i. 10 - rural areas of plain or hill (PPR settlement class 10) (83%)", "buildings_n": 0, "buildings_m2": 0.0, "buildings": null }, "geometry": { "type": "Polygon", "coordinates": [ [ [ 7.294557, 44.76183205 ], [ 7.29442505, 44.76182522 ], [ 7.29448042, 44.76141561 ], [ 7.29424735, 44.76140585 ], [ 7.29409143, 44.76141793 ], [ 7.29392323, 44.761438 ], [ 7.29380156, 44.76146385 ], [ 7.29362992, 44.76110975 ], [ 7.29345682, 44.76075153 ], [ 7.29354059, 44.76072583 ], [ 7.29369343, 44.76067888 ], [ 7.29392319, 44.76070102 ], [ 7.29413172, 44.76056806 ], [ 7.29435266, 44.76060217 ], [ 7.29414337, 44.76092098 ], [ 7.29455183, 44.76095343 ], [ 7.29505903, 44.76099283 ], [ 7.2951739, 44.76075859 ], [ 7.29521394, 44.76077083 ], [ 7.29511188, 44.76094926 ], [ 7.29514917, 44.76114185 ], [ 7.29518067, 44.76132259 ], [ 7.29503117, 44.76130463 ], [ 7.29502436, 44.76130381 ], [ 7.29489809, 44.76128864 ], [ 7.29482248, 44.7616204 ], [ 7.29526699, 44.76171285 ], [ 7.29521109, 44.76183927 ], [ 7.29500944, 44.76182591 ], [ 7.29488204, 44.76182217 ], [ 7.294557, 44.76183205 ] ] ] } },
{ "type": "Feature", "properties": { "parcel_id": "F30-267", "is_target": false, "dist_to_point_m": 52.8, "Foglio": 30, "particella": "267", "area_m2": 416.3, "area_cadastral_m2": 416, "FID": 15813, "Id": 0, "Acad_angle": 0, "Gislink": 15814, "Perimeter": 121, "Irr": " ", "ConStr": " ", "DataIn": "20100107", "DataFi": " ", "Sezione": "-", "perimeter_m": 120.8, "dtm_cells_1m": 417, "elev_min": 412.89, "elev_mean": 428.66, "elev_max": 436.71, "slope_min": 11.93, "slope_mean": 26.08, "slope_max": 39.44, "slope_mean_pct": 50.48, "aspect_mean_deg": 86.23, "south_facing_pct": 17.27, "southness": -0.05, "sun_winter_idx": 0.7, "sun_equinox_idx": 0.8, "aspect_dir": "E", "ov_destinazioni_urbanistiche": "E - agricultural zone (100%)", "ov_vincolo_idrogeologico": "Hydrogeological restriction (100%)", "ov_lettera_g_i_territori_coperti_da_foreste_e_boschi": "Chestnut woods (100%)", "ov_ambiti_di_paesaggio": "Plain landscape area (Ambito Piana) (100%)", "ov_unita_di_paesaggio": "Rural (100%)", "ov_coperturaboscata": "Forest cover (100%)", "ov_morfologie_insediative": null, "buildings_n": 0, "buildings_m2": 0.0, "buildings": null }, "geometry": { "type": "Polygon", "coordinates": [ [ [ 7.29376871, 44.75999973 ], [ 7.29372707, 44.76005621 ], [ 7.29335835, 44.7599287 ], [ 7.2931345, 44.75983014 ], [ 7.29317596, 44.75977253 ], [ 7.29341233, 44.75986244 ], [ 7.29376871, 44.75999973 ] ] ] } },
{ "type": "Feature", "properties": { "parcel_id": "F20-300", "is_target": false, "dist_to_point_m": 53.1, "Foglio": 20, "particella": "300", "area_m2": 2348.9, "area_cadastral_m2": 2359, "FID": 9757, "Id": 0, "Acad_angle": 0, "Gislink": 9758, "Perimeter": 208, "Irr": " ", "ConStr": " ", "DataIn": "20100107", "DataFi": " ", "Sezione": "-", "perimeter_m": 207.1, "dtm_cells_1m": 2348, "elev_min": 422.39, "elev_mean": 429.8, "elev_max": 438.52, "slope_min": 16.16, "slope_mean": 20.51, "slope_max": 26.29, "slope_mean_pct": 37.49, "aspect_mean_deg": 172.34, "south_facing_pct": 100.0, "southness": 0.95, "sun_winter_idx": 1.77, "sun_equinox_idx": 1.27, "aspect_dir": "S", "ov_destinazioni_urbanistiche": "E - agricultural zone (100%)", "ov_vincolo_idrogeologico": null, "ov_lettera_g_i_territori_coperti_da_foreste_e_boschi": null, "ov_ambiti_di_paesaggio": "Plain landscape area (Ambito Piana) (100%)", "ov_unita_di_paesaggio": "Rural, significant and intact (79%)", "ov_coperturaboscata": null, "ov_morfologie_insediative": "m.i. 10 - rural areas of plain or hill (PPR settlement class 10) (100%)", "buildings_n": 0, "buildings_m2": 0.0, "buildings": null }, "geometry": { "type": "Polygon", "coordinates": [ [ [ 7.2951739, 44.76075859 ], [ 7.29505903, 44.76099283 ], [ 7.29455183, 44.76095343 ], [ 7.29414337, 44.76092098 ], [ 7.29435266, 44.76060217 ], [ 7.29460231, 44.76064087 ], [ 7.29501139, 44.76070903 ], [ 7.2951739, 44.76075859 ] ] ] } },
{ "type": "Feature", "properties": { "parcel_id": "F30-222", "is_target": false, "dist_to_point_m": 54.8, "Foglio": 30, "particella": "222", "area_m2": 787.7, "area_cadastral_m2": 793, "FID": 15851, "Id": 0, "Acad_angle": 0, "Gislink": 15852, "Perimeter": 147, "Irr": " ", "ConStr": " ", "DataIn": "20100107", "DataFi": " ", "Sezione": "-", "perimeter_m": 146.7, "dtm_cells_1m": 788, "elev_min": 413.24, "elev_mean": 427.68, "elev_max": 441.25, "slope_min": 11.76, "slope_mean": 28.32, "slope_max": 38.96, "slope_mean_pct": 55.4, "aspect_mean_deg": 56.6, "south_facing_pct": 0.38, "southness": -0.5, "sun_winter_idx": 0.32, "sun_equinox_idx": 0.6, "aspect_dir": "NE", "ov_destinazioni_urbanistiche": "E - agricultural zone (100%)", "ov_vincolo_idrogeologico": "Hydrogeological restriction (100%)", "ov_lettera_g_i_territori_coperti_da_foreste_e_boschi": "Chestnut woods (100%)", "ov_ambiti_di_paesaggio": "Plain landscape area (Ambito Piana) (100%)", "ov_unita_di_paesaggio": "Rural (100%)", "ov_coperturaboscata": "Forest cover (100%)", "ov_morfologie_insediative": null, "buildings_n": 0, "buildings_m2": 0.0, "buildings": null }, "geometry": { "type": "Polygon", "coordinates": [ [ [ 7.29301143, 44.75999272 ], [ 7.2930899, 44.75989018 ], [ 7.2931345, 44.75983014 ], [ 7.29335835, 44.7599287 ], [ 7.29372707, 44.76005621 ], [ 7.29370753, 44.76007623 ], [ 7.29357328, 44.76015493 ], [ 7.29352349, 44.76017579 ], [ 7.29348672, 44.76018715 ], [ 7.29336572, 44.76008866 ], [ 7.29321215, 44.75996883 ], [ 7.29301143, 44.75999272 ] ] ] } },
{ "type": "Feature", "properties": { "parcel_id": "F20-462", "is_target": false, "dist_to_point_m": 56.3, "Foglio": 20, "particella": "462", "area_m2": 5894.6, "area_cadastral_m2": 5879, "FID": 9889, "Id": 0, "Acad_angle": 0, "Gislink": 9890, "Perimeter": 420, "Irr": " ", "ConStr": " ", "DataIn": "20100107", "DataFi": " ", "Sezione": "-", "perimeter_m": 420.4, "dtm_cells_1m": 5915, "elev_min": 392.34, "elev_mean": 398.31, "elev_max": 402.78, "slope_min": 1.03, "slope_mean": 6.59, "slope_max": 25.36, "slope_mean_pct": 11.6, "aspect_mean_deg": 118.19, "south_facing_pct": 11.58, "southness": 0.38, "sun_winter_idx": 1.08, "sun_equinox_idx": 1.03, "aspect_dir": "SE", "ov_destinazioni_urbanistiche": "E - agricultural zone (100%)", "ov_vincolo_idrogeologico": null, "ov_lettera_g_i_territori_coperti_da_foreste_e_boschi": "Maple-lime-ash woods (46%)", "ov_ambiti_di_paesaggio": "Plain landscape area (Ambito Piana) (100%)", "ov_unita_di_paesaggio": "Rural, significant and intact (80%)", "ov_coperturaboscata": "Forest cover (45%)", "ov_morfologie_insediative": "m.i. 10 - rural areas of plain or hill (PPR settlement class 10) (55%)", "buildings_n": 0, "buildings_m2": 0.0, "buildings": null }, "geometry": { "type": "Polygon", "coordinates": [ [ [ 7.29539236, 44.75904042 ], [ 7.29537129, 44.75923744 ], [ 7.29531395, 44.75970379 ], [ 7.29574442, 44.75983983 ], [ 7.29607057, 44.76009356 ], [ 7.29590238, 44.76020724 ], [ 7.29559077, 44.76006226 ], [ 7.29528284, 44.75992226 ], [ 7.29493317, 44.75975962 ], [ 7.29480996, 44.75970555 ], [ 7.29481756, 44.75955631 ], [ 7.29482208, 44.75939053 ], [ 7.29483185, 44.7591114 ], [ 7.29481719, 44.75907412 ], [ 7.29486276, 44.75898147 ], [ 7.29482671, 44.75887331 ], [ 7.2948975, 44.75887297 ], [ 7.2951625, 44.75883641 ], [ 7.29527384, 44.75892402 ], [ 7.29534771, 44.75899938 ], [ 7.29539236, 44.75904042 ] ] ] } },
{ "type": "Feature", "properties": { "parcel_id": "F30-398", "is_target": false, "dist_to_point_m": 60.9, "Foglio": 30, "particella": "398", "area_m2": 70.5, "area_cadastral_m2": 71, "FID": 15695, "Id": 0, "Acad_angle": 0, "Gislink": 15696, "Perimeter": 104, "Irr": " ", "ConStr": " ", "DataIn": "20100107", "DataFi": " ", "Sezione": "-", "perimeter_m": 103.6, "dtm_cells_1m": 71, "elev_min": 415.59, "elev_mean": 421.73, "elev_max": 424.32, "slope_min": 18.5, "slope_mean": 20.89, "slope_max": 25.53, "slope_mean_pct": 38.2, "aspect_mean_deg": 141.02, "south_facing_pct": 71.83, "southness": 0.77, "sun_winter_idx": 1.61, "sun_equinox_idx": 1.2, "aspect_dir": "SE", "ov_destinazioni_urbanistiche": "E - agricultural zone (100%)", "ov_vincolo_idrogeologico": "Hydrogeological restriction (100%)", "ov_lettera_g_i_territori_coperti_da_foreste_e_boschi": "Chestnut woods (100%)", "ov_ambiti_di_paesaggio": "Plain landscape area (Ambito Piana) (100%)", "ov_unita_di_paesaggio": "Rural (100%)", "ov_coperturaboscata": "Forest cover (100%)", "ov_morfologie_insediative": null, "buildings_n": 0, "buildings_m2": 0.0, "buildings": null }, "geometry": { "type": "Polygon", "coordinates": [ [ [ 7.29393187, 44.75969717 ], [ 7.29330971, 44.75959488 ], [ 7.29332472, 44.75957053 ], [ 7.29361758, 44.75963269 ], [ 7.29393187, 44.75969717 ] ] ] } },
{ "type": "Feature", "properties": { "parcel_id": "F30-217", "is_target": false, "dist_to_point_m": 60.9, "Foglio": 30, "particella": "217", "area_m2": 871.7, "area_cadastral_m2": 876, "FID": 15854, "Id": 0, "Acad_angle": 0, "Gislink": 15855, "Perimeter": 138, "Irr": " ", "ConStr": " ", "DataIn": "20100107", "DataFi": " ", "Sezione": "-", "perimeter_m": 137.7, "dtm_cells_1m": 871, "elev_min": 411.78, "elev_mean": 416.88, "elev_max": 423.38, "slope_min": 17.96, "slope_mean": 21.28, "slope_max": 27.41, "slope_mean_pct": 38.99, "aspect_mean_deg": 139.83, "south_facing_pct": 68.31, "southness": 0.75, "sun_winter_idx": 1.6, "sun_equinox_idx": 1.2, "aspect_dir": "SE", "ov_destinazioni_urbanistiche": "E - agricultural zone (100%)", "ov_vincolo_idrogeologico": "Hydrogeological restriction (100%)", "ov_lettera_g_i_territori_coperti_da_foreste_e_boschi": "Chestnut woods (100%)", "ov_ambiti_di_paesaggio": "Plain landscape area (Ambito Piana) (100%)", "ov_unita_di_paesaggio": "Rural (100%)", "ov_coperturaboscata": "Forest cover (100%)", "ov_morfologie_insediative": null, "buildings_n": 0, "buildings_m2": 0.0, "buildings": null }, "geometry": { "type": "Polygon", "coordinates": [ [ [ 7.29393187, 44.75969717 ], [ 7.29361758, 44.75963269 ], [ 7.29332472, 44.75957053 ], [ 7.29336633, 44.75950525 ], [ 7.29347886, 44.7593236 ], [ 7.29370292, 44.75947846 ], [ 7.29393926, 44.75964239 ], [ 7.29394992, 44.75964696 ], [ 7.29393187, 44.75969717 ] ] ] } },
{ "type": "Feature", "properties": { "parcel_id": "F30-223", "is_target": false, "dist_to_point_m": 64.6, "Foglio": 30, "particella": "223", "area_m2": 1380.2, "area_cadastral_m2": 1397, "FID": 15850, "Id": 0, "Acad_angle": 0, "Gislink": 15851, "Perimeter": 168, "Irr": " ", "ConStr": " ", "DataIn": "20100107", "DataFi": " ", "Sezione": "-", "perimeter_m": 167.0, "dtm_cells_1m": 1381, "elev_min": 405.3, "elev_mean": 409.48, "elev_max": 414.01, "slope_min": 10.85, "slope_mean": 17.02, "slope_max": 23.44, "slope_mean_pct": 30.66, "aspect_mean_deg": 137.28, "south_facing_pct": 67.49, "southness": 0.71, "sun_winter_idx": 1.48, "sun_equinox_idx": 1.16, "aspect_dir": "SE", "ov_destinazioni_urbanistiche": "E - agricultural zone (100%)", "ov_vincolo_idrogeologico": "Hydrogeological restriction (100%)", "ov_lettera_g_i_territori_coperti_da_foreste_e_boschi": "Chestnut woods (100%)", "ov_ambiti_di_paesaggio": "Plain landscape area (Ambito Piana) (100%)", "ov_unita_di_paesaggio": "Rural (100%)", "ov_coperturaboscata": "Forest cover (100%)", "ov_morfologie_insediative": null, "buildings_n": 0, "buildings_m2": 0.0, "buildings": null }, "geometry": { "type": "Polygon", "coordinates": [ [ [ 7.29394992, 44.75964696 ], [ 7.29393926, 44.75964239 ], [ 7.29370292, 44.75947846 ], [ 7.29347886, 44.7593236 ], [ 7.29341931, 44.75928337 ], [ 7.2935938, 44.75911888 ], [ 7.29376672, 44.75923769 ], [ 7.29400564, 44.75939696 ], [ 7.29416583, 44.75947948 ], [ 7.29394992, 44.75964696 ] ] ] } },
{ "type": "Feature", "properties": { "parcel_id": "F30-289", "is_target": false, "dist_to_point_m": 66.4, "Foglio": 30, "particella": "289", "area_m2": 1450.8, "area_cadastral_m2": 1456, "FID": 15772, "Id": 0, "Acad_angle": 0, "Gislink": 15773, "Perimeter": 190, "Irr": " ", "ConStr": " ", "DataIn": "20100107", "DataFi": " ", "Sezione": "-", "perimeter_m": 189.6, "dtm_cells_1m": 1439, "elev_min": 397.38, "elev_mean": 399.57, "elev_max": 402.06, "slope_min": 0.67, "slope_mean": 3.96, "slope_max": 7.73, "slope_mean_pct": 6.94, "aspect_mean_deg": 147.06, "south_facing_pct": 70.81, "southness": 0.7, "sun_winter_idx": 1.14, "sun_equinox_idx": 1.05, "aspect_dir": "SE", "ov_destinazioni_urbanistiche": "E - agricultural zone (100%)", "ov_vincolo_idrogeologico": "Hydrogeological restriction (100%)", "ov_lettera_g_i_territori_coperti_da_foreste_e_boschi": "Maple-lime-ash woods (100%)", "ov_ambiti_di_paesaggio": "Plain landscape area (Ambito Piana) (100%)", "ov_unita_di_paesaggio": "Rural (99%)", "ov_coperturaboscata": "Forest cover (99%)", "ov_morfologie_insediative": "m.i. 10 - rural areas of plain or hill (PPR settlement class 10) (1%)", "buildings_n": 0, "buildings_m2": 0.0, "buildings": null }, "geometry": { "type": "Polygon", "coordinates": [ [ [ 7.29481756, 44.75955631 ], [ 7.29449711, 44.75953163 ], [ 7.29456949, 44.75925298 ], [ 7.2946585, 44.75894437 ], [ 7.29468355, 44.75886421 ], [ 7.29477366, 44.75887674 ], [ 7.29482671, 44.75887331 ], [ 7.29486276, 44.75898147 ], [ 7.29481719, 44.75907412 ], [ 7.29483185, 44.7591114 ], [ 7.29482208, 44.75939053 ], [ 7.29481756, 44.75955631 ] ] ] } },
{ "type": "Feature", "properties": { "parcel_id": "F20-310", "is_target": false, "dist_to_point_m": 73.6, "Foglio": 20, "particella": "310", "area_m2": 916.2, "area_cadastral_m2": 920, "FID": 9766, "Id": 0, "Acad_angle": 0, "Gislink": 9767, "Perimeter": 121, "Irr": " ", "ConStr": " ", "DataIn": "20100107", "DataFi": " ", "Sezione": "-", "perimeter_m": 120.8, "dtm_cells_1m": 911, "elev_min": 413.98, "elev_mean": 429.2, "elev_max": 441.89, "slope_min": 19.77, "slope_mean": 35.12, "slope_max": 45.24, "slope_mean_pct": 71.56, "aspect_mean_deg": 41.87, "south_facing_pct": 0.0, "southness": -0.73, "sun_winter_idx": 0.08, "sun_equinox_idx": 0.39, "aspect_dir": "NE", "ov_destinazioni_urbanistiche": "E - agricultural zone (100%)", "ov_vincolo_idrogeologico": null, "ov_lettera_g_i_territori_coperti_da_foreste_e_boschi": "Chestnut woods (100%)", "ov_ambiti_di_paesaggio": "Plain landscape area (Ambito Piana) (100%)", "ov_unita_di_paesaggio": "Rural (100%)", "ov_coperturaboscata": "Forest cover (100%)", "ov_morfologie_insediative": null, "buildings_n": 0, "buildings_m2": 0.0, "buildings": null }, "geometry": { "type": "Polygon", "coordinates": [ [ [ 7.29348672, 44.76018715 ], [ 7.29324851, 44.76027559 ], [ 7.29317071, 44.76024457 ], [ 7.29288828, 44.76012524 ], [ 7.2929615, 44.76002853 ], [ 7.29301143, 44.75999272 ], [ 7.29321215, 44.75996883 ], [ 7.29336572, 44.76008866 ], [ 7.29348672, 44.76018715 ] ] ] } },
{ "type": "Feature", "properties": { "parcel_id": "F30-224", "is_target": false, "dist_to_point_m": 74.4, "Foglio": 30, "particella": "224", "area_m2": 2711.7, "area_cadastral_m2": 2744, "FID": 15849, "Id": 0, "Acad_angle": 0, "Gislink": 15850, "Perimeter": 224, "Irr": " ", "ConStr": " ", "DataIn": "20100107", "DataFi": " ", "Sezione": "-", "perimeter_m": 223.4, "dtm_cells_1m": 2715, "elev_min": 398.04, "elev_mean": 401.73, "elev_max": 407.34, "slope_min": 1.81, "slope_mean": 8.75, "slope_max": 18.78, "slope_mean_pct": 15.47, "aspect_mean_deg": 142.77, "south_facing_pct": 74.7, "southness": 0.75, "sun_winter_idx": 1.28, "sun_equinox_idx": 1.1, "aspect_dir": "SE", "ov_destinazioni_urbanistiche": "E - agricultural zone (100%)", "ov_vincolo_idrogeologico": "Hydrogeological restriction (100%)", "ov_lettera_g_i_territori_coperti_da_foreste_e_boschi": "Chestnut woods (57%)", "ov_ambiti_di_paesaggio": "Plain landscape area (Ambito Piana) (100%)", "ov_unita_di_paesaggio": "Rural (100%)", "ov_coperturaboscata": "Forest cover (57%)", "ov_morfologie_insediative": "m.i. 10 - rural areas of plain or hill (PPR settlement class 10) (43%)", "buildings_n": 0, "buildings_m2": 0.0, "buildings": null }, "geometry": { "type": "Polygon", "coordinates": [ [ [ 7.29453908, 44.75884512 ], [ 7.29453171, 44.75886975 ], [ 7.29441942, 44.75906944 ], [ 7.29427858, 44.75931514 ], [ 7.29420443, 44.75945132 ], [ 7.29416583, 44.75947948 ], [ 7.29400564, 44.75939696 ], [ 7.29376672, 44.75923769 ], [ 7.2935938, 44.75911888 ], [ 7.29381184, 44.75893192 ], [ 7.29381665, 44.7589325 ], [ 7.29395297, 44.75892675 ], [ 7.29429074, 44.75891138 ], [ 7.29445094, 44.75886526 ], [ 7.29453299, 44.75884438 ], [ 7.29453908, 44.75884512 ] ] ] } },
{ "type": "Feature", "properties": { "parcel_id": "F20-459", "is_target": false, "dist_to_point_m": 77.1, "Foglio": 20, "particella": "459", "area_m2": 7245.4, "area_cadastral_m2": 7157, "FID": 9886, "Id": 0, "Acad_angle": 0, "Gislink": 9887, "Perimeter": 490, "Irr": " ", "ConStr": " ", "DataIn": "20100107", "DataFi": " ", "Sezione": "-", "perimeter_m": 492.1, "dtm_cells_1m": 7240, "elev_min": 411.92, "elev_mean": 433.6, "elev_max": 459.85, "slope_min": 2.92, "slope_mean": 20.66, "slope_max": 36.93, "slope_mean_pct": 38.25, "aspect_mean_deg": 85.88, "south_facing_pct": 5.06, "southness": -0.06, "sun_winter_idx": 0.84, "sun_equinox_idx": 0.89, "aspect_dir": "E", "ov_destinazioni_urbanistiche": "E - agricultural zone (100%)", "ov_vincolo_idrogeologico": null, "ov_lettera_g_i_territori_coperti_da_foreste_e_boschi": "Chestnut woods (100%)", "ov_ambiti_di_paesaggio": "Plain landscape area (Ambito Piana) (100%)", "ov_unita_di_paesaggio": "Rural (100%)", "ov_coperturaboscata": "Forest cover (100%)", "ov_morfologie_insediative": null, "buildings_n": 0, "buildings_m2": 0.0, "buildings": null }, "geometry": { "type": "Polygon", "coordinates": [ [ [ 7.29272491, 44.76093693 ], [ 7.29262785, 44.76114381 ], [ 7.29247879, 44.76112008 ], [ 7.29245254, 44.76116042 ], [ 7.29236484, 44.76125775 ], [ 7.29229536, 44.76125547 ], [ 7.29221875, 44.76129023 ], [ 7.29207963, 44.76144438 ], [ 7.29192281, 44.76151223 ], [ 7.29188489, 44.76152238 ], [ 7.29192004, 44.76142694 ], [ 7.29190696, 44.76141875 ], [ 7.29171712, 44.76129977 ], [ 7.29147877, 44.7611534 ], [ 7.2914982, 44.76110148 ], [ 7.29144939, 44.76089755 ], [ 7.29140391, 44.76071878 ], [ 7.29189161, 44.76078439 ], [ 7.29232115, 44.76084917 ], [ 7.29266311, 44.76063647 ], [ 7.29285361, 44.76051217 ], [ 7.29315397, 44.76033005 ], [ 7.29324851, 44.76027559 ], [ 7.29346558, 44.76032644 ], [ 7.29348033, 44.76032828 ], [ 7.29326754, 44.76050082 ], [ 7.29296764, 44.76074545 ], [ 7.29284422, 44.76084045 ], [ 7.29272491, 44.76093693 ] ] ] } },
{ "type": "Feature", "properties": { "parcel_id": "F20-475", "is_target": false, "dist_to_point_m": 80.3, "Foglio": 20, "particella": "475", "area_m2": 1318.4, "area_cadastral_m2": 1329, "FID": 9902, "Id": 0, "Acad_angle": 0, "Gislink": 9903, "Perimeter": 200, "Irr": " ", "ConStr": " ", "DataIn": "20100107", "DataFi": " ", "Sezione": "-", "perimeter_m": 199.3, "dtm_cells_1m": 1317, "elev_min": 408.56, "elev_mean": 424.62, "elev_max": 435.75, "slope_min": 15.55, "slope_mean": 18.22, "slope_max": 23.06, "slope_mean_pct": 32.93, "aspect_mean_deg": 164.35, "south_facing_pct": 100.0, "southness": 0.93, "sun_winter_idx": 1.68, "sun_equinox_idx": 1.24, "aspect_dir": "S", "ov_destinazioni_urbanistiche": "E - agricultural zone (100%)", "ov_vincolo_idrogeologico": null, "ov_lettera_g_i_territori_coperti_da_foreste_e_boschi": null, "ov_ambiti_di_paesaggio": "Plain landscape area (Ambito Piana) (100%)", "ov_unita_di_paesaggio": "Rural, significant and intact (100%)", "ov_coperturaboscata": null, "ov_morfologie_insediative": "m.i. 10 - rural areas of plain or hill (PPR settlement class 10) (100%)", "buildings_n": 0, "buildings_m2": 0.0, "buildings": null }, "geometry": { "type": "Polygon", "coordinates": [ [ [ 7.29542241, 44.76039203 ], [ 7.29541952, 44.76044872 ], [ 7.29539125, 44.76097447 ], [ 7.29541884, 44.7611277 ], [ 7.29514917, 44.76114185 ], [ 7.29511188, 44.76094926 ], [ 7.29521394, 44.76077083 ], [ 7.2951739, 44.76075859 ], [ 7.29536035, 44.7603814 ], [ 7.29542241, 44.76039203 ] ] ] } },
{ "type": "Feature", "properties": { "parcel_id": "F20-456", "is_target": false, "dist_to_point_m": 85.3, "Foglio": 20, "particella": "456", "area_m2": 2031.8, "area_cadastral_m2": 2033, "FID": 9883, "Id": 0, "Acad_angle": 0, "Gislink": 9884, "Perimeter": 216, "Irr": " ", "ConStr": " ", "DataIn": "20100107", "DataFi": " ", "Sezione": "-", "perimeter_m": 215.4, "dtm_cells_1m": 2029, "elev_min": 389.82, "elev_mean": 400.17, "elev_max": 410.88, "slope_min": 3.35, "slope_mean": 19.44, "slope_max": 24.68, "slope_mean_pct": 35.5, "aspect_mean_deg": 139.01, "south_facing_pct": 62.25, "southness": 0.7, "sun_winter_idx": 1.55, "sun_equinox_idx": 1.18, "aspect_dir": "SE", "ov_destinazioni_urbanistiche": "E - agricultural zone (100%)", "ov_vincolo_idrogeologico": null, "ov_lettera_g_i_territori_coperti_da_foreste_e_boschi": "Maple-lime-ash woods (18%)", "ov_ambiti_di_paesaggio": "Plain landscape area (Ambito Piana) (100%)", "ov_unita_di_paesaggio": "Rural, significant and intact (100%)", "ov_coperturaboscata": "Forest cover (18%)", "ov_morfologie_insediative": "m.i. 10 - rural areas of plain or hill (PPR settlement class 10) (82%)", "buildings_n": 0, "buildings_m2": 0.0, "buildings": null }, "geometry": { "type": "Polygon", "coordinates": [ [ [ 7.29634805, 44.76025155 ], [ 7.29608901, 44.76054437 ], [ 7.29602071, 44.76062324 ], [ 7.29541952, 44.76044872 ], [ 7.29542241, 44.76039203 ], [ 7.29571208, 44.76042935 ], [ 7.29573671, 44.76032161 ], [ 7.29590238, 44.76020724 ], [ 7.29607057, 44.76009356 ], [ 7.29614814, 44.76004053 ], [ 7.29615802, 44.76006353 ], [ 7.29634805, 44.76025155 ] ] ] } },
{ "type": "Feature", "properties": { "parcel_id": "F20-313", "is_target": false, "dist_to_point_m": 85.4, "Foglio": 20, "particella": "313", "area_m2": 3500.4, "area_cadastral_m2": 3485, "FID": 9769, "Id": 0, "Acad_angle": 0, "Gislink": 9770, "Perimeter": 289, "Irr": " ", "ConStr": " ", "DataIn": "20100107", "DataFi": " ", "Sezione": "-", "perimeter_m": 288.5, "dtm_cells_1m": 3503, "elev_min": 391.13, "elev_mean": 396.17, "elev_max": 399.31, "slope_min": 0.76, "slope_mean": 7.01, "slope_max": 26.55, "slope_mean_pct": 12.37, "aspect_mean_deg": 107.17, "south_facing_pct": 24.81, "southness": 0.17, "sun_winter_idx": 1.01, "sun_equinox_idx": 1.0, "aspect_dir": "E", "ov_destinazioni_urbanistiche": "E - agricultural zone (100%)", "ov_vincolo_idrogeologico": null, "ov_lettera_g_i_territori_coperti_da_foreste_e_boschi": "Maple-lime-ash woods (88%)", "ov_ambiti_di_paesaggio": "Plain landscape area (Ambito Piana) (100%)", "ov_unita_di_paesaggio": "Rural, significant and intact (100%)", "ov_coperturaboscata": "Forest cover (88%)", "ov_morfologie_insediative": "m.i. 10 - rural areas of plain or hill (PPR settlement class 10) (12%)", "buildings_n": 0, "buildings_m2": 0.0, "buildings": null }, "geometry": { "type": "Polygon", "coordinates": [ [ [ 7.29614814, 44.76004053 ], [ 7.29607057, 44.76009356 ], [ 7.29574442, 44.75983983 ], [ 7.29531395, 44.75970379 ], [ 7.29537129, 44.75923744 ], [ 7.29539236, 44.75904042 ], [ 7.2954344, 44.75907906 ], [ 7.29552515, 44.75913714 ], [ 7.29571244, 44.75931491 ], [ 7.29593113, 44.75944961 ], [ 7.29602271, 44.75971098 ], [ 7.29608575, 44.75989527 ], [ 7.29614814, 44.76004053 ] ] ] } },
{ "type": "Feature", "properties": { "parcel_id": "F20-297", "is_target": false, "dist_to_point_m": 87.4, "Foglio": 20, "particella": "297", "area_m2": 12929.1, "area_cadastral_m2": 0, "FID": 26996, "Id": 0, "Acad_angle": 0, "Gislink": 26997, "Perimeter": 0, "Irr": " ", "ConStr": " ", "DataIn": "20130628", "DataFi": " ", "Sezione": "-", "perimeter_m": 549.8, "dtm_cells_1m": 12941, "elev_min": 403.72, "elev_mean": 426.36, "elev_max": 444.69, "slope_min": 1.2, "slope_mean": 18.48, "slope_max": 28.88, "slope_mean_pct": 33.67, "aspect_mean_deg": 142.81, "south_facing_pct": 80.12, "southness": 0.65, "sun_winter_idx": 1.52, "sun_equinox_idx": 1.17, "aspect_dir": "SE", "ov_destinazioni_urbanistiche": "E - agricultural zone (97%)", "ov_vincolo_idrogeologico": null, "ov_lettera_g_i_territori_coperti_da_foreste_e_boschi": "Chestnut woods (8%)", "ov_ambiti_di_paesaggio": "Plain landscape area (Ambito Piana) (100%)", "ov_unita_di_paesaggio": "Rural, significant and intact (100%)", "ov_coperturaboscata": "Forest cover (8%)", "ov_morfologie_insediative": "m.i. 10 - rural areas of plain or hill (PPR settlement class 10) (92%)", "buildings_n": 0, "buildings_m2": 0.0, "buildings": null }, "geometry": { "type": "Polygon", "coordinates": [ [ [ 7.29624856, 44.76181926 ], [ 7.29597256, 44.76183965 ], [ 7.29562349, 44.76185498 ], [ 7.29531015, 44.76184585 ], [ 7.29536361, 44.76173324 ], [ 7.29538534, 44.76168623 ], [ 7.2953941, 44.76166733 ], [ 7.29542519, 44.76159482 ], [ 7.29569415, 44.7616473 ], [ 7.29571846, 44.76159442 ], [ 7.2957588, 44.76160396 ], [ 7.29582133, 44.76146774 ], [ 7.29574307, 44.76143851 ], [ 7.29567486, 44.76141428 ], [ 7.2954803, 44.76135655 ], [ 7.29548266, 44.76132497 ], [ 7.29544413, 44.76132351 ], [ 7.29544737, 44.76128812 ], [ 7.29541884, 44.7611277 ], [ 7.29539125, 44.76097447 ], [ 7.29541952, 44.76044872 ], [ 7.29602071, 44.76062324 ], [ 7.29608901, 44.76054437 ], [ 7.2962843, 44.76062516 ], [ 7.29668675, 44.76078292 ], [ 7.29686724, 44.76089219 ], [ 7.29694012, 44.76099519 ], [ 7.2969286, 44.76101267 ], [ 7.29683869, 44.76114899 ], [ 7.29674052, 44.76128672 ], [ 7.29661351, 44.76146199 ], [ 7.29659305, 44.76145901 ], [ 7.29653896, 44.7615208 ], [ 7.29643682, 44.7616409 ], [ 7.29631026, 44.76161365 ], [ 7.29624856, 44.76181926 ] ] ] } },
{ "type": "Feature", "properties": { "parcel_id": "F20-647", "is_target": false, "dist_to_point_m": 93.6, "Foglio": 20, "particella": "647", "area_m2": 1553.8, "area_cadastral_m2": 1522, "FID": 10043, "Id": 0, "Acad_angle": 0, "Gislink": 10044, "Perimeter": 178, "Irr": " ", "ConStr": " ", "DataIn": "20100107", "DataFi": " ", "Sezione": "-", "perimeter_m": 180.0, "dtm_cells_1m": 1557, "elev_min": 416.87, "elev_mean": 430.96, "elev_max": 444.97, "slope_min": 27.82, "slope_mean": 36.75, "slope_max": 42.45, "slope_mean_pct": 75.17, "aspect_mean_deg": 54.35, "south_facing_pct": 0.0, "southness": -0.57, "sun_winter_idx": 0.06, "sun_equinox_idx": 0.46, "aspect_dir": "NE", "ov_destinazioni_urbanistiche": "E - agricultural zone (100%)", "ov_vincolo_idrogeologico": null, "ov_lettera_g_i_territori_coperti_da_foreste_e_boschi": "Chestnut woods (100%)", "ov_ambiti_di_paesaggio": "Plain landscape area (Ambito Piana) (100%)", "ov_unita_di_paesaggio": "Rural (100%)", "ov_coperturaboscata": "Forest cover (100%)", "ov_morfologie_insediative": null, "buildings_n": 0, "buildings_m2": 0.0, "buildings": null }, "geometry": { "type": "Polygon", "coordinates": [ [ [ 7.29288828, 44.76012524 ], [ 7.29317071, 44.76024457 ], [ 7.29324851, 44.76027559 ], [ 7.29315397, 44.76033005 ], [ 7.29285361, 44.76051217 ], [ 7.29266311, 44.76063647 ], [ 7.29239438, 44.76047518 ], [ 7.29265341, 44.76031893 ], [ 7.29284518, 44.7602439 ], [ 7.29288828, 44.76012524 ] ] ] } }
]
}
