{
  "type": "FeatureCollection",
  "features": [
    {
      "type": "Feature",
      "id": 22695,
      "geometry": {
        "type": "Polygon",
        "coordinates": [
          [
            [
              7.27875313902466,
              44.715244299189
            ],
            [
              7.27872019543355,
              44.7152429022412
            ],
            [
              7.27843283243437,
              44.7152305265286
            ],
            [
              7.27836449153037,
              44.7150476467036
            ],
            [
              7.27849870926605,
              44.7150688629924
            ],
            [
              7.27873553792199,
              44.7151091590799
            ],
            [
              7.27875313902466,
              44.715244299189
            ]
          ]
        ]
      },
      "properties": {
        "FID": 22695,
        "Id": 0,
        "Acad_text": "408",
        "Acad_angle": 0,
        "Gislink": 22696,
        "Area": 472,
        "Perimeter": 92,
        "Foglio": 84,
        "Irr": " ",
        "ConStr": " ",
        "DataIn": "20080124",
        "DataFi": " ",
        "Sezione": "-"
      }
    },
    {
      "type": "Feature",
      "id": 22697,
      "geometry": {
        "type": "Polygon",
        "coordinates": [
          [
            [
              7.27976557928167,
              44.7151765186378
            ],
            [
              7.27969892835589,
              44.7151714667857
            ],
            [
              7.27942509980657,
              44.7152120126368
            ],
            [
              7.27901650788051,
              44.7152470451655
            ],
            [
              7.27883942904736,
              44.7152479582062
            ],
            [
              7.27875313902466,
              44.715244299189
            ],
            [
              7.27873553792199,
              44.7151091590799
            ],
            [
              7.27882211584051,
              44.7151229335498
            ],
            [
              7.27918450030111,
              44.7150920376427
            ],
            [
              7.27961157325016,
              44.7150455093414
            ],
            [
              7.27976557928167,
              44.7151765186378
            ]
          ]
        ]
      },
      "properties": {
        "FID": 22697,
        "Id": 0,
        "Acad_text": "146",
        "Acad_angle": 0,
        "Gislink": 22698,
        "Area": 1116,
        "Perimeter": 180,
        "Foglio": 84,
        "Irr": " ",
        "ConStr": " ",
        "DataIn": "20080124",
        "DataFi": " ",
        "Sezione": "-"
      }
    },
    {
      "type": "Feature",
      "id": 22698,
      "geometry": {
        "type": "Polygon",
        "coordinates": [
          [
            [
              7.27883466153973,
              44.715926743751
            ],
            [
              7.27845813388019,
              44.7158361930305
            ],
            [
              7.27850464785945,
              44.7157317030603
            ],
            [
              7.27872019543355,
              44.7152429022412
            ],
            [
              7.27875313902466,
              44.715244299189
            ],
            [
              7.27883942904736,
              44.7152479582062
            ],
            [
              7.27901650788051,
              44.7152470451655
            ],
            [
              7.27942509980657,
              44.7152120126368
            ],
            [
              7.27969892835589,
              44.7151714667857
            ],
            [
              7.27976557928167,
              44.7151765186378
            ],
            [
              7.27972826875879,
              44.7152448415775
            ],
            [
              7.27960213634119,
              44.7154451274806
            ],
            [
              7.27934327850729,
              44.7157287697574
            ],
            [
              7.27891188112594,
              44.7159270858305
            ],
            [
              7.27883466153973,
              44.715926743751
            ]
          ]
        ]
      },
      "properties": {
        "FID": 22698,
        "Id": 0,
        "Acad_text": "163",
        "Acad_angle": 0,
        "Gislink": 22699,
        "Area": 5106,
        "Perimeter": 297,
        "Foglio": 84,
        "Irr": " ",
        "ConStr": " ",
        "DataIn": "20080124",
        "DataFi": " ",
        "Sezione": "-"
      }
    },
    {
      "type": "Feature",
      "id": 22699,
      "geometry": {
        "type": "Polygon",
        "coordinates": [
          [
            [
              7.27731659603847,
              44.7151861572001
            ],
            [
              7.27727371374518,
              44.7150322426218
            ],
            [
              7.27756347002047,
              44.7151337437469
            ],
            [
              7.27764743533406,
              44.7151567439525
            ],
            [
              7.27777845258072,
              44.715192909335
            ],
            [
              7.27802111551117,
              44.7152144902595
            ],
            [
              7.27843283243437,
              44.7152305265286
            ],
            [
              7.27872019543355,
              44.7152429022412
            ],
            [
              7.27850464785945,
              44.7157317030603
            ],
            [
              7.27816523211597,
              44.7156639967767
            ],
            [
              7.2777474500504,
              44.7155750237722
            ],
            [
              7.27769689437866,
              44.715630993339
            ],
            [
              7.2773652604955,
              44.7155037134146
            ],
            [
              7.27723074728605,
              44.7157540928533
            ],
            [
              7.27717240701503,
              44.7157401515667
            ],
            [
              7.27736087352158,
              44.7153494533101
            ],
            [
              7.27731659603847,
              44.7151861572001
            ]
          ]
        ]
      },
      "properties": {
        "FID": 22699,
        "Id": 0,
        "Acad_text": "161",
        "Acad_angle": 0,
        "Gislink": 22700,
        "Area": 5231,
        "Perimeter": 393,
        "Foglio": 84,
        "Irr": " ",
        "ConStr": " ",
        "DataIn": "20080124",
        "DataFi": " ",
        "Sezione": "-"
      }
    },
    {
      "type": "Feature",
      "id": 22703,
      "geometry": {
        "type": "Polygon",
        "coordinates": [
          [
            [
              7.27850464785945,
              44.7157317030603
            ],
            [
              7.27845813388019,
              44.7158361930305
            ],
            [
              7.27817368921148,
              44.7158185570436
            ],
            [
              7.27817073867148,
              44.7159926680871
            ],
            [
              7.27814381776975,
              44.7161242449824
            ],
            [
              7.27800078773811,
              44.7162973523257
            ],
            [
              7.27758742432575,
              44.7160997886293
            ],
            [
              7.27766201327411,
              44.7160389734537
            ],
            [
              7.27745905609376,
              44.7159352466838
            ],
            [
              7.27730607923691,
              44.7158870595768
            ],
            [
              7.27723074728605,
              44.7157540928533
            ],
            [
              7.2773652604955,
              44.7155037134146
            ],
            [
              7.27769689437866,
              44.715630993339
            ],
            [
              7.2777474500504,
              44.7155750237722
            ],
            [
              7.27816523211597,
              44.7156639967767
            ],
            [
              7.27850464785945,
              44.7157317030603
            ]
          ]
        ]
      },
      "properties": {
        "FID": 22703,
        "Id": 0,
        "Acad_text": "271",
        "Acad_angle": 0,
        "Gislink": 22704,
        "Area": 4356,
        "Perimeter": 318,
        "Foglio": 84,
        "Irr": " ",
        "ConStr": " ",
        "DataIn": "20080124",
        "DataFi": " ",
        "Sezione": "-"
      }
    },
    {
      "type": "Feature",
      "id": 22704,
      "geometry": {
        "type": "Polygon",
        "coordinates": [
          [
            [
              7.27813230535373,
              44.7161603542871
            ],
            [
              7.27817582020834,
              44.716179206433
            ],
            [
              7.27811357112202,
              44.7162529972476
            ],
            [
              7.27807063174301,
              44.7162349811862
            ],
            [
              7.27813230535373,
              44.7161603542871
            ]
          ]
        ]
      },
      "properties": {
        "FID": 22704,
        "Id": 0,
        "Acad_text": "158",
        "Acad_angle": 0,
        "Gislink": 22705,
        "Area": 39,
        "Perimeter": 27,
        "Foglio": 84,
        "Irr": " ",
        "ConStr": " ",
        "DataIn": "20080124",
        "DataFi": " ",
        "Sezione": "-"
      }
    },
    {
      "type": "Feature",
      "id": 22705,
      "geometry": {
        "type": "Polygon",
        "coordinates": [
          [
            [
              7.27869340699039,
              44.7163653334969
            ],
            [
              7.27858840233332,
              44.716373941164
            ],
            [
              7.27845291443562,
              44.7164056810999
            ],
            [
              7.2783251840934,
              44.7164153342639
            ],
            [
              7.27822059934746,
              44.7164167915127
            ],
            [
              7.27817164048122,
              44.7164026343349
            ],
            [
              7.27797438132312,
              44.7163280338907
            ],
            [
              7.27800078773811,
              44.7162973523257
            ],
            [
              7.27814381776975,
              44.7161242449824
            ],
            [
              7.27817073867148,
              44.7159926680871
            ],
            [
              7.27817368921148,
              44.7158185570436
            ],
            [
              7.27845813388019,
              44.7158361930305
            ],
            [
              7.27883466153973,
              44.715926743751
            ],
            [
              7.27885597465612,
              44.7162241303179
            ],
            [
              7.27876297065413,
              44.7163211817797
            ],
            [
              7.27869340699039,
              44.7163653334969
            ]
          ],
          [
            [
              7.27813230535373,
              44.7161603542871
            ],
            [
              7.27807063174301,
              44.7162349811862
            ],
            [
              7.27811357112202,
              44.7162529972476
            ],
            [
              7.27817582020834,
              44.716179206433
            ],
            [
              7.27813230535373,
              44.7161603542871
            ]
          ]
        ]
      },
      "properties": {
        "FID": 22705,
        "Id": 0,
        "Acad_text": "160",
        "Acad_angle": 0,
        "Gislink": 22706,
        "Area": 3270,
        "Perimeter": 254,
        "Foglio": 84,
        "Irr": " ",
        "ConStr": " ",
        "DataIn": "20080124",
        "DataFi": " ",
        "Sezione": "-"
      }
    },
    {
      "type": "Feature",
      "id": 22760,
      "geometry": {
        "type": "Polygon",
        "coordinates": [
          [
            [
              7.27756861061312,
              44.716115128129
            ],
            [
              7.27758742432575,
              44.7160997886293
            ],
            [
              7.27800078773811,
              44.7162973523257
            ],
            [
              7.27797438132312,
              44.7163280338907
            ],
            [
              7.27791388362838,
              44.7163054979322
            ],
            [
              7.27756861061312,
              44.716115128129
            ]
          ]
        ]
      },
      "properties": {
        "FID": 22760,
        "Id": 0,
        "Acad_text": "157",
        "Acad_angle": 0,
        "Gislink": 22761,
        "Area": 141,
        "Perimeter": 85,
        "Foglio": 84,
        "Irr": " ",
        "ConStr": " ",
        "DataIn": "20080124",
        "DataFi": " ",
        "Sezione": "-"
      }
    },
    {
      "type": "Feature",
      "id": 22818,
      "geometry": {
        "type": "Polygon",
        "coordinates": [
          [
            [
              7.2785465461715,
              44.7164585449998
            ],
            [
              7.27848726977253,
              44.7164249260714
            ],
            [
              7.27852483189585,
              44.7164162660299
            ],
            [
              7.27863507167962,
              44.7164023585564
            ],
            [
              7.2785465461715,
              44.7164585449998
            ]
          ]
        ]
      },
      "properties": {
        "FID": 22818,
        "Id": 0,
        "Acad_text": "159",
        "Acad_angle": 0,
        "Gislink": 22819,
        "Area": 29,
        "Perimeter": 27,
        "Foglio": 84,
        "Irr": " ",
        "ConStr": " ",
        "DataIn": "20080124",
        "DataFi": " ",
        "Sezione": "-"
      }
    },
    {
      "type": "Feature",
      "id": 22834,
      "geometry": {
        "type": "Polygon",
        "coordinates": [
          [
            [
              7.27761852032618,
              44.7165037452305
            ],
            [
              7.27731414958161,
              44.7162934300894
            ],
            [
              7.27753791929665,
              44.7162004525593
            ],
            [
              7.27758535478638,
              44.7161569879744
            ],
            [
              7.27776836729493,
              44.716262052191
            ],
            [
              7.27761852032618,
              44.7165037452305
            ]
          ]
        ]
      },
      "properties": {
        "FID": 22834,
        "Id": 0,
        "Acad_text": "241",
        "Acad_angle": 0,
        "Gislink": 22835,
        "Area": 673,
        "Perimeter": 108,
        "Foglio": 84,
        "Irr": " ",
        "ConStr": " ",
        "DataIn": "20080124",
        "DataFi": " ",
        "Sezione": "-"
      }
    },
    {
      "type": "Feature",
      "id": 22842,
      "geometry": {
        "type": "Polygon",
        "coordinates": [
          [
            [
              7.27776836729493,
              44.716262052191
            ],
            [
              7.27789523631723,
              44.7163345853111
            ],
            [
              7.27814548492911,
              44.7164278182564
            ],
            [
              7.27790656762043,
              44.7168169847776
            ],
            [
              7.27751333084493,
              44.7166774243131
            ],
            [
              7.27761852032618,
              44.7165037452305
            ],
            [
              7.27776836729493,
              44.716262052191
            ]
          ]
        ]
      },
      "properties": {
        "FID": 22842,
        "Id": 0,
        "Acad_text": "102",
        "Acad_angle": 0,
        "Gislink": 22843,
        "Area": 1712,
        "Perimeter": 170,
        "Foglio": 84,
        "Irr": " ",
        "ConStr": " ",
        "DataIn": "20080124",
        "DataFi": " ",
        "Sezione": "-"
      }
    },
    {
      "type": "Feature",
      "id": 22843,
      "geometry": {
        "type": "Polygon",
        "coordinates": [
          [
            [
              7.27860308012699,
              44.7165900105735
            ],
            [
              7.27782572093419,
              44.716934431714
            ],
            [
              7.27786354820149,
              44.716879287044
            ],
            [
              7.27790656762043,
              44.7168169847776
            ],
            [
              7.27814548492911,
              44.7164278182564
            ],
            [
              7.27825863459893,
              44.716445091504
            ],
            [
              7.27833546436368,
              44.7164463748597
            ],
            [
              7.27842629176956,
              44.7164389846707
            ],
            [
              7.27848726977253,
              44.7164249260714
            ],
            [
              7.2785465461715,
              44.7164585449998
            ],
            [
              7.27866657178354,
              44.7165234330242
            ],
            [
              7.27860308012699,
              44.7165900105735
            ]
          ]
        ]
      },
      "properties": {
        "FID": 22843,
        "Id": 0,
        "Acad_text": "238",
        "Acad_angle": 0,
        "Gislink": 22844,
        "Area": 1527,
        "Perimeter": 190,
        "Foglio": 84,
        "Irr": " ",
        "ConStr": " ",
        "DataIn": "20080124",
        "DataFi": " ",
        "Sezione": "-"
      }
    },
    {
      "type": "Feature",
      "id": 22844,
      "geometry": {
        "type": "Polygon",
        "coordinates": [
          [
            [
              7.27833534084373,
              44.7173489778733
            ],
            [
              7.27806724019372,
              44.7173615759588
            ],
            [
              7.27804386463004,
              44.7171999819559
            ],
            [
              7.27860308012699,
              44.7165900105735
            ],
            [
              7.27866657178354,
              44.7165234330242
            ],
            [
              7.27872398593782,
              44.7165532928479
            ],
            [
              7.27887490036362,
              44.7166450196125
            ],
            [
              7.27892434817884,
              44.7166723312722
            ],
            [
              7.27918643719746,
              44.7167980033389
            ],
            [
              7.27903098523414,
              44.7170804520555
            ],
            [
              7.27858518656975,
              44.7173369798431
            ],
            [
              7.27833534084373,
              44.7173489778733
            ]
          ]
        ]
      },
      "properties": {
        "FID": 22844,
        "Id": 0,
        "Acad_text": "352",
        "Acad_angle": 0,
        "Gislink": 22845,
        "Area": 4649,
        "Perimeter": 279,
        "Foglio": 84,
        "Irr": " ",
        "ConStr": " ",
        "DataIn": "20080124",
        "DataFi": " ",
        "Sezione": "-"
      }
    },
    {
      "type": "Feature",
      "id": 22845,
      "geometry": {
        "type": "Polygon",
        "coordinates": [
          [
            [
              7.27860308012699,
              44.7165900105735
            ],
            [
              7.27804386463004,
              44.7171999819559
            ],
            [
              7.27762659572675,
              44.7172228709121
            ],
            [
              7.27782572093419,
              44.716934431714
            ],
            [
              7.27860308012699,
              44.7165900105735
            ]
          ]
        ]
      },
      "properties": {
        "FID": 22845,
        "Id": 0,
        "Acad_text": "100",
        "Acad_angle": 0,
        "Gislink": 22846,
        "Area": 1759,
        "Perimeter": 224,
        "Foglio": 84,
        "Irr": " ",
        "ConStr": " ",
        "DataIn": "20080124",
        "DataFi": " ",
        "Sezione": "-"
      }
    },
    {
      "type": "Feature",
      "id": 22848,
      "geometry": {
        "type": "Polygon",
        "coordinates": [
          [
            [
              7.27877900014053,
              44.7182677612322
            ],
            [
              7.27853106258609,
              44.7183896636201
            ],
            [
              7.27855375561668,
              44.7183305238495
            ],
            [
              7.27858997586816,
              44.7181246396783
            ],
            [
              7.27863747728042,
              44.7178528444241
            ],
            [
              7.27863288401345,
              44.717557882994
            ],
            [
              7.27864803734057,
              44.7173341785396
            ],
            [
              7.27858518656975,
              44.7173369798431
            ],
            [
              7.27903098523414,
              44.7170804520555
            ],
            [
              7.27918643719746,
              44.7167980033389
            ],
            [
              7.27916438221831,
              44.7170392219925
            ],
            [
              7.27948019597523,
              44.7176118722044
            ],
            [
              7.27949416490999,
              44.717683577039
            ],
            [
              7.27877900014053,
              44.7182677612322
            ]
          ]
        ]
      },
      "properties": {
        "FID": 22848,
        "Id": 0,
        "Acad_text": "99",
        "Acad_angle": 0,
        "Gislink": 22849,
        "Area": 6190,
        "Perimeter": 414,
        "Foglio": 84,
        "Irr": " ",
        "ConStr": " ",
        "DataIn": "20080124",
        "DataFi": " ",
        "Sezione": "-"
      }
    },
    {
      "type": "Feature",
      "id": 23635,
      "geometry": {
        "type": "Polygon",
        "coordinates": [
          [
            [
              7.28014563322309,
              44.7184840432837
            ],
            [
              7.28004494661811,
              44.7184517693823
            ],
            [
              7.27991940748294,
              44.7184491355729
            ],
            [
              7.27985162053489,
              44.71848325992
            ],
            [
              7.27955482095112,
              44.7179747330683
            ],
            [
              7.27949416490999,
              44.717683577039
            ],
            [
              7.27948019597523,
              44.7176118722044
            ],
            [
              7.27916438221831,
              44.7170392219925
            ],
            [
              7.27918643719746,
              44.7167980033389
            ],
            [
              7.27923855144844,
              44.7168385215233
            ],
            [
              7.27943380410074,
              44.7169903273069
            ],
            [
              7.27950868894601,
              44.7170799007989
            ],
            [
              7.27955651698544,
              44.7171123803715
            ],
            [
              7.28014563322309,
              44.7184840432837
            ]
          ]
        ]
      },
      "properties": {
        "FID": 23635,
        "Id": 0,
        "Acad_text": "531",
        "Acad_angle": 0,
        "Gislink": 23636,
        "Area": 4373,
        "Perimeter": 430,
        "Foglio": 86,
        "Irr": " ",
        "ConStr": " ",
        "DataIn": "20080124",
        "DataFi": " ",
        "Sezione": "-"
      }
    },
    {
      "type": "Feature",
      "id": 23639,
      "geometry": {
        "type": "Polygon",
        "coordinates": [
          [
            [
              7.27954497931202,
              44.7163013381798
            ],
            [
              7.27921755906072,
              44.7163164994206
            ],
            [
              7.27887490036362,
              44.7166450196125
            ],
            [
              7.27872398593782,
              44.7165532928479
            ],
            [
              7.27866657178354,
              44.7165234330242
            ],
            [
              7.2785465461715,
              44.7164585449998
            ],
            [
              7.27863507167962,
              44.7164023585564
            ],
            [
              7.27870755371141,
              44.716392859793
            ],
            [
              7.27897401764709,
              44.7162917195719
            ],
            [
              7.2792444695169,
              44.7162510475589
            ],
            [
              7.27960383059586,
              44.716163009389
            ],
            [
              7.27962200805987,
              44.7161556097196
            ],
            [
              7.27954497931202,
              44.7163013381798
            ]
          ]
        ]
      },
      "properties": {
        "FID": 23639,
        "Id": 0,
        "Acad_text": "124",
        "Acad_angle": 0,
        "Gislink": 23640,
        "Area": 1328,
        "Perimeter": 211,
        "Foglio": 86,
        "Irr": " ",
        "ConStr": " ",
        "DataIn": "20080124",
        "DataFi": " ",
        "Sezione": "-"
      }
    },
    {
      "type": "Feature",
      "id": 23640,
      "geometry": {
        "type": "Polygon",
        "coordinates": [
          [
            [
              7.27954497931202,
              44.7163013381798
            ],
            [
              7.27923855144844,
              44.7168385215233
            ],
            [
              7.27918643719746,
              44.7167980033389
            ],
            [
              7.27892434817884,
              44.7166723312722
            ],
            [
              7.27887490036362,
              44.7166450196125
            ],
            [
              7.27921755906072,
              44.7163164994206
            ],
            [
              7.27954497931202,
              44.7163013381798
            ]
          ]
        ]
      },
      "properties": {
        "FID": 23640,
        "Id": 0,
        "Acad_text": "23",
        "Acad_angle": 0,
        "Gislink": 23641,
        "Area": 1502,
        "Perimeter": 170,
        "Foglio": 86,
        "Irr": " ",
        "ConStr": " ",
        "DataIn": "20080124",
        "DataFi": " ",
        "Sezione": "-"
      }
    },
    {
      "type": "Feature",
      "id": 23641,
      "geometry": {
        "type": "Polygon",
        "coordinates": [
          [
            [
              7.27923855144844,
              44.7168385215233
            ],
            [
              7.27954497931202,
              44.7163013381798
            ],
            [
              7.27969410069005,
              44.7163458387735
            ],
            [
              7.27997289870238,
              44.7164506673165
            ],
            [
              7.2798618078757,
              44.7165209606142
            ],
            [
              7.27980611834151,
              44.7165842557532
            ],
            [
              7.27976804485437,
              44.7166883754884
            ],
            [
              7.27965657813378,
              44.7168388119717
            ],
            [
              7.27943380410074,
              44.7169903273069
            ],
            [
              7.27923855144844,
              44.7168385215233
            ]
          ]
        ]
      },
      "properties": {
        "FID": 23641,
        "Id": 0,
        "Acad_text": "24",
        "Acad_angle": 0,
        "Gislink": 23642,
        "Area": 2062,
        "Perimeter": 199,
        "Foglio": 86,
        "Irr": " ",
        "ConStr": " ",
        "DataIn": "20080124",
        "DataFi": " ",
        "Sezione": "-"
      }
    },
    {
      "type": "Feature",
      "id": 23642,
      "geometry": {
        "type": "Polygon",
        "coordinates": [
          [
            [
              7.27955651698544,
              44.7171123803715
            ],
            [
              7.27950868894601,
              44.7170799007989
            ],
            [
              7.27943380410074,
              44.7169903273069
            ],
            [
              7.27965657813378,
              44.7168388119717
            ],
            [
              7.27976804485437,
              44.7166883754884
            ],
            [
              7.27978100191829,
              44.716908205804
            ],
            [
              7.27982058546991,
              44.7169993500652
            ],
            [
              7.27986500835073,
              44.7170490606317
            ],
            [
              7.27983316699801,
              44.717275527236
            ],
            [
              7.27973843313448,
              44.7172319747813
            ],
            [
              7.27955651698544,
              44.7171123803715
            ]
          ]
        ]
      },
      "properties": {
        "FID": 23642,
        "Id": 0,
        "Acad_text": "29",
        "Acad_angle": 0,
        "Gislink": 23643,
        "Area": 1001,
        "Perimeter": 155,
        "Foglio": 86,
        "Irr": " ",
        "ConStr": " ",
        "DataIn": "20080124",
        "DataFi": " ",
        "Sezione": "-"
      }
    },
    {
      "type": "Feature",
      "id": 23643,
      "geometry": {
        "type": "Polygon",
        "coordinates": [
          [
            [
              7.28050029465626,
              44.7163077064041
            ],
            [
              7.28033106362121,
              44.7165045966573
            ],
            [
              7.28031358077055,
              44.7167441081277
            ],
            [
              7.28025621066925,
              44.7170573606171
            ],
            [
              7.27998874184009,
              44.7173482421994
            ],
            [
              7.27983316699801,
              44.717275527236
            ],
            [
              7.27986500835073,
              44.7170490606317
            ],
            [
              7.27982058546991,
              44.7169993500652
            ],
            [
              7.27978100191829,
              44.716908205804
            ],
            [
              7.27976804485437,
              44.7166883754884
            ],
            [
              7.27980611834151,
              44.7165842557532
            ],
            [
              7.2798618078757,
              44.7165209606142
            ],
            [
              7.27997289870238,
              44.7164506673165
            ],
            [
              7.2800416437417,
              44.716424517544
            ],
            [
              7.2801435774793,
              44.7163143388734
            ],
            [
              7.2801546556822,
              44.7162463724652
            ],
            [
              7.28019794486502,
              44.716194459488
            ],
            [
              7.28031882364233,
              44.7161685638559
            ],
            [
              7.28039269075709,
              44.7161558228472
            ],
            [
              7.28048490584511,
              44.7161399170036
            ],
            [
              7.28052929543179,
              44.716273965565
            ],
            [
              7.28050029465626,
              44.7163077064041
            ]
          ]
        ]
      },
      "properties": {
        "FID": 23643,
        "Id": 0,
        "Acad_text": "159",
        "Acad_angle": 0,
        "Gislink": 23644,
        "Area": 4186,
        "Perimeter": 318,
        "Foglio": 86,
        "Irr": " ",
        "ConStr": " ",
        "DataIn": "20080124",
        "DataFi": " ",
        "Sezione": "-"
      }
    },
    {
      "type": "Feature",
      "id": 23644,
      "geometry": {
        "type": "Polygon",
        "coordinates": [
          [
            [
              7.28034817905329,
              44.7159113178974
            ],
            [
              7.28039269075709,
              44.7161558228472
            ],
            [
              7.28031882364233,
              44.7161685638559
            ],
            [
              7.28019794486502,
              44.716194459488
            ],
            [
              7.2801546556822,
              44.7162463724652
            ],
            [
              7.2801435774793,
              44.7163143388734
            ],
            [
              7.2800416437417,
              44.716424517544
            ],
            [
              7.27997289870238,
              44.7164506673165
            ],
            [
              7.27969410069005,
              44.7163458387735
            ],
            [
              7.27954497931202,
              44.7163013381798
            ],
            [
              7.27962200805987,
              44.7161556097196
            ],
            [
              7.27970550822045,
              44.7161216184708
            ],
            [
              7.27991244751806,
              44.7160045468115
            ],
            [
              7.2801698262192,
              44.7159670711362
            ],
            [
              7.28034817905329,
              44.7159113178974
            ]
          ]
        ]
      },
      "properties": {
        "FID": 23644,
        "Id": 0,
        "Acad_text": "688",
        "Acad_angle": 0,
        "Gislink": 23645,
        "Area": 2095,
        "Perimeter": 196,
        "Foglio": 86,
        "Irr": " ",
        "ConStr": " ",
        "DataIn": "20080124",
        "DataFi": " ",
        "Sezione": "-"
      }
    },
    {
      "type": "Feature",
      "id": 23645,
      "geometry": {
        "type": "Polygon",
        "coordinates": [
          [
            [
              7.27869340699039,
              44.7163653334969
            ],
            [
              7.27876297065413,
              44.7163211817797
            ],
            [
              7.27885597465612,
              44.7162241303179
            ],
            [
              7.27883466153973,
              44.715926743751
            ],
            [
              7.27891188112594,
              44.7159270858305
            ],
            [
              7.27934327850729,
              44.7157287697574
            ],
            [
              7.27988698576361,
              44.7159826217316
            ],
            [
              7.27966750672577,
              44.7161064493908
            ],
            [
              7.27956875575371,
              44.7161443724561
            ],
            [
              7.27924377778477,
              44.7162178345512
            ],
            [
              7.27896396275178,
              44.7162683791081
            ],
            [
              7.2787336378027,
              44.7163558138169
            ],
            [
              7.27869340699039,
              44.7163653334969
            ]
          ]
        ]
      },
      "properties": {
        "FID": 23645,
        "Id": 0,
        "Acad_text": "226",
        "Acad_angle": 0,
        "Gislink": 23646,
        "Area": 2904,
        "Perimeter": 252,
        "Foglio": 86,
        "Irr": " ",
        "ConStr": " ",
        "DataIn": "20080124",
        "DataFi": " ",
        "Sezione": "-"
      }
    },
    {
      "type": "Feature",
      "id": 23717,
      "geometry": {
        "type": "Polygon",
        "coordinates": [
          [
            [
              7.27988698576361,
              44.7159826217316
            ],
            [
              7.27934327850729,
              44.7157287697574
            ],
            [
              7.27960213634119,
              44.7154451274806
            ],
            [
              7.27972826875879,
              44.7152448415775
            ],
            [
              7.27976557928167,
              44.7151765186378
            ],
            [
              7.27990224467386,
              44.7152661804706
            ],
            [
              7.28000727167713,
              44.715463160303
            ],
            [
              7.2800314000777,
              44.7155470055572
            ],
            [
              7.28062472193299,
              44.7154334443465
            ],
            [
              7.28063723292236,
              44.7155294192349
            ],
            [
              7.28080128966479,
              44.7156607009376
            ],
            [
              7.28093957423991,
              44.7160203859295
            ],
            [
              7.28092267728951,
              44.7160133442507
            ],
            [
              7.28081316075634,
              44.7159868459723
            ],
            [
              7.2805321679151,
              44.715947324981
            ],
            [
              7.28041965429126,
              44.7158920757876
            ],
            [
              7.28035277064687,
              44.7158892724453
            ],
            [
              7.2802813947101,
              44.7158959654019
            ],
            [
              7.28017390130716,
              44.7159373207266
            ],
            [
              7.28008496204735,
              44.7159536468177
            ],
            [
              7.27988698576361,
              44.7159826217316
            ]
          ],
          [
            [
              7.28046151361705,
              44.7157886106668
            ],
            [
              7.28057244644531,
              44.7158812101104
            ],
            [
              7.28065252653636,
              44.7158342197911
            ],
            [
              7.2806830996211,
              44.7158159258577
            ],
            [
              7.28057549031239,
              44.7157233357893
            ],
            [
              7.28051360852276,
              44.7156936488533
            ],
            [
              7.28049613637489,
              44.7156786239007
            ],
            [
              7.28046914473614,
              44.7156927432332
            ],
            [
              7.28048710999628,
              44.7157078181509
            ],
            [
              7.28042274378908,
              44.7157412503829
            ],
            [
              7.28046151361705,
              44.7157886106668
            ]
          ]
        ]
      },
      "properties": {
        "FID": 23717,
        "Id": 0,
        "Acad_text": "395",
        "Acad_angle": 0,
        "Gislink": 23718,
        "Area": 5514,
        "Perimeter": 437,
        "Foglio": 86,
        "Irr": " ",
        "ConStr": " ",
        "DataIn": "20080124",
        "DataFi": " ",
        "Sezione": "-"
      }
    }
  ]
}
