{
  "type": "FeatureCollection",
  "features": [
    {
      "type": "Feature",
      "id": 9757,
      "geometry": {
        "type": "Polygon",
        "coordinates": [
          [
            [
              7.29517389810203,
              44.7607585882017
            ],
            [
              7.29505902542368,
              44.7609928325907
            ],
            [
              7.29455182514164,
              44.7609534287817
            ],
            [
              7.29414336610516,
              44.7609209763581
            ],
            [
              7.29435266280188,
              44.7606021694647
            ],
            [
              7.29460230925182,
              44.7606408717838
            ],
            [
              7.29501139468207,
              44.7607090289689
            ],
            [
              7.29517389810203,
              44.7607585882017
            ]
          ]
        ]
      },
      "properties": {
        "FID": 9757,
        "Id": 0,
        "Acad_text": "300",
        "Acad_angle": 0,
        "Gislink": 9758,
        "Area": 2359,
        "Perimeter": 208,
        "Foglio": 20,
        "Irr": " ",
        "ConStr": " ",
        "DataIn": "20100107",
        "DataFi": " ",
        "Sezione": "-"
      }
    },
    {
      "type": "Feature",
      "id": 9766,
      "geometry": {
        "type": "Polygon",
        "coordinates": [
          [
            [
              7.29348671503518,
              44.7601871514983
            ],
            [
              7.29324850962453,
              44.7602755939894
            ],
            [
              7.29317071337732,
              44.7602445653487
            ],
            [
              7.29288827981255,
              44.7601252362927
            ],
            [
              7.29296149818157,
              44.7600285335146
            ],
            [
              7.29301142702981,
              44.7599927195941
            ],
            [
              7.29321215098913,
              44.7599688295818
            ],
            [
              7.29336572076744,
              44.7600886575736
            ],
            [
              7.29348671503518,
              44.7601871514983
            ]
          ]
        ]
      },
      "properties": {
        "FID": 9766,
        "Id": 0,
        "Acad_text": "310",
        "Acad_angle": 0,
        "Gislink": 9767,
        "Area": 920,
        "Perimeter": 121,
        "Foglio": 20,
        "Irr": " ",
        "ConStr": " ",
        "DataIn": "20100107",
        "DataFi": " ",
        "Sezione": "-"
      }
    },
    {
      "type": "Feature",
      "id": 9767,
      "geometry": {
        "type": "Polygon",
        "coordinates": [
          [
            [
              7.29412273252739,
              44.7603061916018
            ],
            [
              7.29429530221816,
              44.7600017102884
            ],
            [
              7.29465309052676,
              44.7601082001552
            ],
            [
              7.29457015736747,
              44.7602613333308
            ],
            [
              7.29412273252739,
              44.7603061916018
            ]
          ]
        ]
      },
      "properties": {
        "FID": 9767,
        "Id": 0,
        "Acad_text": "311",
        "Acad_angle": 0,
        "Gislink": 9768,
        "Area": 829,
        "Perimeter": 120,
        "Foglio": 20,
        "Irr": " ",
        "ConStr": " ",
        "DataIn": "20100107",
        "DataFi": " ",
        "Sezione": "-"
      }
    },
    {
      "type": "Feature",
      "id": 9768,
      "geometry": {
        "type": "Polygon",
        "coordinates": [
          [
            [
              7.29573671474822,
              44.7603216130943
            ],
            [
              7.29571208287313,
              44.7604293459594
            ],
            [
              7.2954224083814,
              44.7603920339487
            ],
            [
              7.2953603509961,
              44.7603814013911
            ],
            [
              7.29496167349369,
              44.7603198295526
            ],
            [
              7.29457015736747,
              44.7602613333308
            ],
            [
              7.29465309052676,
              44.7601082001552
            ],
            [
              7.29429530221816,
              44.7600017102884
            ],
            [
              7.29412273252739,
              44.7603061916018
            ],
            [
              7.29407893112392,
              44.7603108047382
            ],
            [
              7.29397341424019,
              44.7603209302576
            ],
            [
              7.29365597229792,
              44.7603502380841
            ],
            [
              7.29348032847334,
              44.7603282825885
            ],
            [
              7.29346558388131,
              44.7603264395
            ],
            [
              7.29360134939944,
              44.7602283426395
            ],
            [
              7.2937028780212,
              44.7601901896402
            ],
            [
              7.29408604356415,
              44.7599650022904
            ],
            [
              7.29416716916959,
              44.7599209038855
            ],
            [
              7.29429524470634,
              44.7598840642516
            ],
            [
              7.29432229735037,
              44.7598870164458
            ],
            [
              7.29440304125969,
              44.7598687105662
            ],
            [
              7.2945117402035,
              44.7598379365788
            ],
            [
              7.29463675240458,
              44.7597840581077
            ],
            [
              7.295086380575,
              44.7600560684376
            ],
            [
              7.29543194946315,
              44.7602658633433
            ],
            [
              7.29573671474822,
              44.7603216130943
            ]
          ]
        ]
      },
      "properties": {
        "FID": 9768,
        "Id": 0,
        "Acad_text": "312",
        "Acad_angle": 0,
        "Gislink": 9769,
        "Area": 4647,
        "Perimeter": 462,
        "Foglio": 20,
        "Irr": " ",
        "ConStr": " ",
        "DataIn": "20100107",
        "DataFi": " ",
        "Sezione": "-"
      }
    },
    {
      "type": "Feature",
      "id": 9769,
      "geometry": {
        "type": "Polygon",
        "coordinates": [
          [
            [
              7.29614814014275,
              44.7600405347359
            ],
            [
              7.29607057101541,
              44.7600935557697
            ],
            [
              7.29574441883242,
              44.7598398316017
            ],
            [
              7.29531395279724,
              44.7597037862266
            ],
            [
              7.29537129061888,
              44.7592374361903
            ],
            [
              7.29539236003383,
              44.7590404183459
            ],
            [
              7.29543439821213,
              44.7590790573266
            ],
            [
              7.29552514755079,
              44.7591371426141
            ],
            [
              7.29571244279298,
              44.7593149137158
            ],
            [
              7.29593113375129,
              44.7594496106605
            ],
            [
              7.29602270907183,
              44.7597109783518
            ],
            [
              7.29608574754251,
              44.7598952730837
            ],
            [
              7.29614814014275,
              44.7600405347359
            ]
          ]
        ]
      },
      "properties": {
        "FID": 9769,
        "Id": 0,
        "Acad_text": "313",
        "Acad_angle": 0,
        "Gislink": 9770,
        "Area": 3485,
        "Perimeter": 289,
        "Foglio": 20,
        "Irr": " ",
        "ConStr": " ",
        "DataIn": "20100107",
        "DataFi": " ",
        "Sezione": "-"
      }
    },
    {
      "type": "Feature",
      "id": 9883,
      "geometry": {
        "type": "Polygon",
        "coordinates": [
          [
            [
              7.29634804714866,
              44.7602515530446
            ],
            [
              7.29608901278307,
              44.7605443650581
            ],
            [
              7.29602071227252,
              44.7606232399575
            ],
            [
              7.29541951568692,
              44.7604487181786
            ],
            [
              7.2954224083814,
              44.7603920339487
            ],
            [
              7.29571208287313,
              44.7604293459594
            ],
            [
              7.29573671474822,
              44.7603216130943
            ],
            [
              7.29590238112831,
              44.7602072417894
            ],
            [
              7.29607057101541,
              44.7600935557697
            ],
            [
              7.29614814014275,
              44.7600405347359
            ],
            [
              7.29615801584512,
              44.7600635271495
            ],
            [
              7.29634804714866,
              44.7602515530446
            ]
          ]
        ]
      },
      "properties": {
        "FID": 9883,
        "Id": 0,
        "Acad_text": "456",
        "Acad_angle": 0,
        "Gislink": 9884,
        "Area": 2033,
        "Perimeter": 216,
        "Foglio": 20,
        "Irr": " ",
        "ConStr": " ",
        "DataIn": "20100107",
        "DataFi": " ",
        "Sezione": "-"
      }
    },
    {
      "type": "Feature",
      "id": 9885,
      "geometry": {
        "type": "Polygon",
        "coordinates": [
          [
            [
              7.29397341424019,
              44.7603209302576
            ],
            [
              7.29378433019625,
              44.7604974459351
            ],
            [
              7.29354059051145,
              44.7607258285292
            ],
            [
              7.29345681941277,
              44.7607515320756
            ],
            [
              7.29336310504123,
              44.7607801045313
            ],
            [
              7.29315861637563,
              44.7608432455173
            ],
            [
              7.29309004989197,
              44.7608076523067
            ],
            [
              7.29296764090885,
              44.7607454547074
            ],
            [
              7.29326753501124,
              44.7605008211192
            ],
            [
              7.29348032847334,
              44.7603282825885
            ],
            [
              7.29365597229792,
              44.7603502380841
            ],
            [
              7.29397341424019,
              44.7603209302576
            ]
          ]
        ]
      },
      "properties": {
        "FID": 9885,
        "Id": 0,
        "Acad_text": "458",
        "Acad_angle": 0,
        "Gislink": 9886,
        "Area": 2084,
        "Perimeter": 210,
        "Foglio": 20,
        "Irr": " ",
        "ConStr": " ",
        "DataIn": "20100107",
        "DataFi": " ",
        "Sezione": "-"
      }
    },
    {
      "type": "Feature",
      "id": 9886,
      "geometry": {
        "type": "Polygon",
        "coordinates": [
          [
            [
              7.29272490635639,
              44.760936933528
            ],
            [
              7.29262784861417,
              44.7611438135677
            ],
            [
              7.29247878725724,
              44.7611200832688
            ],
            [
              7.29245254044729,
              44.7611604213359
            ],
            [
              7.29236483780203,
              44.761257754039
            ],
            [
              7.2922953646395,
              44.761255471745
            ],
            [
              7.29221874866752,
              44.761290233459
            ],
            [
              7.29207962632074,
              44.7614443799885
            ],
            [
              7.29192281404647,
              44.7615122263716
            ],
            [
              7.29188488602027,
              44.7615223817608
            ],
            [
              7.29192003591507,
              44.7614269411386
            ],
            [
              7.29190696323673,
              44.7614187474321
            ],
            [
              7.29171711882393,
              44.7612997730246
            ],
            [
              7.29147876761052,
              44.7611533991859
            ],
            [
              7.29149819981822,
              44.7611014756316
            ],
            [
              7.29144939465567,
              44.7608975478147
            ],
            [
              7.29140390570291,
              44.7607187787297
            ],
            [
              7.29189161231713,
              44.7607843940591
            ],
            [
              7.29232115171841,
              44.7608491732864
            ],
            [
              7.29266310825432,
              44.760636474521
            ],
            [
              7.2928536118601,
              44.760512171253
            ],
            [
              7.29315396749384,
              44.7603300469221
            ],
            [
              7.29324850962453,
              44.7602755939894
            ],
            [
              7.29346558388131,
              44.7603264395
            ],
            [
              7.29348032847334,
              44.7603282825885
            ],
            [
              7.29326753501124,
              44.7605008211192
            ],
            [
              7.29296764090885,
              44.7607454547074
            ],
            [
              7.29284422224589,
              44.7608404513381
            ],
            [
              7.29272490635639,
              44.760936933528
            ]
          ]
        ]
      },
      "properties": {
        "FID": 9886,
        "Id": 0,
        "Acad_text": "459",
        "Acad_angle": 0,
        "Gislink": 9887,
        "Area": 7157,
        "Perimeter": 490,
        "Foglio": 20,
        "Irr": " ",
        "ConStr": " ",
        "DataIn": "20100107",
        "DataFi": " ",
        "Sezione": "-"
      }
    },
    {
      "type": "Feature",
      "id": 9889,
      "geometry": {
        "type": "Polygon",
        "coordinates": [
          [
            [
              7.29539236003383,
              44.7590404183459
            ],
            [
              7.29537129061888,
              44.7592374361903
            ],
            [
              7.29531395279724,
              44.7597037862266
            ],
            [
              7.29574441883242,
              44.7598398316017
            ],
            [
              7.29607057101541,
              44.7600935557697
            ],
            [
              7.29590238112831,
              44.7602072417894
            ],
            [
              7.29559076896079,
              44.7600622572394
            ],
            [
              7.2952828352803,
              44.7599222575638
            ],
            [
              7.29493317385047,
              44.7597596182955
            ],
            [
              7.29480995756091,
              44.7597055511982
            ],
            [
              7.29481755712505,
              44.7595563050159
            ],
            [
              7.29482207929512,
              44.7593905320087
            ],
            [
              7.29483185269164,
              44.7591114034389
            ],
            [
              7.29481718814043,
              44.7590741223706
            ],
            [
              7.2948627564768,
              44.7589814658514
            ],
            [
              7.29482670798778,
              44.7588733055228
            ],
            [
              7.29489749903395,
              44.7588729696957
            ],
            [
              7.29516249571226,
              44.7588364102204
            ],
            [
              7.29527384433721,
              44.7589240236479
            ],
            [
              7.2953477111854,
              44.7589993797197
            ],
            [
              7.29539236003383,
              44.7590404183459
            ]
          ]
        ]
      },
      "properties": {
        "FID": 9889,
        "Id": 0,
        "Acad_text": "462",
        "Acad_angle": 0,
        "Gislink": 9890,
        "Area": 5879,
        "Perimeter": 420,
        "Foglio": 20,
        "Irr": " ",
        "ConStr": " ",
        "DataIn": "20100107",
        "DataFi": " ",
        "Sezione": "-"
      }
    },
    {
      "type": "Feature",
      "id": 9900,
      "geometry": {
        "type": "Polygon",
        "coordinates": [
          [
            [
              7.2953603509961,
              44.7603814013911
            ],
            [
              7.29517389810203,
              44.7607585882017
            ],
            [
              7.29501139468207,
              44.7607090289689
            ],
            [
              7.29460230925182,
              44.7606408717838
            ],
            [
              7.29435266280188,
              44.7606021694647
            ],
            [
              7.29457015736747,
              44.7602613333308
            ],
            [
              7.29496167349369,
              44.7603198295526
            ],
            [
              7.2953603509961,
              44.7603814013911
            ]
          ]
        ]
      },
      "properties": {
        "FID": 9900,
        "Id": 0,
        "Acad_text": "473",
        "Acad_angle": 0,
        "Gislink": 9901,
        "Area": 2711,
        "Perimeter": 217,
        "Foglio": 20,
        "Irr": " ",
        "ConStr": " ",
        "DataIn": "20100107",
        "DataFi": " ",
        "Sezione": "-"
      }
    },
    {
      "type": "Feature",
      "id": 9902,
      "geometry": {
        "type": "Polygon",
        "coordinates": [
          [
            [
              7.2954224083814,
              44.7603920339487
            ],
            [
              7.29541951568692,
              44.7604487181786
            ],
            [
              7.29539124797918,
              44.7609744692228
            ],
            [
              7.29541883933072,
              44.7611276983581
            ],
            [
              7.29514917290971,
              44.7611418489535
            ],
            [
              7.29511187736262,
              44.760949262054
            ],
            [
              7.29521394007806,
              44.7607708299125
            ],
            [
              7.29517389810203,
              44.7607585882017
            ],
            [
              7.2953603509961,
              44.7603814013911
            ],
            [
              7.2954224083814,
              44.7603920339487
            ]
          ]
        ]
      },
      "properties": {
        "FID": 9902,
        "Id": 0,
        "Acad_text": "475",
        "Acad_angle": 0,
        "Gislink": 9903,
        "Area": 1329,
        "Perimeter": 200,
        "Foglio": 20,
        "Irr": " ",
        "ConStr": " ",
        "DataIn": "20100107",
        "DataFi": " ",
        "Sezione": "-"
      }
    },
    {
      "type": "Feature",
      "id": 9903,
      "geometry": {
        "type": "Polygon",
        "coordinates": [
          [
            [
              7.29457015736747,
              44.7602613333308
            ],
            [
              7.29435266280188,
              44.7606021694647
            ],
            [
              7.29413172005367,
              44.7605680603563
            ],
            [
              7.29392319087453,
              44.7607010181638
            ],
            [
              7.29369342802944,
              44.7606788753886
            ],
            [
              7.29354059051145,
              44.7607258285292
            ],
            [
              7.29378433019625,
              44.7604974459351
            ],
            [
              7.29397341424019,
              44.7603209302576
            ],
            [
              7.29407893112392,
              44.7603108047382
            ],
            [
              7.29412273252739,
              44.7603061916018
            ],
            [
              7.29457015736747,
              44.7602613333308
            ]
          ]
        ]
      },
      "properties": {
        "FID": 9903,
        "Id": 0,
        "Acad_text": "476",
        "Acad_angle": 0,
        "Gislink": 9904,
        "Area": 1963,
        "Perimeter": 219,
        "Foglio": 20,
        "Irr": " ",
        "ConStr": " ",
        "DataIn": "20100107",
        "DataFi": " ",
        "Sezione": "-"
      }
    },
    {
      "type": "Feature",
      "id": 10043,
      "geometry": {
        "type": "Polygon",
        "coordinates": [
          [
            [
              7.29288827981255,
              44.7601252362927
            ],
            [
              7.29317071337732,
              44.7602445653487
            ],
            [
              7.29324850962453,
              44.7602755939894
            ],
            [
              7.29315396749384,
              44.7603300469221
            ],
            [
              7.2928536118601,
              44.760512171253
            ],
            [
              7.29266310825432,
              44.760636474521
            ],
            [
              7.29239438032065,
              44.7604751834192
            ],
            [
              7.29265340584826,
              44.7603189344466
            ],
            [
              7.29284517724233,
              44.7602439043385
            ],
            [
              7.29288827981255,
              44.7601252362927
            ]
          ]
        ]
      },
      "properties": {
        "FID": 10043,
        "Id": 0,
        "Acad_text": "647",
        "Acad_angle": 0,
        "Gislink": 10044,
        "Area": 1522,
        "Perimeter": 178,
        "Foglio": 20,
        "Irr": " ",
        "ConStr": " ",
        "DataIn": "20100107",
        "DataFi": " ",
        "Sezione": "-"
      }
    },
    {
      "type": "Feature",
      "id": 10117,
      "geometry": {
        "type": "Polygon",
        "coordinates": [
          [
            [
              7.29590238112831,
              44.7602072417894
            ],
            [
              7.29573671474822,
              44.7603216130943
            ],
            [
              7.29543194946315,
              44.7602658633433
            ],
            [
              7.295086380575,
              44.7600560684376
            ],
            [
              7.29463675240458,
              44.7597840581077
            ],
            [
              7.29480995756091,
              44.7597055511982
            ],
            [
              7.29493317385047,
              44.7597596182955
            ],
            [
              7.2952828352803,
              44.7599222575638
            ],
            [
              7.29559076896079,
              44.7600622572394
            ],
            [
              7.29590238112831,
              44.7602072417894
            ]
          ]
        ]
      },
      "properties": {
        "FID": 10117,
        "Id": 0,
        "Acad_text": "763",
        "Acad_angle": 0,
        "Gislink": 10118,
        "Area": 2177,
        "Perimeter": 245,
        "Foglio": 20,
        "Irr": " ",
        "ConStr": " ",
        "DataIn": "20100107",
        "DataFi": " ",
        "Sezione": "-"
      }
    },
    {
      "type": "Feature",
      "id": 10118,
      "geometry": {
        "type": "Polygon",
        "coordinates": [
          [
            [
              7.29429524470634,
              44.7598840642516
            ],
            [
              7.29416716916959,
              44.7599209038855
            ],
            [
              7.29408604356415,
              44.7599650022904
            ],
            [
              7.2937028780212,
              44.7601901896402
            ],
            [
              7.29360134939944,
              44.7602283426395
            ],
            [
              7.29346558388131,
              44.7603264395
            ],
            [
              7.29324850962453,
              44.7602755939894
            ],
            [
              7.29348671503518,
              44.7601871514983
            ],
            [
              7.29352348943639,
              44.7601757898337
            ],
            [
              7.29357327706884,
              44.7601549258326
            ],
            [
              7.29370752996059,
              44.7600762304768
            ],
            [
              7.29372707048963,
              44.7600562141432
            ],
            [
              7.29376870959079,
              44.7599997286226
            ],
            [
              7.29386289078682,
              44.7598722276443
            ],
            [
              7.29390394706807,
              44.7597762869328
            ],
            [
              7.29393187313663,
              44.7596971707415
            ],
            [
              7.29394991958158,
              44.7596469609451
            ],
            [
              7.29416583207707,
              44.7594794774722
            ],
            [
              7.29418800751716,
              44.7594918511612
            ],
            [
              7.29421285480559,
              44.7596222490458
            ],
            [
              7.29420209932594,
              44.7597298244946
            ],
            [
              7.29429524470634,
              44.7598840642516
            ]
          ]
        ]
      },
      "properties": {
        "FID": 10118,
        "Id": 0,
        "Acad_text": "764",
        "Acad_angle": 0,
        "Gislink": 10119,
        "Area": 1850,
        "Perimeter": 270,
        "Foglio": 20,
        "Irr": " ",
        "ConStr": " ",
        "DataIn": "20100107",
        "DataFi": " ",
        "Sezione": "-"
      }
    },
    {
      "type": "Feature",
      "id": 15681,
      "geometry": {
        "type": "Polygon",
        "coordinates": [
          [
            [
              7.29393187313663,
              44.7596971707415
            ],
            [
              7.29390394706807,
              44.7597762869328
            ],
            [
              7.29386289078682,
              44.7598722276443
            ],
            [
              7.29376870959079,
              44.7599997286226
            ],
            [
              7.29341232554696,
              44.7598624366187
            ],
            [
              7.29317596446172,
              44.7597725294096
            ],
            [
              7.29322891547034,
              44.7596991049192
            ],
            [
              7.2933097110529,
              44.7595948801044
            ],
            [
              7.29393187313663,
              44.7596971707415
            ]
          ]
        ]
      },
      "properties": {
        "FID": 15681,
        "Id": 0,
        "Acad_text": "413",
        "Acad_angle": 0,
        "Gislink": 15682,
        "Area": 1535,
        "Perimeter": 163,
        "Foglio": 30,
        "Irr": " ",
        "ConStr": " ",
        "DataIn": "20100107",
        "DataFi": " ",
        "Sezione": "-"
      }
    },
    {
      "type": "Feature",
      "id": 15695,
      "geometry": {
        "type": "Polygon",
        "coordinates": [
          [
            [
              7.29393187313663,
              44.7596971707415
            ],
            [
              7.2933097110529,
              44.7595948801044
            ],
            [
              7.2933247204989,
              44.7595705301985
            ],
            [
              7.2936175756191,
              44.7596326927486
            ],
            [
              7.29393187313663,
              44.7596971707415
            ]
          ]
        ]
      },
      "properties": {
        "FID": 15695,
        "Id": 0,
        "Acad_text": "398",
        "Acad_angle": 0,
        "Gislink": 15696,
        "Area": 71,
        "Perimeter": 104,
        "Foglio": 30,
        "Irr": " ",
        "ConStr": " ",
        "DataIn": "20100107",
        "DataFi": " ",
        "Sezione": "-"
      }
    },
    {
      "type": "Feature",
      "id": 15772,
      "geometry": {
        "type": "Polygon",
        "coordinates": [
          [
            [
              7.29481755712505,
              44.7595563050159
            ],
            [
              7.29449710879878,
              44.7595316252444
            ],
            [
              7.29456949134895,
              44.7592529760607
            ],
            [
              7.29465849918781,
              44.7589443717768
            ],
            [
              7.29468355160169,
              44.7588642139102
            ],
            [
              7.29477366478427,
              44.7588767407689
            ],
            [
              7.29482670798778,
              44.7588733055228
            ],
            [
              7.2948627564768,
              44.7589814658514
            ],
            [
              7.29481718814043,
              44.7590741223706
            ],
            [
              7.29483185269164,
              44.7591114034389
            ],
            [
              7.29482207929512,
              44.7593905320087
            ],
            [
              7.29481755712505,
              44.7595563050159
            ]
          ]
        ]
      },
      "properties": {
        "FID": 15772,
        "Id": 0,
        "Acad_text": "289",
        "Acad_angle": 0,
        "Gislink": 15773,
        "Area": 1456,
        "Perimeter": 190,
        "Foglio": 30,
        "Irr": " ",
        "ConStr": " ",
        "DataIn": "20100107",
        "DataFi": " ",
        "Sezione": "-"
      }
    },
    {
      "type": "Feature",
      "id": 15813,
      "geometry": {
        "type": "Polygon",
        "coordinates": [
          [
            [
              7.29376870959079,
              44.7599997286226
            ],
            [
              7.29372707048963,
              44.7600562141432
            ],
            [
              7.29335835439589,
              44.7599286990134
            ],
            [
              7.29313449574065,
              44.7598301406509
            ],
            [
              7.29317596446172,
              44.7597725294096
            ],
            [
              7.29341232554696,
              44.7598624366187
            ],
            [
              7.29376870959079,
              44.7599997286226
            ]
          ]
        ]
      },
      "properties": {
        "FID": 15813,
        "Id": 0,
        "Acad_text": "267",
        "Acad_angle": 0,
        "Gislink": 15814,
        "Area": 416,
        "Perimeter": 121,
        "Foglio": 30,
        "Irr": " ",
        "ConStr": " ",
        "DataIn": "20100107",
        "DataFi": " ",
        "Sezione": "-"
      }
    },
    {
      "type": "Feature",
      "id": 15847,
      "geometry": {
        "type": "Polygon",
        "coordinates": [
          [
            [
              7.29463675240458,
              44.7597840581077
            ],
            [
              7.2945117402035,
              44.7598379365788
            ],
            [
              7.29440304125969,
              44.7598687105662
            ],
            [
              7.29449710879878,
              44.7595316252444
            ],
            [
              7.29481755712505,
              44.7595563050159
            ],
            [
              7.29480995756091,
              44.7597055511982
            ],
            [
              7.29463675240458,
              44.7597840581077
            ]
          ]
        ]
      },
      "properties": {
        "FID": 15847,
        "Id": 0,
        "Acad_text": "226",
        "Acad_angle": 0,
        "Gislink": 15848,
        "Area": 780,
        "Perimeter": 118,
        "Foglio": 30,
        "Irr": " ",
        "ConStr": " ",
        "DataIn": "20100107",
        "DataFi": " ",
        "Sezione": "-"
      }
    },
    {
      "type": "Feature",
      "id": 15848,
      "geometry": {
        "type": "Polygon",
        "coordinates": [
          [
            [
              7.29416583207707,
              44.7594794774722
            ],
            [
              7.29420443163126,
              44.7594513246652
            ],
            [
              7.29427858455453,
              44.7593151360709
            ],
            [
              7.29441942392995,
              44.7590694366656
            ],
            [
              7.29453171326764,
              44.7588697450629
            ],
            [
              7.2945390753916,
              44.7588451202741
            ],
            [
              7.29468355160169,
              44.7588642139102
            ],
            [
              7.29465849918781,
              44.7589443717768
            ],
            [
              7.29456949134895,
              44.7592529760607
            ],
            [
              7.29449710879878,
              44.7595316252444
            ],
            [
              7.29440304125969,
              44.7598687105662
            ],
            [
              7.29432229735037,
              44.7598870164458
            ],
            [
              7.29429524470634,
              44.7598840642516
            ],
            [
              7.29420209932594,
              44.7597298244946
            ],
            [
              7.29421285480559,
              44.7596222490458
            ],
            [
              7.29418800751716,
              44.7594918511612
            ],
            [
              7.29416583207707,
              44.7594794774722
            ]
          ]
        ]
      },
      "properties": {
        "FID": 15848,
        "Id": 0,
        "Acad_text": "225",
        "Acad_angle": 0,
        "Gislink": 15849,
        "Area": 2154,
        "Perimeter": 260,
        "Foglio": 30,
        "Irr": " ",
        "ConStr": " ",
        "DataIn": "20100107",
        "DataFi": " ",
        "Sezione": "-"
      }
    },
    {
      "type": "Feature",
      "id": 15849,
      "geometry": {
        "type": "Polygon",
        "coordinates": [
          [
            [
              7.2945390753916,
              44.7588451202741
            ],
            [
              7.29453171326764,
              44.7588697450629
            ],
            [
              7.29441942392995,
              44.7590694366656
            ],
            [
              7.29427858455453,
              44.7593151360709
            ],
            [
              7.29420443163126,
              44.7594513246652
            ],
            [
              7.29416583207707,
              44.7594794774722
            ],
            [
              7.29400564454096,
              44.7593969552021
            ],
            [
              7.29376671550332,
              44.7592376907685
            ],
            [
              7.29359380241392,
              44.7591188795842
            ],
            [
              7.29381183822416,
              44.7589319222965
            ],
            [
              7.29381664753668,
              44.758932503266
            ],
            [
              7.29395296600115,
              44.7589267512923
            ],
            [
              7.29429074361501,
              44.7589113829278
            ],
            [
              7.29445093586201,
              44.7588652649185
            ],
            [
              7.29453299054077,
              44.758844383052
            ],
            [
              7.2945390753916,
              44.7588451202741
            ]
          ]
        ]
      },
      "properties": {
        "FID": 15849,
        "Id": 0,
        "Acad_text": "224",
        "Acad_angle": 0,
        "Gislink": 15850,
        "Area": 2744,
        "Perimeter": 224,
        "Foglio": 30,
        "Irr": " ",
        "ConStr": " ",
        "DataIn": "20100107",
        "DataFi": " ",
        "Sezione": "-"
      }
    },
    {
      "type": "Feature",
      "id": 15850,
      "geometry": {
        "type": "Polygon",
        "coordinates": [
          [
            [
              7.29394991958158,
              44.7596469609451
            ],
            [
              7.29393925704468,
              44.759642389468
            ],
            [
              7.29370292427233,
              44.7594784592854
            ],
            [
              7.29347886146846,
              44.7593236045445
            ],
            [
              7.29341930716043,
              44.7592833713582
            ],
            [
              7.29359380241392,
              44.7591188795842
            ],
            [
              7.29376671550332,
              44.7592376907685
            ],
            [
              7.29400564454096,
              44.7593969552021
            ],
            [
              7.29416583207707,
              44.7594794774722
            ],
            [
              7.29394991958158,
              44.7596469609451
            ]
          ]
        ]
      },
      "properties": {
        "FID": 15850,
        "Id": 0,
        "Acad_text": "223",
        "Acad_angle": 0,
        "Gislink": 15851,
        "Area": 1397,
        "Perimeter": 168,
        "Foglio": 30,
        "Irr": " ",
        "ConStr": " ",
        "DataIn": "20100107",
        "DataFi": " ",
        "Sezione": "-"
      }
    },
    {
      "type": "Feature",
      "id": 15851,
      "geometry": {
        "type": "Polygon",
        "coordinates": [
          [
            [
              7.29301142702981,
              44.7599927195941
            ],
            [
              7.29308990397196,
              44.7598901845771
            ],
            [
              7.29313449574065,
              44.7598301406509
            ],
            [
              7.29335835439589,
              44.7599286990134
            ],
            [
              7.29372707048963,
              44.7600562141432
            ],
            [
              7.29370752996059,
              44.7600762304768
            ],
            [
              7.29357327706884,
              44.7601549258326
            ],
            [
              7.29352348943639,
              44.7601757898337
            ],
            [
              7.29348671503518,
              44.7601871514983
            ],
            [
              7.29336572076744,
              44.7600886575736
            ],
            [
              7.29321215098913,
              44.7599688295818
            ],
            [
              7.29301142702981,
              44.7599927195941
            ]
          ]
        ]
      },
      "properties": {
        "FID": 15851,
        "Id": 0,
        "Acad_text": "222",
        "Acad_angle": 0,
        "Gislink": 15852,
        "Area": 793,
        "Perimeter": 147,
        "Foglio": 30,
        "Irr": " ",
        "ConStr": " ",
        "DataIn": "20100107",
        "DataFi": " ",
        "Sezione": "-"
      }
    },
    {
      "type": "Feature",
      "id": 15854,
      "geometry": {
        "type": "Polygon",
        "coordinates": [
          [
            [
              7.29393187313663,
              44.7596971707415
            ],
            [
              7.2936175756191,
              44.7596326927486
            ],
            [
              7.2933247204989,
              44.7595705301985
            ],
            [
              7.29336633085254,
              44.7595052537047
            ],
            [
              7.29347886146846,
              44.7593236045445
            ],
            [
              7.29370292427233,
              44.7594784592854
            ],
            [
              7.29393925704468,
              44.759642389468
            ],
            [
              7.29394991958158,
              44.7596469609451
            ],
            [
              7.29393187313663,
              44.7596971707415
            ]
          ]
        ]
      },
      "properties": {
        "FID": 15854,
        "Id": 0,
        "Acad_text": "217",
        "Acad_angle": 0,
        "Gislink": 15855,
        "Area": 876,
        "Perimeter": 138,
        "Foglio": 30,
        "Irr": " ",
        "ConStr": " ",
        "DataIn": "20100107",
        "DataFi": " ",
        "Sezione": "-"
      }
    },
    {
      "type": "Feature",
      "id": 26965,
      "geometry": {
        "type": "Polygon",
        "coordinates": [
          [
            [
              7.29455699666462,
              44.761832046823
            ],
            [
              7.29442505259834,
              44.7618252171272
            ],
            [
              7.29448041539927,
              44.7614156120453
            ],
            [
              7.29424735092827,
              44.7614058485275
            ],
            [
              7.29409143100344,
              44.7614179253519
            ],
            [
              7.29392322537531,
              44.7614379998362
            ],
            [
              7.293801557304,
              44.7614638506493
            ],
            [
              7.29362992296814,
              44.7611097459232
            ],
            [
              7.29345681941277,
              44.7607515320756
            ],
            [
              7.29354059051145,
              44.7607258285292
            ],
            [
              7.29369342802944,
              44.7606788753886
            ],
            [
              7.29392319087453,
              44.7607010181638
            ],
            [
              7.29413172005367,
              44.7605680603563
            ],
            [
              7.29435266280188,
              44.7606021694647
            ],
            [
              7.29414336610516,
              44.7609209763581
            ],
            [
              7.29455182514164,
              44.7609534287817
            ],
            [
              7.29505902542368,
              44.7609928325907
            ],
            [
              7.29517389810203,
              44.7607585882017
            ],
            [
              7.29521394007806,
              44.7607708299125
            ],
            [
              7.29511187736262,
              44.760949262054
            ],
            [
              7.29514917290971,
              44.7611418489535
            ],
            [
              7.29518067448952,
              44.7613225916753
            ],
            [
              7.29503116951343,
              44.7613046296913
            ],
            [
              7.295024363728,
              44.7613038120186
            ],
            [
              7.29489808726105,
              44.7612886406099
            ],
            [
              7.29482247894051,
              44.7616204034221
            ],
            [
              7.29526699138554,
              44.7617128535592
            ],
            [
              7.29521108889612,
              44.7618392741864
            ],
            [
              7.29500944027575,
              44.7618259106308
            ],
            [
              7.29488204246742,
              44.7618221736064
            ],
            [
              7.29455699666462,
              44.761832046823
            ]
          ]
        ]
      },
      "properties": {
        "FID": 26965,
        "Id": 0,
        "Acad_text": "1069",
        "Acad_angle": 0,
        "Gislink": 26966,
        "Area": 0,
        "Perimeter": 0,
        "Foglio": 20,
        "Irr": " ",
        "ConStr": " ",
        "DataIn": "20130628",
        "DataFi": " ",
        "Sezione": "-"
      }
    },
    {
      "type": "Feature",
      "id": 26996,
      "geometry": {
        "type": "Polygon",
        "coordinates": [
          [
            [
              7.29624855677267,
              44.7618192627051
            ],
            [
              7.29597256175929,
              44.7618396511026
            ],
            [
              7.2956234878194,
              44.7618549845974
            ],
            [
              7.29531014862195,
              44.7618458486023
            ],
            [
              7.29536360978326,
              44.7617332353625
            ],
            [
              7.29538534039866,
              44.7616862292729
            ],
            [
              7.29539410492681,
              44.7616673340768
            ],
            [
              7.29542518910956,
              44.7615948170916
            ],
            [
              7.29569415048948,
              44.7616473032887
            ],
            [
              7.29571846328764,
              44.7615944227995
            ],
            [
              7.29575879588908,
              44.7616039633776
            ],
            [
              7.29582132581592,
              44.7614677388872
            ],
            [
              7.29574306665919,
              44.7614385090373
            ],
            [
              7.29567486082375,
              44.7614142827522
            ],
            [
              7.29548029738952,
              44.7613565461799
            ],
            [
              7.29548266459942,
              44.7613249678479
            ],
            [
              7.29544412520315,
              44.7613235120811
            ],
            [
              7.29544737160538,
              44.7612881187927
            ],
            [
              7.29541883933072,
              44.7611276983581
            ],
            [
              7.29539124797918,
              44.7609744692228
            ],
            [
              7.29541951568692,
              44.7604487181786
            ],
            [
              7.29602071227252,
              44.7606232399575
            ],
            [
              7.29608901278307,
              44.7605443650581
            ],
            [
              7.29628429852418,
              44.7606251603423
            ],
            [
              7.29668675267933,
              44.7607829249611
            ],
            [
              7.29686724245233,
              44.7608921859025
            ],
            [
              7.29694012285113,
              44.7609951942992
            ],
            [
              7.29692859871313,
              44.7610126672815
            ],
            [
              7.29683869025155,
              44.7611489867456
            ],
            [
              7.29674051503947,
              44.7612867220405
            ],
            [
              7.29661351195723,
              44.7614619877171
            ],
            [
              7.29659305454488,
              44.7614590097532
            ],
            [
              7.29653896189883,
              44.7615208040542
            ],
            [
              7.29643681633671,
              44.7616409042417
            ],
            [
              7.29631026244649,
              44.7616136518465
            ],
            [
              7.29624855677267,
              44.7618192627051
            ]
          ]
        ]
      },
      "properties": {
        "FID": 26996,
        "Id": 0,
        "Acad_text": "297",
        "Acad_angle": 0,
        "Gislink": 26997,
        "Area": 0,
        "Perimeter": 0,
        "Foglio": 20,
        "Irr": " ",
        "ConStr": " ",
        "DataIn": "20130628",
        "DataFi": " ",
        "Sezione": "-"
      }
    }
  ]
}
