{
"type": "FeatureCollection",
"name": "Service004012_0001__00_simboli_catastali",
"xy_coordinate_resolution": 1e-08,
"features": [
{ "type": "Feature", "properties": { "FID": 35052, "ID": 0, "GISLINK": 0, "ACAD_TEXT": "²", "Foglio": 0, "Acad_angle": 27 }, "geometry": { "type": "Point", "coordinates": [ 7.28092435, 44.71608856 ] } },
{ "type": "Feature", "properties": { "FID": 35053, "ID": 0, "GISLINK": 0, "ACAD_TEXT": "²", "Foglio": 0, "Acad_angle": 141 }, "geometry": { "type": "Point", "coordinates": [ 7.28059124, 44.71578165 ] } },
{ "type": "Feature", "properties": { "FID": 35197, "ID": 0, "GISLINK": 0, "ACAD_TEXT": "¬", "Foglio": 0, "Acad_angle": 360 }, "geometry": { "type": "Point", "coordinates": [ 7.28065253, 44.71583422 ] } },
{ "type": "Feature", "properties": { "FID": 35278, "ID": 0, "GISLINK": 0, "ACAD_TEXT": "«", "Foglio": 0, "Acad_angle": 232 }, "geometry": { "type": "Point", "coordinates": [ 7.27986181, 44.71652096 ] } },
{ "type": "Feature", "properties": { "FID": 35279, "ID": 0, "GISLINK": 0, "ACAD_TEXT": "«", "Foglio": 0, "Acad_angle": 214 }, "geometry": { "type": "Point", "coordinates": [ 7.27995002, 44.71646515 ] } },
{ "type": "Feature", "properties": { "FID": 35280, "ID": 0, "GISLINK": 0, "ACAD_TEXT": "«", "Foglio": 0, "Acad_angle": 305 }, "geometry": { "type": "Point", "coordinates": [ 7.279945, 44.71643996 ] } },
{ "type": "Feature", "properties": { "FID": 35281, "ID": 0, "GISLINK": 0, "ACAD_TEXT": "«", "Foglio": 0, "Acad_angle": 32 }, "geometry": { "type": "Point", "coordinates": [ 7.28004164, 44.71642452 ] } },
{ "type": "Feature", "properties": { "FID": 35282, "ID": 0, "GISLINK": 0, "ACAD_TEXT": "«", "Foglio": 0, "Acad_angle": 25 }, "geometry": { "type": "Point", "coordinates": [ 7.28014358, 44.71631434 ] } },
{ "type": "Feature", "properties": { "FID": 35283, "ID": 0, "GISLINK": 0, "ACAD_TEXT": "«", "Foglio": 0, "Acad_angle": 207 }, "geometry": { "type": "Point", "coordinates": [ 7.28015466, 44.71624637 ] } },
{ "type": "Feature", "properties": { "FID": 35284, "ID": 0, "GISLINK": 0, "ACAD_TEXT": "«", "Foglio": 0, "Acad_angle": 244 }, "geometry": { "type": "Point", "coordinates": [ 7.28019794, 44.71619446 ] } },
{ "type": "Feature", "properties": { "FID": 35285, "ID": 0, "GISLINK": 0, "ACAD_TEXT": "«", "Foglio": 0, "Acad_angle": 253 }, "geometry": { "type": "Point", "coordinates": [ 7.28031882, 44.71616856 ] } },
{ "type": "Feature", "properties": { "FID": 35286, "ID": 0, "GISLINK": 0, "ACAD_TEXT": "«", "Foglio": 0, "Acad_angle": 62 }, "geometry": { "type": "Point", "coordinates": [ 7.2805293, 44.71627397 ] } },
{ "type": "Feature", "properties": { "FID": 35287, "ID": 0, "GISLINK": 0, "ACAD_TEXT": "«", "Foglio": 0, "Acad_angle": 71 }, "geometry": { "type": "Point", "coordinates": [ 7.28059282, 44.7164061 ] } },
{ "type": "Feature", "properties": { "FID": 35288, "ID": 0, "GISLINK": 0, "ACAD_TEXT": "«", "Foglio": 0, "Acad_angle": 293 }, "geometry": { "type": "Point", "coordinates": [ 7.2796941, 44.71634584 ] } },
{ "type": "Feature", "properties": { "FID": 36414, "ID": 0, "GISLINK": 0, "ACAD_TEXT": "«", "Foglio": 0, "Acad_angle": 49 }, "geometry": { "type": "Point", "coordinates": [ 7.28159506, 44.71633172 ] } },
{ "type": "Feature", "properties": { "FID": 36415, "ID": 0, "GISLINK": 0, "ACAD_TEXT": "«", "Foglio": 0, "Acad_angle": 61 }, "geometry": { "type": "Point", "coordinates": [ 7.28155209, 44.71643777 ] } },
{ "type": "Feature", "properties": { "FID": 36416, "ID": 0, "GISLINK": 0, "ACAD_TEXT": "«", "Foglio": 0, "Acad_angle": 326 }, "geometry": { "type": "Point", "coordinates": [ 7.28173101, 44.71648422 ] } },
{ "type": "Feature", "properties": { "FID": 36418, "ID": 0, "GISLINK": 0, "ACAD_TEXT": "«", "Foglio": 0, "Acad_angle": 214 }, "geometry": { "type": "Point", "coordinates": [ 7.28031358, 44.71674411 ] } },
{ "type": "Feature", "properties": { "FID": 36452, "ID": 0, "GISLINK": 0, "ACAD_TEXT": "«", "Foglio": 0, "Acad_angle": 97 }, "geometry": { "type": "Point", "coordinates": [ 7.28087174, 44.71618718 ] } },
{ "type": "Feature", "properties": { "FID": 36453, "ID": 0, "GISLINK": 0, "ACAD_TEXT": "«", "Foglio": 0, "Acad_angle": 47 }, "geometry": { "type": "Point", "coordinates": [ 7.28100422, 44.71615376 ] } }
]
}
