{
"type": "FeatureCollection",
"name": "Service004012_0001__16_confini_catastali",
"xy_coordinate_resolution": 1e-08,
"features": [
{ "type": "Feature", "properties": { "FID": 81, "Id": 0, "Acad_text": "01208400", "Acad_angle": 0, "Gislink": 0, "Area": 822500, "Perimeter": 5324, "Foglio": 84, "Sezione": " " }, "geometry": { "type": "Polygon", "coordinates": [ [ [ 7.27984615, 44.71867683 ], [ 7.27981414, 44.71870775 ], [ 7.27677003, 44.71866185 ], [ 7.27688529, 44.71477938 ], [ 7.28031482, 44.71483109 ], [ 7.28027395, 44.71485156 ], [ 7.28015119, 44.71491848 ], [ 7.27993115, 44.71504699 ], [ 7.27977252, 44.71516343 ], [ 7.27976558, 44.71517652 ], [ 7.27972827, 44.71524484 ], [ 7.27960214, 44.71544513 ], [ 7.27934328, 44.71572877 ], [ 7.27891188, 44.71592709 ], [ 7.27883466, 44.71592674 ], [ 7.27885597, 44.71622413 ], [ 7.27876297, 44.71632118 ], [ 7.27869341, 44.71636533 ], [ 7.27863507, 44.71640236 ], [ 7.27854655, 44.71645854 ], [ 7.27866657, 44.71652343 ], [ 7.27872399, 44.71655329 ], [ 7.27892435, 44.71667233 ], [ 7.27918644, 44.716798 ], [ 7.27916438, 44.71703922 ], [ 7.2794802, 44.71761187 ], [ 7.27949416, 44.71768358 ], [ 7.27955482, 44.71797473 ], [ 7.27985162, 44.71848326 ], [ 7.27984615, 44.71867683 ] ] ] } },
{ "type": "Feature", "properties": { "FID": 83, "Id": 0, "Acad_text": "01208600", "Acad_angle": 0, "Gislink": 0, "Area": -1062040, "Perimeter": 5619, "Foglio": 86, "Sezione": " " }, "geometry": { "type": "Polygon", "coordinates": [ [ [ 7.28031213, 44.71483243 ], [ 7.28031482, 44.71483109 ], [ 7.28128989, 44.71484577 ], [ 7.28117493, 44.71872825 ], [ 7.27981414, 44.71870775 ], [ 7.27984615, 44.71867683 ], [ 7.27985162, 44.71848326 ], [ 7.27955482, 44.71797473 ], [ 7.2794802, 44.71761187 ], [ 7.27916438, 44.71703922 ], [ 7.27918644, 44.716798 ], [ 7.27892435, 44.71667233 ], [ 7.2788749, 44.71664502 ], [ 7.27872399, 44.71655329 ], [ 7.27854655, 44.71645854 ], [ 7.27863507, 44.71640236 ], [ 7.27869341, 44.71636533 ], [ 7.27876297, 44.71632118 ], [ 7.27885597, 44.71622413 ], [ 7.27883466, 44.71592674 ], [ 7.27891188, 44.71592709 ], [ 7.27934328, 44.71572877 ], [ 7.27960214, 44.71544513 ], [ 7.27972827, 44.71524484 ], [ 7.27976558, 44.71517652 ], [ 7.27977252, 44.71516343 ], [ 7.27993115, 44.71504699 ], [ 7.28015119, 44.71491848 ], [ 7.28027395, 44.71485156 ], [ 7.28031213, 44.71483243 ] ] ] } }
]
}
