{
"type": "FeatureCollection",
"name": "Service004012_0003__00_pai2008",
"xy_coordinate_resolution": 1e-08,
"features": [
{ "type": "Feature", "properties": { "FID": 95, "id": 147, "layer": "0", "color": 80, "area": 39193, "Acad_text": "PAICLII1.43", "Gislink": 99, "classe": "II1" }, "geometry": { "type": "Polygon", "coordinates": [ [ [ 7.28111212, 44.71531457 ], [ 7.28111654, 44.71519729 ], [ 7.28116032, 44.71503535 ], [ 7.28131491, 44.71482145 ], [ 7.28140743, 44.71470475 ], [ 7.28153505, 44.71463392 ], [ 7.28168454, 44.71461792 ], [ 7.28184567, 44.71462005 ], [ 7.28201868, 44.71466649 ], [ 7.28218971, 44.71474913 ], [ 7.2822739, 44.71481331 ], [ 7.28235788, 44.71493162 ], [ 7.28240176, 44.71507764 ], [ 7.28247019, 44.71521426 ], [ 7.28253972, 44.71532373 ], [ 7.28271038, 44.71537148 ], [ 7.28300512, 44.71543915 ], [ 7.28326513, 44.71545255 ], [ 7.2835128, 44.71548397 ], [ 7.28377305, 44.71554226 ], [ 7.28394564, 44.71558919 ], [ 7.2841386, 44.71559394 ], [ 7.28411653, 44.71634077 ], [ 7.28388749, 44.71630213 ], [ 7.28361453, 44.71622619 ], [ 7.28337834, 44.7161954 ], [ 7.28312955, 44.71620054 ], [ 7.28293052, 44.71621586 ], [ 7.28268227, 44.71624818 ], [ 7.28249546, 44.71628947 ], [ 7.28227079, 44.71634826 ], [ 7.28203528, 44.7163912 ], [ 7.28185023, 44.71640746 ], [ 7.28167678, 44.71639645 ], [ 7.28145763, 44.71627653 ], [ 7.28134839, 44.71620286 ], [ 7.28126295, 44.71611107 ], [ 7.28116762, 44.71592009 ], [ 7.28109965, 44.71565736 ], [ 7.28110227, 44.7155762 ], [ 7.2811077, 44.71543185 ], [ 7.28111212, 44.71531457 ] ] ] } },
{ "type": "Feature", "properties": { "FID": 111, "id": 176, "layer": "0", "color": 171, "area": 25837757, "Acad_text": "PAIClIIIInd.1", "Gislink": 1, "classe": " " }, "geometry": { "type": "Polygon", "coordinates": [ [ [ 7.28095019, 44.71740667 ], [ 7.28130029, 44.71760138 ], [ 7.27897321, 44.71756632 ], [ 7.27907457, 44.71414769 ], [ 7.28417908, 44.71422451 ], [ 7.2841386, 44.71559394 ], [ 7.28394564, 44.71558919 ], [ 7.28377305, 44.71554226 ], [ 7.2835128, 44.71548397 ], [ 7.28326513, 44.71545255 ], [ 7.28300512, 44.71543915 ], [ 7.28271038, 44.71537148 ], [ 7.28253972, 44.71532373 ], [ 7.28247019, 44.71521426 ], [ 7.28240176, 44.71507764 ], [ 7.28235788, 44.71493162 ], [ 7.2822739, 44.71481331 ], [ 7.28218971, 44.71474913 ], [ 7.28201868, 44.71466649 ], [ 7.28184567, 44.71462005 ], [ 7.28168454, 44.71461792 ], [ 7.28153505, 44.71463392 ], [ 7.28140743, 44.71470475 ], [ 7.28131491, 44.71482145 ], [ 7.28116032, 44.71503535 ], [ 7.28111654, 44.71519729 ], [ 7.28111212, 44.71531457 ], [ 7.2811077, 44.71543185 ], [ 7.28110227, 44.7155762 ], [ 7.28109965, 44.71565736 ], [ 7.28116762, 44.71592009 ], [ 7.28126295, 44.71611107 ], [ 7.2813484, 44.71620286 ], [ 7.28145763, 44.71627653 ], [ 7.28167678, 44.71639645 ], [ 7.28185023, 44.71640746 ], [ 7.28203528, 44.7163912 ], [ 7.28204783, 44.71638228 ], [ 7.28227079, 44.71634826 ], [ 7.28249546, 44.71628947 ], [ 7.28268227, 44.71624818 ], [ 7.28293052, 44.71621586 ], [ 7.28312955, 44.71620054 ], [ 7.28337834, 44.7161954 ], [ 7.28361453, 44.71622619 ], [ 7.28388749, 44.71630213 ], [ 7.28411653, 44.71634077 ], [ 7.28409061, 44.71721759 ], [ 7.28402913, 44.71716507 ], [ 7.28394209, 44.71712771 ], [ 7.28385314, 44.71715344 ], [ 7.28377431, 44.7172605 ], [ 7.28375789, 44.71738651 ], [ 7.2837785, 44.71753093 ], [ 7.28383276, 44.71763947 ], [ 7.28267339, 44.71762204 ], [ 7.28265681, 44.71761194 ], [ 7.28244918, 44.71753684 ], [ 7.28219121, 44.71746993 ], [ 7.28195736, 44.71739447 ], [ 7.28172299, 44.71733699 ], [ 7.28156287, 44.71728962 ], [ 7.28142784, 44.71723363 ], [ 7.28104095, 44.71684064 ], [ 7.28092047, 44.71668521 ], [ 7.28079823, 44.71656806 ], [ 7.28078595, 44.71655902 ], [ 7.28072495, 44.71651294 ], [ 7.28063758, 44.71651212 ], [ 7.28051178, 44.71653824 ], [ 7.28043419, 44.71662855 ], [ 7.28038122, 44.71674505 ], [ 7.28041722, 44.71680797 ], [ 7.28046507, 44.71689784 ], [ 7.28070819, 44.71716053 ], [ 7.28084125, 44.71729725 ], [ 7.28095019, 44.71740667 ] ] ] } }
]
}
