{
"type": "FeatureCollection",
"name": "Service004012_0001__12_edifici_catastali",
"xy_coordinate_resolution": 1e-08,
"features": [
{ "type": "Feature", "properties": { "FID": 6080, "Id": 0, "Acad_text": "396-1", "Acad_angle": 0, "Gislink": 6081, "Area": 110, "Perimeter": 43, "Foglio": 86, "DataIn": "20080124", "DataFi": " ", "Sezione": "-" }, "geometry": { "type": "Polygon", "coordinates": [ [ [ 7.28054516, 44.71574183 ], [ 7.28065253, 44.71583422 ], [ 7.28057245, 44.71588121 ], [ 7.28046151, 44.71578861 ], [ 7.28054516, 44.71574183 ] ] ] } },
{ "type": "Feature", "properties": { "FID": 6081, "Id": 0, "Acad_text": "224", "Acad_angle": 0, "Gislink": 6082, "Area": 50, "Perimeter": 28, "Foglio": 86, "DataIn": "20080124", "DataFi": " ", "Sezione": "-" }, "geometry": { "type": "Polygon", "coordinates": [ [ [ 7.28151747, 44.71613127 ], [ 7.28143791, 44.71615523 ], [ 7.28140302, 44.71609499 ], [ 7.28148247, 44.71607094 ], [ 7.28151747, 44.71613127 ] ] ] } },
{ "type": "Feature", "properties": { "FID": 6146, "Id": 0, "Acad_text": "444-2", "Acad_angle": 0, "Gislink": 6147, "Area": 71, "Perimeter": 35, "Foglio": 86, "DataIn": "20080124", "DataFi": " ", "Sezione": "-" }, "geometry": { "type": "Polygon", "coordinates": [ [ [ 7.28157788, 44.7152715 ], [ 7.28158326, 44.71525525 ], [ 7.28159623, 44.71521606 ], [ 7.28173587, 44.7152322 ], [ 7.28171666, 44.71528735 ], [ 7.28157788, 44.7152715 ] ] ] } },
{ "type": "Feature", "properties": { "FID": 9591, "Id": 0, "Acad_text": "26-1", "Acad_angle": 0, "Gislink": 9592, "Area": 0, "Perimeter": 0, "Foglio": 86, "DataIn": "20111007", "DataFi": " ", "Sezione": "-" }, "geometry": { "type": "Polygon", "coordinates": [ [ [ 7.28087509, 44.71602969 ], [ 7.28094715, 44.71605684 ], [ 7.28092087, 44.71609558 ], [ 7.28090982, 44.71611043 ], [ 7.28087581, 44.716156 ], [ 7.28084782, 44.71618039 ], [ 7.28082992, 44.71617321 ], [ 7.28078725, 44.7161548 ], [ 7.28083935, 44.71608071 ], [ 7.28087509, 44.71602969 ] ] ] } }
]
}
