{
"type": "FeatureCollection",
"name": "Service004012_0001__11_varie",
"xy_coordinate_resolution": 1e-08,
"features": [
{ "type": "Feature", "properties": { "FID": 14026, "GisLink": 0, "Acad_Text": " ", "Perimeter": 33, "Foglio": 0 }, "geometry": { "type": "LineString", "coordinates": [ [ 7.28334275, 44.71587133 ], [ 7.28293352, 44.7158891 ] ] } },
{ "type": "Feature", "properties": { "FID": 14027, "GisLink": 0, "Acad_Text": " ", "Perimeter": 10, "Foglio": 0 }, "geometry": { "type": "LineString", "coordinates": [ [ 7.28293352, 44.7158891 ], [ 7.28294486, 44.71598625 ] ] } },
{ "type": "Feature", "properties": { "FID": 14028, "GisLink": 0, "Acad_Text": " ", "Perimeter": 2, "Foglio": 0 }, "geometry": { "type": "LineString", "coordinates": [ [ 7.28198724, 44.71482666 ], [ 7.28198467, 44.71485209 ] ] } },
{ "type": "Feature", "properties": { "FID": 14029, "GisLink": 0, "Acad_Text": " ", "Perimeter": 2, "Foglio": 0 }, "geometry": { "type": "LineString", "coordinates": [ [ 7.28198467, 44.71485209 ], [ 7.28200734, 44.71486042 ] ] } },
{ "type": "Feature", "properties": { "FID": 14030, "GisLink": 0, "Acad_Text": " ", "Perimeter": 3, "Foglio": 0 }, "geometry": { "type": "LineString", "coordinates": [ [ 7.28200734, 44.71486042 ], [ 7.2820556, 44.71486258 ] ] } },
{ "type": "Feature", "properties": { "FID": 14031, "GisLink": 0, "Acad_Text": " ", "Perimeter": 0, "Foglio": 0 }, "geometry": { "type": "LineString", "coordinates": [ [ 7.2820556, 44.71486258 ], [ 7.28205868, 44.71486193 ] ] } },
{ "type": "Feature", "properties": { "FID": 14032, "GisLink": 0, "Acad_Text": " ", "Perimeter": 2, "Foglio": 0 }, "geometry": { "type": "LineString", "coordinates": [ [ 7.28205868, 44.71486193 ], [ 7.28208466, 44.71487841 ] ] } },
{ "type": "Feature", "properties": { "FID": 14033, "GisLink": 0, "Acad_Text": " ", "Perimeter": 5, "Foglio": 0 }, "geometry": { "type": "LineString", "coordinates": [ [ 7.28208466, 44.71487841 ], [ 7.28213625, 44.71484743 ] ] } },
{ "type": "Feature", "properties": { "FID": 14034, "GisLink": 0, "Acad_Text": " ", "Perimeter": 2, "Foglio": 0 }, "geometry": { "type": "LineString", "coordinates": [ [ 7.28213625, 44.71484743 ], [ 7.28211957, 44.71482571 ] ] } },
{ "type": "Feature", "properties": { "FID": 14035, "GisLink": 0, "Acad_Text": " ", "Perimeter": 8, "Foglio": 0 }, "geometry": { "type": "LineString", "coordinates": [ [ 7.28211957, 44.71482571 ], [ 7.28201149, 44.71481994 ] ] } },
{ "type": "Feature", "properties": { "FID": 14036, "GisLink": 0, "Acad_Text": " ", "Perimeter": 2, "Foglio": 0 }, "geometry": { "type": "LineString", "coordinates": [ [ 7.28201149, 44.71481994 ], [ 7.28198724, 44.71482666 ] ] } },
{ "type": "Feature", "properties": { "FID": 14037, "GisLink": 0, "Acad_Text": " ", "Perimeter": 4, "Foglio": 0 }, "geometry": { "type": "LineString", "coordinates": [ [ 7.28189199, 44.71499426 ], [ 7.28190084, 44.71495821 ] ] } },
{ "type": "Feature", "properties": { "FID": 14038, "GisLink": 0, "Acad_Text": " ", "Perimeter": 3, "Foglio": 0 }, "geometry": { "type": "LineString", "coordinates": [ [ 7.28206591, 44.71491339 ], [ 7.28201875, 44.71491822 ] ] } },
{ "type": "Feature", "properties": { "FID": 14039, "GisLink": 0, "Acad_Text": " ", "Perimeter": 3, "Foglio": 0 }, "geometry": { "type": "LineString", "coordinates": [ [ 7.28206767, 44.71492436 ], [ 7.28202085, 44.71492908 ] ] } }
]
}
