{
"type": "FeatureCollection",
"name": "Service004012_0001__14_strade",
"xy_coordinate_resolution": 1e-08,
"features": [
{ "type": "Feature", "properties": { "FID": 168, "Id": 0, "Acad_text": "STRADA", "Acad_angle": 0, "Gislink": 170, "Area": 3602, "Perimeter": 2422, "Foglio": 84, "DataIn": " ", "DataFi": " ", "Sezione": " " }, "geometry": { "type": "Polygon", "coordinates": [ [ [ 7.27869341, 44.71636533 ], [ 7.27863507, 44.71640236 ], [ 7.27852483, 44.71641627 ], [ 7.27848727, 44.71642493 ], [ 7.27842629, 44.71643898 ], [ 7.27833546, 44.71644637 ], [ 7.27825863, 44.71644509 ], [ 7.27814548, 44.71642782 ], [ 7.27789524, 44.71633459 ], [ 7.27776837, 44.71626205 ], [ 7.27758535, 44.71615699 ], [ 7.27750021, 44.71610881 ], [ 7.27723947, 44.71604584 ], [ 7.2770285, 44.7159959 ], [ 7.27692519, 44.71595432 ], [ 7.27685129, 44.71592479 ], [ 7.2768522, 44.7158942 ], [ 7.27692861, 44.71592179 ], [ 7.27707165, 44.71597674 ], [ 7.27725961, 44.7160185 ], [ 7.27751674, 44.71608667 ], [ 7.27756861, 44.71611513 ], [ 7.27791388, 44.7163055 ], [ 7.27797438, 44.71632803 ], [ 7.27817164, 44.71640263 ], [ 7.2782206, 44.71641679 ], [ 7.27832518, 44.71641533 ], [ 7.27845291, 44.71640568 ], [ 7.2785884, 44.71637394 ], [ 7.27869341, 44.71636533 ] ] ] } },
{ "type": "Feature", "properties": { "FID": 171, "Id": 0, "Acad_text": "STRADA", "Acad_angle": 0, "Gislink": 173, "Area": 3847, "Perimeter": 2614, "Foglio": 86, "DataIn": " ", "DataFi": " ", "Sezione": " " }, "geometry": { "type": "Polygon", "coordinates": [ [ [ 7.28117872, 44.71612013 ], [ 7.28125149, 44.71614276 ], [ 7.28125064, 44.71617134 ], [ 7.28115454, 44.71614033 ], [ 7.28111744, 44.71612537 ], [ 7.28094715, 44.71605684 ], [ 7.28087509, 44.71602969 ], [ 7.28051765, 44.71596812 ], [ 7.28043977, 44.71592539 ], [ 7.28034818, 44.71591132 ], [ 7.28016983, 44.71596707 ], [ 7.27991245, 44.71600455 ], [ 7.27970551, 44.71612162 ], [ 7.27962201, 44.71615561 ], [ 7.27960383, 44.71616301 ], [ 7.27924447, 44.71625105 ], [ 7.27897402, 44.71629172 ], [ 7.27870755, 44.71639286 ], [ 7.27863507, 44.71640236 ], [ 7.27869341, 44.71636533 ], [ 7.27873364, 44.71635581 ], [ 7.27896396, 44.71626838 ], [ 7.27924378, 44.71621783 ], [ 7.27956876, 44.71614437 ], [ 7.27966751, 44.71610645 ], [ 7.27988699, 44.71598262 ], [ 7.28008496, 44.71595365 ], [ 7.2801739, 44.71593732 ], [ 7.28028139, 44.71589597 ], [ 7.28035277, 44.71588927 ], [ 7.28041965, 44.71589208 ], [ 7.28053217, 44.71594732 ], [ 7.28081316, 44.71598685 ], [ 7.28092268, 44.71601334 ], [ 7.28093957, 44.71602039 ], [ 7.28112122, 44.71609611 ], [ 7.28117872, 44.71612013 ] ] ] } }
]
}
